"lat","lon","Name","Phonetic","PostalCode","Address","都道府県"
"43.3310119","145.5808182","碓氷勝三郎商店","うすいかつさぶろうしょうてん","〒087-0041","北海道根室市常盤町1-6","北海道"
"42.9784056","144.3959487","福司酒造","ふくつかさしゅぞう","〒085-0831","北海道釧路市住吉2-13-23","北海道"
"43.8042589","143.8875655","山田酒造","やまだしゅぞう","〒090-0037","北海道北見市山下町2","北海道"
"43.7956624","142.4081047","男山","おとこやま","〒079-8412","北海道旭川市永山2条7丁目","北海道"
"43.7543599","142.3746075","合同酒精 旭川工場","ごうどうせいしゅ あさひかわこうじょう","〒078-8334","北海道旭川市南四条通20-1955","北海道"
"43.7606758","142.3729018","高砂酒造","たかさごしゅぞう","〒070-0030","北海道旭川市宮下通17","北海道"
"39.6481529","141.9675135","菱屋酒造店","ひしやしゅぞうてん","〒027-0006","岩手県宮古市鍬ヶ崎下町5-24","岩手県"
"43.559366","141.881706","金滴酒造","きんてきしゅぞう","〒073-1103","北海道樺戸郡新十津川町中央71-7","北海道"
"39.2697296","141.833996","浜千鳥","はまちどり","〒026-0045","岩手県釜石市小川町3-8-7","岩手県"
"40.270202","141.7951914","鈴蘭酒造","すずらんしゅぞう","〒028-7801","岩手県久慈市侍浜町字本町7-49-1","岩手県"
"39.8467332","141.7907982","泉金酒造","せんきんしゅぞう","〒027-0501","岩手県下閉伊郡岩泉町岩泉太田30","岩手県"
"40.1298132","141.7860681","福来","ふくらい","〒028-8111","岩手県久慈市宇部町5-31","岩手県"
"43.0611695","141.7697203","小林酒造","こばやししゅぞう","〒069-1521","北海道夕張郡栗山町錦3-109","北海道"
"39.0975448","141.6925717","酔仙酒造","すいせんしゅぞう","〒022-0004","岩手県大船渡市猪川町久名110-1","岩手県"
"40.4410631","141.6299982","八戸酒類 第二工場","はちのへしゅるい だいにこうじょう","〒039-1202","青森県三戸郡階上町大字赤保内字大上26-40","青森県"
"38.9063981","141.5744332","男山本店","おとこやまほんてん","〒988-0013","宮城県気仙沼市魚町2-2-14","宮城県"
"38.9062704","141.5738722","角星","かくぼし","〒988-0013","宮城県気仙沼市魚町2-1-9","宮城県"
"39.32252","141.5737223","上閉伊酒造","かみへいしゅぞう","〒028-0501","岩手県遠野市青笹町糠前31-19-7","岩手県"
"40.5243244","141.5231608","八戸酒造","はちのへしゅぞう","〒031-0812","青森県八戸市湊町本町9","青森県"
"43.8582271","141.5228699","国稀酒造","くにまれしゅぞう","〒077-0204","北海道増毛郡増毛町稲葉町1-17","北海道"
"40.5108758","141.4921982","八鶴","はちつる","〒031-0086","青森県八戸市八日町1","青森県"
"40.5175858","141.4833602","合同酒精 八戸工場","ごうどうしゅせいはちのへこうじょう","〒031-0072","青森県八戸市城下2-11-67","青森県"
"40.5944079","141.4297108","桃川","ももかわ","〒039-2293","青森県上北郡おいらせ町上明堂112","青森県"
"43.0585104","141.3648425","日本清酒","にほんせいしゅ","〒060-0053","北海道札幌市中央区南三条東5-2","北海道"
"38.4352165","141.3084301","墨廼江酒造","すみのえしゅぞう","〒986-0827","宮城県石巻市千石町8-43","宮城県"
"40.2729268","141.3008837","南部美人","なんぶびじん","〒028-6101","岩手県二戸市福岡上町13","岩手県"
"38.4367965","141.297531","平孝酒造","ひらこうしゅぞう","〒986-0871","宮城県石巻市清水町1丁目5-3","宮城県"
"40.5249168","141.2975109","菊駒酒造","きくこましゅぞう","〒039-1554","青森県三戸郡五戸町字川原町12","青森県"
"40.5249168","141.2975109","八戸酒類 五戸工場","はちのへしゅるい ごのへこうじょう","〒039-1554","青森県三戸郡五戸町字川原町12","青森県"
"40.6150206","141.2486116","鳩正宗","はとまさむね","〒034-0001","青森県十和田市大字三本木字稲吉176-2","青森県"
"41.2979988","141.21224","関乃井酒造","せきのいしゅぞう","〒035-0031","青森県むつ市柳町1-5-15","青森県"
"38.8185589","141.1911768","磐乃井酒造","いわのいしゅぞう","〒029-3205","岩手県一関市花泉町涌津舘72","岩手県"
"39.679056","141.1840957","桜顔酒造","さくらがおしゅぞう","〒020-0811","岩手県盛岡市川目町23-18","岩手県"
"38.7585876","141.1831878","石越醸造","いしこしじょうぞう","〒989-4701","宮城県登米市石越町北郷中澤108-1","宮城県"
"39.5769986","141.1681457","月の輪酒造店","つきのわしゅぞうてん","〒028-3303","岩手県紫波郡紫波町高水寺向畑101","岩手県"
"39.5051184","141.1605818","川村酒造店","かわむらしゅぞうてん","〒028-3101","岩手県花巻市石鳥谷町好地12-132","岩手県"
"39.692507","141.1595753","あさ開","あさびらき","〒020-0828","岩手県盛岡市大慈寺町10-34","岩手県"
"39.7036584","141.156578","菊の司酒造","きくのつかさしゅぞう","〒020-0885","岩手県盛岡市紺屋町4-20","岩手県"
"40.6964523","141.1535873","盛田庄兵衛","もりたしょうべえ","〒039-2525","青森県上北郡七戸町字七戸230","青森県"
"39.6874161","141.1525134","岩手川","いわてがわ","〒020-0861","岩手県盛岡市","岩手県"
"39.36772","141.15135","白雲","はくうん","〒025-0015","岩手県花巻市","岩手県"
"39.3466171","141.1465","喜久盛酒造","きくざかりしゅぞう","〒024-0103","岩手県北上市更木3-54","岩手県"
"39.1477228","141.1411908","天瓢","てんぴょう","〒023-0047","岩手県奥州市水沢区立町13","岩手県"
"39.6654395","141.1391525","赤武酒造","あかぶしゅぞう","〒020-0852","岩手県盛岡市北飯岡1-8-25（盛岡仮事務所）","岩手県"
"38.931413","141.1328167","世嬉の一酒造","せきのいちしゅぞう","〒021-0885","岩手県一関市田村町5-42","岩手県"
"38.4741899","141.1324027","川敬商店","かわけいしょうてん","〒989-4206","宮城県遠田郡美里町二郷字高玉六号7","宮城県"
"38.9282215","141.1257313","両磐酒造","りょうばんしゅぞう","〒021-0032","岩手県一関市末広1-8-23","岩手県"
"39.5243845","141.1251594","高橋酒造店","たかはししゅぞうてん","〒028-3452","岩手県紫波郡紫波町片寄堀米36","岩手県"
"38.8677676","141.1243805","萩野酒造","はぎのしゅぞう","〒989-4806","宮城県栗原市金成有壁新町52","宮城県"
"39.0537402","141.1223701","岩手銘醸","いわてめいじょう","〒029-4208","岩手県奥州市前沢区新町13","岩手県"
"39.5519969","141.1086691","吾妻嶺酒造店","あづまみねしゅぞうてん","〒028-3453","岩手県紫波郡紫波町土舘内川5","岩手県"
"39.5632645","141.1039472","廣田酒造店","ひろたしゅぞうてん","〒028-3447","岩手県紫波郡紫波町宮手泉屋敷2-4","岩手県"
"39.9097078","141.0961945","わしの尾","わしのお","〒028-7111","岩手県八幡平市大更第22地割158","岩手県"
"38.5019953","141.048708","一ノ蔵","いちのくら","〒987-1393","宮城県大崎市 松山千石字大欅14","宮城県"
"37.4795462","141.0253672","鈴木酒造店","すずきしゅぞうてん","〒979-1522","福島県双葉郡浪江町請戸東向10","福島県"
"38.3169091","141.0191968","佐浦","さうら","〒985-0052","宮城県塩竈市本町2-19","宮城県"
"37.4932193","141.0139387","馬場酒造本店","ばばしゅぞうほんてん","〒979-151","福島県双葉郡浪江町北幾世橋大町21","福島県"
"38.3171256","141.0138918","阿部勘酒造店","あべかんしゅぞうてん","〒985-0057","宮城県塩竈市西町3-9","宮城県"
"38.6566443","141.011252","はさまや酒造店","はさまやしゅぞうてん","〒987-2186","宮城県栗原市高清水字中町8番地","宮城県"
"43.1790326","141.0059368","北の誉酒造","きたのほまれしゅぞう","〒047-0013","北海道小樽市奥沢1-21-15","北海道"
"43.172049","141.0058651","雪の花酒造","ゆきのはなしゅぞう","〒047-0003","北海道小樽市","北海道"
"43.2034466","140.9984998","田中酒造","たなかしゅぞう","〒047-0031","北海道小樽市色内3-2-5","北海道"
"43.2017913","140.9944642","山二わたなべ","やまにわたなべ","〒047-0032","北海道小樽市稲穂4-6-1","北海道"
"37.492416","140.9936683","上田善治郎商店","うえだぜんじろうしょうてん","〒979-1513","福島県双葉郡浪江町権現堂新町15","福島県"
"38.8268347","140.9851212","千田酒造","ちだしゅぞう","〒989-5351","宮城県栗原市栗駒中野北畑中63-1","宮城県"
"38.5673902","140.9837389","宮城ふるさと酒造","みやぎふるさとしゅぞう","〒989-6112","宮城県大崎市古川馬寄字屋敷3-2","宮城県"
"38.5762827","140.9557134","橋平酒造店","はしへいしゅぞうてん","〒989-6153","宮城県大崎市古川七日町3-1","宮城県"
"38.1782391","140.9487191","佐々木酒造店","ささきしゅぞうてん","〒981-1213","宮城県名取市閖上1-8-10","宮城県"
"38.529138","140.9457081","新澤醸造店","にいざわじょうぞうてん","〒989-6321","宮城県大崎市三本木字北町63","宮城県"
"38.4555484","140.937234","大和蔵酒造","たいわぐらしゅぞう","〒981-3408","宮城県黒川郡大和町松坂平8-1","宮城県"
"36.9543628","140.9021721","常磐酒類","じょうばんしゅるい","〒971-8163","福島県いわき市小名浜中町境178","福島県"
"38.7642075","140.8952758","金の井酒造","かねのいしゅぞう","〒987-2303","宮城県栗原市一迫字川口町浦1-1","宮城県"
"38.2442063","140.8926148","鳳山酒造","ほうざんしゅぞう","〒984-0814","宮城県仙台市若林区","宮城県"
"38.3991507","140.8871029","内ヶ崎酒造店","うちがさきしゅぞうてん","〒981-3311","宮城県黒川郡富谷町富谷字町27","宮城県"
"38.5761556","140.8843512","寒梅酒造","かんばいしゅぞう","〒989-6216","宮城県大崎市古川柏崎字境田15","宮城県"
"38.2484923","140.8839662","森民酒造本家","もりたみしゅぞうほんけ","〒984-0073","宮城県仙台市若林区荒町53","宮城県"
"37.0645089","140.8813321","冨沢酒造店","とみざわしゅぞうてん","〒970-8026","福島県いわき市平高月1","福島県"
"38.267404","140.8677449","吉岡酒造店","よしおかしゅぞうてん","〒980-0803","宮城県仙台市青葉区国分町3-9-30","宮城県"
"38.6568962","140.8646091","森民酒造店","もりたみしゅぞうてん","〒989-6433","宮城県大崎市岩出山字上川原町15","宮城県"
"36.976941","140.8625031","御代酒造店","みよしゅぞうてん","〒972-8313","福島県いわき市常磐岩ヶ岡町山ノ根25","福島県"
"37.0465632","140.8608233","四家酒造店","しけしゅぞうてん","〒973-8408","福島県いわき市内郷高坂町中平14","福島県"
"38.5670206","140.8569263","中勇酒造店","なかゆうしゅぞうてん","〒981-4241","宮城県加美郡加美町南町166","宮城県"
"38.5718339","140.8568122","田中酒造店","たなかしゅぞうてん","〒981-4251","宮城県加美郡加美町字西町88-1","宮城県"
"38.570784","140.8555624","山和酒造店","やまわしゅぞうてん","〒981-4241","宮城県加美郡加美町南町109-1","宮城県"
"36.9891775","140.851618","太平桜酒造","たいへいざくらしゅぞう","〒972-8317","福島県いわき市常磐下湯長谷町町下92","福島県"
"38.3518405","140.850934","宮城酒類","みやぎしゅるい","〒981-3206","宮城県仙台市","宮城県"
"35.7329459","140.8426225","石上酒造","いしがみしゅぞう","〒288-0065","千葉県銚子市田中町7-1","千葉県"
"35.7297066","140.8205468","飯田酒造場","いいだしゅぞうじょう","〒288-0817","千葉県銚子市清川町2-1-2","千葉県"
"36.9181899","140.7982973","鷺酒造店","さぎしゅぞうてん","〒974-8261","福島県いわき市植田町中央1-4-4","福島県"
"35.7442601","140.7976677","小林酒造場","こばやししゅぞうじょう","〒288-0836","千葉県銚子市松岸町2-78","千葉県"
"36.8546868","140.7905524","住の友酒造","すみのともしゅぞう","〒319-1701","茨城県北茨城市平潟町465","茨城県"
"38.3540255","140.7898311","仙台伊澤家 勝山酒造","かつやましゅぞう","〒981-3225","宮城県仙台市泉区福岡字二又25番地1号","宮城県"
"40.1886755","140.7893761","かづの銘酒","かづのめいしゅ","〒018-5201","秋田県鹿角市花輪字中花輪29","秋田県"
"42.9050785","140.7410961","二世古酒造","にせこしゅぞう","〒044-0083","北海道虻田郡倶知安町旭47","北海道"
"36.9055064","140.733559","小野酒造店","おのしゅぞうてん","〒979-0153","福島県いわき市川部町橋本82","福島県"
"38.1189673","140.7256451","大沼酒造店","おおぬましゅぞうてん","〒989-1305","宮城県柴田郡村田町村田56-1","宮城県"
"36.6521127","140.6988492","森島酒造","もりしましゅぞう","〒319-1411","茨城県日立市川尻町1-17-7","茨城県"
"40.8542807","140.6967729","西田酒造店","にしだしゅぞうてん","〒038-0059","青森県青森市大字油川字大浜46","青森県"
"36.6719656","140.6833834","宏和商工 日立酒造工場","こうわしょうこう","〒319-1304","茨城県日立市十王町友部104","茨城県"
"35.7863374","140.6663516","神明酒造","しんめいしゅぞう","〒289-0625","千葉県香取郡東庄町夏目298","千葉県"
"36.5702156","140.6484212","嶋崎酒造","しまざきしゅぞう","〒316-0036","茨城県日立市鮎川町4-2-8","茨城県"
"37.2839286","140.627366","秋元酒造店","あきもとしゅぞうてん","〒963-3401","福島県田村郡小野町大字小野新町字荒町6","福島県"
"37.2845729","140.6252163","小泉合名","こいずみ","〒963-3401","福島県田村郡小野町大字小野新町字本町8","福島県"
"36.6789212","140.6223332","椎名酒造店","しいなしゅぞうてん","〒319-1305","茨城県日立市十王町高原411","茨城県"
"38.0039694","140.6213464","蔵王酒造","ざおうしゅぞう","〒989-0253","宮城県白石市字東小路120-1","宮城県"
"35.8524708","140.6016597","飯田本家","いいだほんけ","〒289-0313","千葉県香取市小見川178","千葉県"
"40.6451233","140.5969534","中村亀吉","なかむらかめきち","〒036-0377","青森県黒石市中町12","青森県"
"40.64414","140.5967341","鳴海醸造店","なるみじょうぞうてん","〒036-0377","青森県黒石市大字中町1-1","青森県"
"40.6449453","140.589154","佐藤酒造","さとうしゅぞう","〒036-0387","青森県黒石市元町7","青森県"
"37.1910731","140.5858181","若清水酒造","かわしみずしゅぞう","〒963-8112","福島県石川郡平田村北方寺屋敷18","福島県"
"39.3050111","140.5806886","阿桜酒造","あざくらしゅぞう","〒013-0041","秋田県横手市大沢字西野67-2","秋田県"
"36.3146646","140.5757827","月の井酒造店","つきのいしゅぞうてん","〒311-1301","茨城県東茨城郡大洗町磯浜町638","茨城県"
"37.4385859","140.5757196","玄葉本店","げんばほんてん","〒963-4312","福島県田村市船引町船引北町通41","福島県"
"35.6704135","140.5754794","宮崎本家","みやざきほんけ","〒289-3181","千葉県匝瑳市野手1699","千葉県"
"38.2081642","140.5699634","まるや天賞","まるやてんしょう","〒989-1502","宮城県柴田郡川崎町今宿小銀沢山1-115","宮城県"
"40.2826731","140.564632","北鹿","ほくしか","〒017-0043","秋田県大館市有浦2-2-3","秋田県"
"35.9460896","140.5581442","愛友酒造","あいゆうしゅぞう","〒311-2421","茨城県潮来市辻205","茨城県"
"37.0925308","140.5493189","豊国酒造","とよくにしゅぞう","〒963-8305","福島県石川郡古殿町竹貫114","福島県"
"39.4212259","140.5484129","栗林酒造店","くりばやししゅぞうてん","〒019-1404","秋田県仙北郡美郷町六郷字米町56","秋田県"
"39.4279724","140.547732","高橋酒造店","たかはししゅぞうてん","〒019-1404","秋田県仙北郡美郷町六郷字宝門清水72-13","秋田県"
"39.202077","140.5466852","日の丸醸造","ひのまるじょうぞう","〒019-0700","秋田県横手市増田町増田字七日町114-2","秋田県"
"39.4229146","140.5460769","八千代酒造","やちよしゅぞう","〒019-1404","秋田県仙北郡美郷町六郷字本道町60","秋田県"
"39.203513","140.5452992","勇駒酒造","いさみごましゅぞう","〒019-0701","秋田県横手市増田町増田中町64","秋田県"
"35.940712","140.5420874","遠峰酒造","とおみねしゅぞう","〒311-2424","茨城県潮来市潮来209","茨城県"
"36.5234489","140.5412021","岡部","おかべ","〒313-0038","茨城県常陸太田市小沢町2335","茨城県"
"36.6021697","140.5394768","檜山酒造","ひやましゅぞう","〒311-0311","茨城県常陸太田市 町屋町1359","茨城県"
"39.5413754","140.5330764","鈴木酒造店","すずきしゅぞうてん","〒014-0207","秋田県大仙市長野字二日町九","秋田県"
"36.0384159","140.5095326","竹乃葉酒造","たけのはしゅぞう","〒311-3811","茨城県行方市四鹿30","茨城県"
"36.7181306","140.503343","東魁酒造","とうかいしゅぞう","〒311-0506","茨城県常陸太田市折橋町1211","茨城県"
"35.7013414","140.4993569","青柳酒造","あおやぎしゅぞう","〒289-1701","千葉県山武郡横芝光町篠本726","千葉県"
"39.4640763","140.4969619","秋田清酒","あきたせいしゅ","〒014-0801","秋田県大仙市戸地谷字天ケ沢83-1","秋田県"
"35.8897531","140.495466","馬場本店酒造","ばばほんてんしゅぞう","〒287-0003","千葉県香取市佐原イ614-1","千葉県"
"36.3658697","140.4951337","吉久保酒造","よしくぼしゅぞう","〒310-0815","茨城県水戸市本町3-9-5","茨城県"
"39.1680925","140.4946712","秋田銘醸","あきためいじょう","〒012-0814","秋田県湯沢市大工町4-23","秋田県"
"35.8890616","140.4946606","東薫酒造","とうくんしゅぞう","〒287-0003","千葉県香取市佐原イ627","千葉県"
"39.1706783","140.4936546","両関酒造","りょうぜきしゅぞう","〒012-0813","秋田県湯沢市前森4-3-18","秋田県"
"39.1602211","140.4910912","木村酒造","きむらしゅぞう","〒012-0844","秋田県湯沢市田町2-1-11","秋田県"
"35.5978895","140.4896419","守屋酒造","もりやしゅぞう","〒289-1806","千葉県山武市蓮沼ハー2929","千葉県"
"39.2634438","140.4887199","浅舞酒造","あさまいしゅぞう","〒013-0105","秋田県横手市平鹿町浅舞字浅舞388","秋田県"
"36.5876059","140.487013","太田銘醸","おおためいじょう","〒313-0222","茨城県常陸太田市松平町1074","茨城県"
"37.4415085","140.4866886","佐藤酒造","さとうしゅぞう","〒963-7766","福島県田村郡三春町中町67","福島県"
"39.264152","140.4862924","舞鶴酒造","まいづるしゅぞう","〒013-0105","秋田県横手市平鹿町浅舞字浅舞184","秋田県"
"36.7530347","140.4853072","井坂酒造店","いさかしゅぞうてん","〒311-0504","茨城県常陸太田市小中町187","茨城県"
"36.5369258","140.4837593","剛烈富永酒造店","ごうれつとみながしゅぞうてん","〒313-0125","茨城県常陸太田市大里町3401","茨城県"
"40.6001808","140.4836518","吉井酒造","よしいしゅぞう","〒036-8002","青森県弘前市駅前1-6-6","青森県"
"35.625186","140.4829471","寒菊銘醸","かんぎくめいじょう","〒289-1532","千葉県山武市松尾町武野里11","千葉県"
"40.6283996","140.4821697","六花酒造","ろっかしゅぞう","〒036-8066","青森県弘前市向外瀬豊田217","青森県"
"39.4112505","140.4820069","金紋秋田酒造","きんもんあきたしゅぞう","〒014-1412","秋田県大仙市藤木字西八圭34-2","秋田県"
"39.410095","140.4817598","秋田富士酒造店","あきたふじしゅぞうてん","〒014-1412","秋田県大仙市藤木字西八圭31","秋田県"
"36.3574649","140.4748325","明利酒類","めいりしゅるい","〒310-0836","茨城県水戸市元吉田町338","茨城県"
"35.5847239","140.4740738","梅一輪酒造","うめいちりんしゅぞう","〒289-1303","千葉県山武市松ケ谷イ2902","千葉県"
"39.1687","140.4714761","秋田県醗酵工業","あきたけんはっこうこうぎょう","〒012-8511","秋田県湯沢市深堀中川原120-8","秋田県"
"39.4675754","140.4706371","八重寿銘醸","やえすめいじょう","〒014-0016","秋田県大仙市若竹町26-19","秋田県"
"36.4682364","140.4683131","木内酒造","きうちしゅぞう","〒311-0133","茨城県那珂市鴻巣1257","茨城県"
"37.5619581","140.4625714","大内酒造","おおうちしゅぞう","〒964-0974","福島県二本松市小高内51","福島県"
"37.658911","140.461356","金水晶酒造店","きんすいしょうしゅぞうてん","〒960-1241","福島県福島市松川町本町29","福島県"
"40.6002995","140.4600671","カネタ玉田酒造店","かねたたまだしゅぞうてん","〒036-8217","青森県弘前市茂森町81","青森県"
"36.3807652","140.4574164","瀧田酒造店","たきたしゅぞうじょう","〒310-0031","茨城県水戸市大工町2-1-20","茨城県"
"40.6965295","140.4548994","竹浪酒造店","たけなみしゅぞうてん","〒038-3662","青森県北津軽郡板柳町板柳字土井113-1","青森県"
"40.6078346","140.4535726","齋藤酒造店","さいとうしゅぞうてん","〒036-8366","青森県弘前市駒越町58","青森県"
"40.6293986","140.4535325","三浦酒造","みうらしゅぞう","〒036-8316","青森県弘前市石渡5-1-1","青森県"
"35.6306705","140.4474576","花の友","はなのとも","〒289-1527","千葉県山武市松尾町大堤438","千葉県"
"39.1506346","140.4471476","武石酒造店","たけいししゅぞうてん","〒012-0055","秋田県湯沢市山田字川原56","秋田県"
"37.5990707","140.4445969","大七酒造","だいしちしゅぞう","〒964-0902","福島県二本松市竹田1-66","福島県"
"37.4535119","140.4402555","渡辺酒造本店","わたなべしゅぞうほんてん","〒963-0922","福島県郡山市西田町三町目桜内10","福島県"
"37.3429512","140.4390571","仁井田本家","にいだほんけ","〒963-1151","福島県郡山市田村町金沢高屋敷139","福島県"
"37.5915157","140.4336342","檜物屋酒造店","ひものやしゅぞうてん","〒964-0905","福島県二本松市松岡173","福島県"
"39.3443766","140.4284272","備前酒造本店","びぜんしゅぞうほんてん","〒013-0521","秋田県横手市大森町字大森169","秋田県"
"39.493861","140.4249291","福乃友酒造","ふくのともしゅぞう","〒019-1701","秋田県大仙市神宮寺字本郷野82-6","秋田県"
"36.8877788","140.4203353","藤井酒造店","ふじいしゅぞうてん","〒963-5203","福島県東白川郡矢祭町戸塚41","福島県"
"40.5935377","140.413629","佐藤酒造店","さとうしゅぞうてん","〒036-1333","青森県弘前市鳥井野字宮本31-1","青森県"
"38.7542477","140.4110748","佐藤酒造店","さとうしゅぞうてん","〒999-6211","山形県最上郡最上町大堀1026","山形県"
"36.5475259","140.4105732","酔富銘醸","すいふめいじょう","〒319-2265","茨城県常陸大宮市 中富町965-2","茨城県"
"39.2896359","140.4059199","沼館酒造","ぬまだてしゅぞう","〒013-0205","秋田県横手市","秋田県"
"37.5611767","140.4058544","奥の松酒造","おくのまつしゅぞう","〒964-0866","福島県二本松市長命69","福島県"
"36.9052683","140.4049945","家満寿美","やますみ","〒963-5343","福島県東白川郡塙町植田坂ノ下15","福島県"
"35.9032605","140.402932","鍋店","なべだな","〒289-0221","千葉県香取郡神崎町神崎本宿1916","千葉県"
"35.9051547","140.4016182","寺田本家","てらだほんけ","〒289-0221","千葉県香取郡神崎町神崎本宿1964","千葉県"
"37.5743502","140.4003878","人気酒造","にんきしゅぞう","〒964-0027","福島県二本松市山田470","福島県"
"37.5136952","140.400037","大天狗酒造","だいてんぐしゅぞう","〒969-1136","福島県本宮市本宮九縄18","福島県"
"36.6311489","140.3972973","根本酒造","ねもとしゅぞう","〒319-3111","茨城県常陸大宮市 山方630","茨城県"
"40.8844781","140.3949079","長内酒造店","おさないしゅぞうてん","〒037-0106","青森県つがる市稲垣町沼崎幾代崎121-4","青森県"
"37.0254479","140.389792","藤田屋本店","ふじたやほんてん","〒963-6131","福島県東白川郡棚倉町棚倉鉄炮町25","福島県"
"37.4076457","140.3891142","佐藤酒造店","さとうしゅぞうてん","〒963-8071","福島県郡山市富久山町久保田5","福島県"
"38.4690702","140.3885161","六歌仙","ろっかせん","〒999-3702","山形県東根市温泉町3-17-7","山形県"
"35.2533194","140.3881225","木戸泉酒造","きどいずみしゅぞう","〒298-0004","千葉県いすみ市大原7635-1","千葉県"
"35.5920905","140.3869107","東條酒造","とうじょうしゅぞう","〒289-1327","千葉県山武市姫島1010","千葉県"
"38.302513","140.3844667","寿虎屋酒造","ことぶきとらやしゅぞう","〒990-2235","山形県山形市中里北田93-1","山形県"
"38.3408119","140.3814691","水戸部酒造","みとべしゅぞう","〒994-0055","山形県天童市原町乙7","山形県"
"35.3608274","140.372698","稲花酒造","いなはなしゅぞう","〒299-4303","千葉県長生郡一宮町東浪見5841","千葉県"
"37.3622167","140.3719646","笹の川酒造","ささのかわしゅぞう","〒963-0108","福島県郡山市笹川1-178","福島県"
"38.3492268","140.3705172","出羽桜酒造","でわざくらしゅぞう","〒994-0044","山形県天童市一日町1-4-6","山形県"
"37.3778899","140.3611426","若関酒造","わかぜきしゅぞう","〒963-8846","福島県郡山市久留米2-98","福島県"
"38.2658685","140.3593746","秀鳳酒造場","しゅうほうしゅぞうじょう","〒990-0063","山形県山形市山家町1-6-6","山形県"
"36.1747313","140.3583224","伊能酒造店","いのうしゅぞうてん","〒311-3423","茨城県小美玉市小川1472","茨城県"
"35.19215","140.3559863","岩瀬酒造","いわせしゅぞう","〒299-5102","千葉県夷隅郡御宿町久保1916","千葉県"
"37.2656207","140.3554346","清鏡酒造","きよかがみしゅぞう","〒969-0401","福島県岩瀬郡鏡石町鏡沼238","福島県"
"37.0998824","140.3488367","有賀醸造","ありがじょうぞう","〒961-0303","福島県白河市東釜子本町96","福島県"
"40.5937414","140.3471043","丸竹酒造店","まるたけしゅぞうてん","〒036-1433","青森県弘前市大字国吉字坂本49","青森県"
"36.7762117","140.3461604","家久長本店","かくちょうほんてん","〒319-3526","茨城県久慈郡大子町大子248-1","茨城県"
"38.5466164","140.3433187","高木酒造","たかぎしゅぞう","〒995-0208","山形県村山市富並1826","山形県"
"38.2422372","140.3312195","男山酒造","おとこやましゅぞう","〒990-0037","山形県山形市八日町2-4-13","山形県"
"35.529549","140.3301224","石野商店","いしのしょうてん","〒299-3251","千葉県山武郡大網白里町大網649","千葉県"
"37.2060492","140.3270121","大木代吉本店","おおきだいきちほんてん","〒969-0213","福島県西白河郡矢吹町本町9","福島県"
"40.5853084","140.3253512","白神酒造","しらかみしゅぞう","〒036-1443","青森県弘前市米ヶ袋村元22","青森県"
"36.3617096","140.3246475","須藤本家","すどうほんけ","〒309-1701","茨城県笠間市小原2125","茨城県"
"39.6127412","140.3223721","奥田酒造店","おくたしゅぞうてん","〒019-2411","秋田県大仙市協和境字境113","秋田県"
"35.7802099","140.3167613","滝沢本店","たきざわほんてん","〒286-0032","千葉県成田市上町 513","千葉県"
"38.4248017","140.3153312","朝日川酒造","あさひかわしゅぞう","〒999-3511","山形県西村山郡河北町谷地93","山形県"
"36.1327434","140.312927","藤田酒造店","ふじたしゅぞてん","〒315-1147","茨城県石岡市井関994-1","茨城県"
"38.4254237","140.3105732","和田酒造","わだしゅぞう","〒999-3511","山形県西村山郡河北町谷地甲17","山形県"
"36.1927291","140.3055121","石岡酒造","いしおかしゅぞう","〒315-0031","茨城県石岡市東大橋2972","茨城県"
"36.1623764","140.3043965","白菊酒造","しらぎくしゅぞう","〒315-0045","茨城県石岡市高浜880","茨城県"
"35.1531018","140.3003574","東灘醸造","あずまなだじょうぞう","〒299-5226","千葉県勝浦市串浜1033","千葉県"
"38.3767142","140.2826163","古澤酒造","ふるさわしゅぞう","〒991-0023","山形県寒河江市丸内3-5-7","山形県"
"38.3739311","140.2780529","千代寿虎屋","ちよことぶきとらやしゅぞう","〒991-0032","山形県寒河江市南町2-1-16","山形県"
"36.1851735","140.274924","府中誉","ふちゅうほまれ","〒315-0014","茨城県石岡市国府5-9-32","茨城県"
"38.7785246","140.2726186","最上川酒造","もがみがわしゅぞう","〒996-0091","山形県新庄市十日町1495","山形県"
"35.7089255","140.2718494","飯沼本家","いいぬまほんけ","〒285-0914","千葉県印旛郡酒々井町馬橋106","千葉県"
"36.3851299","140.2563075","武藤酒類醸造","むとうしゅるいじょうぞう","〒309-1611","茨城県笠間市笠間1180","茨城県"
"36.3843105","140.2537328","笹目宗兵衛商店","ささめそうべえしょうてん","〒309-1611","茨城県笠間市笠間1339","茨城県"
"35.1542468","140.2487792","吉野酒造","よしのしゅぞう","〒299-5265","千葉県勝浦市植野571","千葉県"
"35.2820833","140.2462083","豊乃鶴酒造","とよのつるしゅぞう","〒298-0214","千葉県夷隅郡大多喜町新丁88","千葉県"
"38.0107861","140.2390365","米鶴酒造","よねつるしゅぞう","〒992-0301","山形県東置賜郡高畠町二井宿1076","山形県"
"37.2544729","140.2378801","松崎酒造店","まつざきしゅぞうてん","〒962-0503","福島県岩瀬郡天栄村下松本要谷47-1","福島県"
"38.4045872","140.2347629","月山酒造","がっさんしゅぞう","〒990-0521","山形県寒河江市谷沢769-1","山形県"
"38.7051961","140.2310985","小屋酒造","こやしゅぞう","〒996-0212","山形県最上郡大蔵村清水2591","山形県"
"35.6695768","140.2260995","旭鶴","あさひづる","〒285-0804","千葉県佐倉市馬渡918","千葉県"
"37.1252263","140.2206669","千駒酒造","せんこましゅぞう","〒961-0903","福島県白河市年貢町15-1","福島県"
"37.1264344","140.2170033","大谷忠吉本店","おおやちゅうきちほんてん","〒961-0905","福島県白河市本町54","福島県"
"36.3679307","140.2141545","磯蔵酒造","いそくらしゅぞう","〒309-1635","茨城県笠間市稲田2281-1","茨城県"
"40.7829458","140.1980292","尾崎酒造","おざきしゅぞう","〒038-2744","青森県西津軽郡鰺ヶ沢町漁師町30","青森県"
"35.9069836","140.1932636","岡田酒造店","おかだしゅぞうてん","〒301-0822","茨城県龍ケ崎市光順田2920－1?","茨城県"
"36.8362453","140.1927289","渡辺酒造","わたなべしゅぞう","〒324-0212","栃木県大田原市須佐木797-1","栃木県"
"37.9608766","140.192267","後藤康太郎酒造店","ごとうやすたろうしゅぞうてん","〒992-0262","山形県東置賜郡高畠町元和田732","山形県"
"37.2694793","140.1839425","寿々乃井酒造店","すずのいしゅぞうてん","〒962-0501","福島県岩瀬郡天栄村牧之内矢中1","福島県"
"36.5269106","140.1806781","島崎泉治商店","しまざきせんじしょうてん","〒321-3531","栃木県芳賀郡茂木町茂木辺1720","栃木県"
"37.1298803","140.1736904","白河銘醸","しらかわめいじょう","〒961-8061","福島県西白河郡西郷村小田倉中庄司4-2","福島県"
"38.4214696","140.1672991","設楽酒造店","したらしゅぞうてん","〒990-0701","山形県西村山郡西川町睦合丙674-2","山形県"
"36.6496999","140.1568062","那須銘醸","なすめいじょう","〒321-0626","栃木県那須烏山市初音10-24","栃木県"
"36.6557824","140.1536755","島崎酒造","しまざきしゅぞう","〒321-0621","栃木県那須烏山市中央1-11-18","栃木県"
"37.9274849","140.1512078","新藤酒造店","しんどうしゅぞうてん","〒992-0116","山形県米沢市竹井1331","山形県"
"38.3013727","140.1480729","鈴木酒造","すずきしゅぞう","〒990-1442","山形県西村山郡朝日町宮宿1170","山形県"
"38.0721697","140.1393694","東の麓酒造","あずまのふもとしゅぞう","〒992-0472","山形県南陽市宮内2557","山形県"
"37.9838365","140.1374141","後藤酒造店","ごとうしゅぞうてん","〒999-2176","山形県東置賜郡高畠町糠野目1462","山形県"
"39.2289106","140.1373256","佐藤酒造店","さとうしゅぞうてん","〒015-0404","秋田県由利本荘市矢島町七日町26","秋田県"
"39.2302577","140.13727","天寿酒造","てんじゅしゅぞう","〒015-0411","秋田県由利本荘市矢島町城内字八森下117","秋田県"
"36.7591971","140.1316","白相酒造","しらそうしゅぞう","〒324-0501","栃木県那須郡小川町715-2","栃木県"
"39.9446531","140.1188523","福禄寿酒造","ふくろくじゅしゅぞう","〒018-1706","秋田県南秋田郡五城目町字下タ町48","秋田県"
"39.7109066","140.1145442","新政酒造","あらまさしゅぞう","〒010-0921","秋田県秋田市大町6-2-35","秋田県"
"39.7081931","140.1143666","秋田醸造","あきたじょうぞう","〒010-0021","秋田県秋田市楢山登町5-2","秋田県"
"37.9012591","140.1108667","小嶋総本店","こじまそうほんてん","〒992-0037","山形県米沢市本町2-2-3","山形県"
"36.3603462","140.107797","堀川酒造店","ほりかわしゅぞうてん","〒309-1211","茨城県桜川市岩瀬178-1","茨城県"
"37.9559913","140.1077715","浜田","はまだ","〒992-0005","山形県米沢市窪田町藤泉943-1","山形県"
"37.5642982","140.1077543","稲川酒造店","いながわしゅぞうてん","〒969-3122","福島県耶麻郡猪苗代町新町4916","福島県"
"37.9194346","140.107349","香坂酒造","こうさかしゅぞう","〒992-0045","山形県米沢市中央7-3-10","山形県"
"39.7094174","140.1044786","秋田酒類製造","あきたしゅるいせいぞう","〒010-0934","秋田県秋田市川元むつみ町4-12","秋田県"
"36.2760677","140.1001063","村井醸造","むらいじょうぞう","〒300-4408","茨城県桜川市真壁町真壁72","茨城県"
"36.8040046","140.0975154","天鷹酒造","てんたかしゅぞう","〒324-0411","栃木県大田原市蛭畑2166","栃木県"
"36.2739207","140.0953957","西岡本店","にしおかほんてん","〒300-4411","茨城県桜川市真壁町田6-1","茨城県"
"36.2064556","140.0872263","稲葉酒造場","いなばしゅぞうじょう","〒300-4353","茨城県つくば市沼田1485","茨城県"
"35.1051883","140.08689","秀楽酒造","しゅうらくしゅぞう","〒296-0004","千葉県鴨川市貝渚671","千葉県"
"39.6840753","140.0839791","国萬歳酒造","くにばんざいしゅぞう","〒010-1631","秋田県秋田市新屋元町23-9","秋田県"
"39.6826616","140.0837654","森川酒造店","もりかわしゅぞうてん","〒010-1638","秋田県秋田市新屋表町2-44","秋田県"
"39.6808509","140.0835487","黄金井酒造","こがねいしゅぞう","〒010-1638","秋田県秋田市","秋田県"
"39.6839781","140.0826737","秋田酒造","あきたしゅぞう","〒010-1631","秋田県秋田市新屋元町23－28","秋田県"
"36.5332783","140.0819537","惣誉酒造","そうほまれしゅぞう","〒321-3424","栃木県芳賀郡市貝町上根539","栃木県"
"36.9205671","140.080765","平山酒造店","ひらやましゅぞうてん","〒324-0002","栃木県大田原市羽田1136","栃木県"
"35.8971554","140.0807222","金門酒造","きんもんしゅぞう","〒302-0006","茨城県取手市青柳65","茨城県"
"35.2944847","140.0791241","吉崎酒造","よしざきしゅぞう","〒292-0421","千葉県君津市久留里市場102","千葉県"
"36.4608371","140.078649","外池酒造店","とのいけしゅぞうてん","〒321-4216","栃木県芳賀郡益子町塙333-1","栃木県"
"35.2948346","140.0778186","藤平酒造","とうへいしゅぞう","〒292-0421","千葉県君津市久留里市場147","千葉県"
"38.1907466","140.0776585","加茂川酒造","かもがわしゅぞう","〒992-0771","山形県西置賜郡白鷹町鮎貝3258","山形県"
"39.8970871","140.0771056","小玉醸造","こだまじょうぞう","〒018-1504","秋田県潟上市飯田川飯塚字飯塚34-1","秋田県"
"39.7531614","140.0679628","那波商店","なばしょうてん","〒011-0946","秋田県秋田市土崎港中央1丁目16-41","秋田県"
"36.3017306","140.0666605","軽部酒造店","かるべしゅぞうてん","〒300-4429","茨城県桜川市真壁町東矢貝590","茨城県"
"38.011729","140.0640011","福牡丹酒造","ふくぼたんしゅぞう","〒999-0133","山形県東置賜郡川西町小松284","山形県"
"35.8926112","140.0638069","田中酒造店","たなかしゅぞうてん","〒302-0004","茨城県取手市取手2-13-35","茨城県"
"38.0480813","140.0628634","中沖酒造店","なかおきしゅぞうてん","〒992-0601","山形県東置賜郡川西町西大塚1792-3","山形県"
"36.8141552","140.0618655","菊の里酒造","きくのさとしゅぞう","〒324-0414","栃木県大田原市片府田302-2","栃木県"
"35.9292063","140.0561839","賜杯桜酒造","しはいざくらしゅぞう","〒300-1500","茨城県取手市和田1010","茨城県"
"35.2890653","140.0542154","森酒造店","もりしゅぞうてん","〒292-0445","千葉県君津市愛宕202","千葉県"
"39.3962593","140.0498406","齋彌酒造店","さいやしゅぞうてん","〒015-0011","秋田県由利本荘市石脇53","秋田県"
"38.0138757","140.0498192","樽平酒造","たるへいしゅぞう","〒999-0122","山形県東置賜郡川西町中小松2886","山形県"
"38.00366","140.0404735","嵐山酒造","あらしやましゅぞう","〒999-0121","山形県東置賜郡川西町上小松3182","山形県"
"39.3897614","140.0389637","秋田誉酒造","あきたほまれしゅぞう","〒015-0001","秋田県由利本荘市砂子下3","秋田県"
"35.3253185","140.0366075","宮崎酒造店","みやざきしゅぞうてん","〒292-0441","千葉県君津市戸崎1780","千葉県"
"38.1125291","140.036535","長沼","ながぬま","〒993-0086","山形県長井市十日町1-1-39","山形県"
"38.1006498","140.0357274","鈴木酒造店 長井蔵","すずきしゅぞうてん ながいぐら","〒993-0015","山形県長井市四ツ谷1-2-21","山形県"
"40.2138258","140.0322482","西村醸造店","にしむらじょうぞうてん","〒016-0811","秋田県能代市日吉町14-28","秋田県"
"40.3338658","140.029845","山本","やまもと","〒018-2678","秋田県山本郡八峰町八森字八森269","秋田県"
"40.2142756","140.0296512","喜久水酒造","きくすいしゅぞう","〒016-0804","秋田県能代市万町6-37","秋田県"
"36.8704427","140.0236847","鳳鸞酒造","ほうらんしゅぞう","〒324-0057","栃木県大田原市住吉町1-1-28","栃木県"
"35.1311752","140.023031","亀田酒造","かめだしゅぞう","〒296-0111","千葉県鴨川市仲329","千葉県"
"37.5758313","140.0177955","栄川酒造","えいせんしゅぞう","〒969-3302","福島県耶麻郡磐梯町更科中曽根平6841-11","福島県"
"36.145783","140.0168374","浦里酒造店","うらざとしゅぞうてん","〒300-2617","茨城県つくば市吉沼982","茨城県"
"36.2721019","140.0108892","来福酒造","らいふくしゅぞう","〒300-4546","茨城県筑西市村田1626","茨城県"
"36.4424019","140.0095613","辻善兵衛商店","つじぜんべえしょうてん","〒321-4300","栃木県真岡市田町1041-1","栃木県"
"38.0819037","139.999226","若乃井酒造","わかのいしゅぞう","〒999-0601","山形県西置賜郡飯豊町中947-3","山形県"
"38.106598","139.9965722","寺嶋酒造本舗","てらしましゅぞうほんぽ","〒993-0061","山形県長井市寺泉3496","山形県"
"36.022727","139.9904091","竹村酒造店","たけむらしゅぞうてん","〒303-0023","茨城県常総市 水海道宝町3375-1","茨城県"
"37.5583324","139.9850859","磐梯酒造","ばんだいしゅぞう","〒969-3301","福島県耶麻郡磐梯町磐梯金上壇2568","福島県"
"36.1166129","139.9709238","山中酒造店","やまなかしゅぞうてん","〒300-2706","茨城県常総市新石下187","茨城県"
"36.125484","139.9692293","野村醸造","のむらじょうぞう","〒300-2707","茨城県常総市本石下2052","茨城県"
"36.6869844","139.9637747","株式会社せんきん","せんきん","〒329-1321","栃木県さくら市馬場106","栃木県"
"39.2919037","139.9624099","飛良泉本舗","ひらいずみほんぽ","〒018-0402","秋田県にかほ市平沢字中町59","秋田県"
"38.8548042","139.95937","藤屋酒造本店","ふじやしゅぞうほんてん","〒999-6834","山形県酒田市 荒町17","山形県"
"34.9632805","139.9579021","千蔵酒造","ちくらしゅぞう","〒295-0011","千葉県南房総市千倉町北朝夷212","千葉県"
"36.5598314","139.9562443","宇都宮酒造","うつのみやしゅぞう","〒321-0902","栃木県宇都宮市柳田町248","栃木県"
"36.8503178","139.9482607","池島酒造","いけしましゅぞう","〒324-0036","栃木県大田原市下石上1227","栃木県"
"38.9689131","139.9456812","麓井酒造","ふもといしゅぞう","〒999-8231","山形県酒田市麓字横道32","山形県"
"36.5349888","139.9435496","外池荘五郎商店","とのいけしょうごろうしょうてん","〒321-0912","栃木県宇都宮市石井町1818-3","栃木県"
"36.6350272","139.9431147","井上清吉商店","いのうえせいきちしょうてん","〒329-1102","栃木県宇都宮市白沢町1901-1","栃木県"
"38.9019151","139.9410842","楯の川酒造","たてのかわしゅぞう","〒999-6724","山形県酒田市山楯清水田27","山形県"
"37.4951278","139.940217","名倉山酒造","なぐらやましゅぞう","〒965-0817","福島県会津若松市千石町2-46","福島県"
"38.9962491","139.9383774","杉勇蕨岡酒造場","すぎいさみわらびおかしゅぞうじょう","〒999-8314","山形県飽海郡遊佐町上蕨岡御備田47-1","山形県"
"36.7334509","139.9361368","富川酒造店","とみかわしゅぞうてん","〒329-1575","栃木県矢板市大槻998","栃木県"
"37.5012494","139.9360143","会州一酒造","かいしゅういちしゅぞう","〒965-0031","福島県会津若松市相生町7-17","福島県"
"37.4996607","139.9358588","柏木酒造店","かしわぎしゅぞうてん","〒965-0031","福島県会津若松市相生町7-37","福島県"
"37.5011788","139.9357653","東山酒造","ひがしやましゅぞう","〒965-0031","福島県会津若松市","福島県"
"37.4993135","139.9347951","辰泉酒造","たついずみしゅぞう","〒965-0034","福島県会津若松市上町5-26","福島県"
"35.2173584","139.9321797","小泉酒造","こいずみしゅぞう","〒299-1753","千葉県富津市上後423-1","千葉県"
"37.4921197","139.9310707","宮泉銘醸","みやいずみめいじょう","〒965-0872","福島県会津若松市東栄町8-7","福島県"
"38.7213054","139.9261641","亀の井酒造","かめのいしゅぞう","〒997-0103","山形県鶴岡市羽黒町戸野福ノ内1","山形県"
"37.4995829","139.9235905","鶴乃江酒造","つるのえしゅぞう","〒965-0044","福島県会津若松市七日町2-46","福島県"
"37.4978663","139.9231906","末廣酒造","すえひろしゅぞう","〒965-0861","福島県会津若松市日新町12-38","福島県"
"37.4923389","139.9158471","河野","かわの","〒965-0866","福島県会津若松市新横町4-10","福島県"
"36.8383238","139.9158114","森戸酒造","もりとしゅぞう","〒329-2512","栃木県矢板市東泉645","栃木県"
"37.4494072","139.9155739","高橋庄作酒造店","たかはししょうさくしゅぞうてん","〒965-0844","福島県会津若松市門田町一ノ堰村東755","福島県"
"37.4917583","139.9116421","石橋酒造場","いしばししゅぞうじょう","〒965-0851","福島県会津若松市御旗町3-18","福島県"
"38.8528226","139.9026559","佐藤佐治右衛門","さとうさじうえもん","〒999-7781","山形県東田川郡庄内町余目字町255","山形県"
"38.8507756","139.898748","鯉川酒造","こいかわしゅぞう","〒999-7781","山形県東田川郡庄内町余目興野42","山形県"
"37.5018374","139.8941328","花春酒造","はなはるしゅぞう","〒965-0065","福島県会津若松市神指町中四合小見前24-1","福島県"
"35.9151971","139.8939589","窪田酒造","くぼたしゅぞう","〒278-0022","千葉県野田市山崎685","千葉県"
"36.0580224","139.8880107","大塚酒造","おおつかしゅぞう","〒306-0631","茨城県坂東市","茨城県"
"38.7129723","139.8876458","竹の露","たけのつゆ","〒997-0152","山形県鶴岡市羽黒町猪俣新田田屋前133","山形県"
"35.3191932","139.8865453","和蔵酒造","わぐらしゅぞう","〒299-1131","千葉県君津市下湯江240","千葉県"
"36.5620615","139.8826736","虎屋本店","とらやほんてん","〒320-0033","栃木県宇都宮市本町4-12","栃木県"
"39.0687092","139.8825587","高橋酒造店","たかはししゅぞうてん","〒999-8521","山形県飽海郡遊佐町吹浦一本木57","山形県"
"37.6535243","139.8798943","小原酒造","おはらしゅぞう","〒966-0074","福島県喜多方市南町2846","福島県"
"37.6571295","139.8798137","夢心酒造","ゆめごころしゅぞう","〒966-0072","福島県喜多方市北町2932","福島県"
"36.303239","139.8727612","武勇","ぶゆう","〒307-0001","茨城県結城市結城144","茨城県"
"37.6548267","139.8726338","吉の川酒造店","よしのかわしゅぞうてん","〒966-0819","福島県喜多方市1-4635","福島県"
"37.6524298","139.8725756","清川商店","きよかわしょうてん","〒966-0818","福島県喜多方市字2丁目4659","福島県"
"37.6593373","139.8723698","峰の雪酒造場","みねのゆきしゅぞうじょう","〒966-0802","福島県喜多方市桜ガ丘1-17","福島県"
"37.6745744","139.8719804","ほまれ酒造","ほまれしゅぞう","〒966-0902","福島県喜多方市松山町村松常盤町2706","福島県"
"36.3049055","139.8719335","結城酒造","ゆうきしゅぞう","〒307-0001","茨城県結城市結城1589","茨城県"
"37.673654","139.871022","香久山","かくやま","〒966-0902","福島県喜多方市","福島県"
"37.6520826","139.870473","大和川酒造店","やまとがわしゅぞうてん","〒966-0861","福島県喜多方市寺町4761","福島県"
"37.6487357","139.8700981","喜多の華酒造場","きたのはなしゅぞうじょう","〒966-0862","福島県喜多方市前田4924","福島県"
"36.5646828","139.8688061","小林杢三郎商店","こばやしもくさぶろうしょうてん","〒320-0043","栃木県宇都宮市","栃木県"
"36.7349903","139.8668729","小島酒造店","こじましゅぞうてん","〒329-2336","栃木県塩谷郡塩谷町風見1185","栃木県"
"35.2164308","139.8644635","池田酒店","いけださけてん","〒299-1621","千葉県富津市竹岡1","千葉県"
"37.6839869","139.863775","笹正宗酒造","ささまさむねしゅぞう","〒966-0931","福島県喜多方市上三宮町上三宮籬山675","福島県"
"38.6805082","139.8426227","佐藤仁左衛門酒造場","さとうにざえもんしゅぞうじょう","〒997-0346","山形県鶴岡市上山添字神明前123","山形県"
"38.9173271","139.8320627","酒田酒造","さかたしゅぞう","〒998-0037","山形県酒田市日吉町2-3-25","山形県"
"37.4472077","139.8306125","白井酒造店","しらいしゅぞうてん","〒969-6251","福島県大沼郡会津美里町永井野中町1862","福島県"
"37.5610617","139.8282363","曙酒造","あけぼのしゅぞう","〒969-6537","福島県河沼郡会津坂下町戌亥乙2","福島県"
"37.5603339","139.8266643","豊国酒造","とよくにしゅぞう","〒969-6536","福島県河沼郡会津坂下町市中一番甲3554","福島県"
"37.5606755","139.8257088","廣木酒造本店","ひろきしゅぞうほんてん","〒969-6543","福島県河沼郡会津坂下町市中二番甲3574","福島県"
"38.8538597","139.8137605","菊勇","きくいさみ","〒998-0111","山形県酒田市黒森葭葉山650","山形県"
"38.8778483","139.8111793","東北銘醸","とうほくめいじょう","〒998-0114","山形県酒田市十里塚村東山125-3","山形県"
"36.4416671","139.8035566","相良酒造","さがらしゅぞう","〒329-4307","栃木県下都賀郡岩舟町静3624","栃木県"
"36.1117593","139.7962645","萩原酒造","はぎわらしゅぞう","〒306-0433","茨城県猿島郡境町565-1","茨城県"
"36.2937676","139.7871997","西堀酒造","にしぼりしゅぞう","〒329-0201","栃木県小山市粟宮1452","栃木県"
"36.3851682","139.7840101","北関酒造","ほっかんしゅぞう","〒328-0004","栃木県栃木市田村町480","栃木県"
"36.7679237","139.7836011","松井酒造店","まついしゅぞうてん","〒329-2441","栃木県塩谷郡塩谷町船生3683","栃木県"
"38.8286286","139.7789595","オードヴィ庄内","お－どうぃしょうない","〒998-0112","山形県酒田市浜中乙123","山形県"
"36.3640595","139.7782392","若駒酒造","わかこましゅぞう","〒323-0008","栃木県小山市小薬169-1","栃木県"
"37.2010308","139.7718239","国権酒造","こっけんしゅぞう","〒967-0004","福島県南会津郡南会津町田島上町甲4037","福島県"
"36.3460554","139.76948","小林酒造","こばやししゅぞう","〒323-0061","栃木県小山市卒島743","栃木県"
"38.7478989","139.7683353","渡會本店","わたらいほんてん","〒997-1124","山形県鶴岡市大山2-2-8","山形県"
"38.7474628","139.7674743","羽根田酒造","はねだしゅぞう","〒997-1124","山形県鶴岡市大山2-1-15","山形県"
"38.7496181","139.7672965","加藤嘉八郎酒造","かとうかはちろうしゅぞう","〒997-1124","山形県鶴岡市大山3-1-38","山形県"
"38.7509623","139.7664271","冨士酒造","ふじしゅぞう","〒997-1124","山形県鶴岡市大山3-32-48","山形県"
"37.6020018","139.7573802","会津錦","あいづにしき","〒969-4311","福島県喜多方市高郷町西羽賀2524","福島県"
"37.201433","139.756248","会津酒造","あいづしゅぞう","〒967-0006","福島県南会津郡南会津町永田穴沢603","福島県"
"37.1779142","139.7509714","開当男山酒造","かいとうおとこやましゅぞう","〒967-0005","福島県南会津郡南会津町中荒井久宝居785","福島県"
"38.0594776","139.7450921","野沢酒造店","のざわしゅぞうてん","〒999-1363","山形県西置賜郡小国町小国小坂町213","山形県"
"36.3207132","139.7393863","三福酒造","さんぷくしゅぞう","〒323-0057","栃木県小山市南小林87","栃木県"
"36.3166054","139.739117","杉田酒造","すぎたしゅぞう","〒323-0056","栃木県小山市上泉237","栃木県"
"36.0262064","139.7353315","関口酒造","せきぐちしゅぞう","〒345-0025","埼玉県北葛飾郡杉戸町清地2-1-16","埼玉県"
"36.465096","139.7323836","飯沼銘醸","いいぬまめいじょう","〒322-0604","栃木県栃木市西方町元850","栃木県"
"35.7859107","139.7227442","小山酒造","こやましゅぞう","〒115-0041","東京都北区岩淵町26-10","東京都"
"36.0688895","139.7097345","石井酒造","いしいしゅぞう","〒340-0156","埼玉県幸手市南2-6-11","埼玉県"
"36.3573605","139.7075794","大平酒造","おおひらしゅぞう","〒329-4406","栃木県栃木市大平町下皆川747","栃木県"
"36.1907084","139.7061103","青木酒造","あおきしゅぞう","〒306-0023","茨城県古河市本町2-15-11","茨城県"
"35.9484667","139.6991436","鈴木酒造","すずきしゅぞう","〒339-0057","埼玉県さいたま市岩槻区本町4-8-24","埼玉県"
"36.7239518","139.6873755","渡辺佐平商店","わたなべさへいしょうてん","〒321-1261","栃木県日光市今市450","栃木県"
"36.7279042","139.6867225","片山酒造","かたやましゅぞう","〒321-1263","栃木県日光市瀬川146-2","栃木県"
"35.9246609","139.6854212","大瀧酒造","おおたきしゅぞう","〒330-0811","埼玉県さいたま市見沼区膝子663","埼玉県"
"36.0649811","139.6754233","寒梅酒造","かんばいしゅぞう","〒346-0003","埼玉県久喜市久喜中央2-9-27","埼玉県"
"35.9720766","139.6573943","神亀酒造","しんかめしゅぞう","〒349-0114","埼玉県蓮田市馬込3-74","埼玉県"
"35.9997891","139.647171","清龍酒造","せいりゅうしゅぞう","〒349-0133","埼玉県蓮田市閏戸659-3","埼玉県"
"35.8537908","139.6292089","内木酒造","うちきしゅぞう","〒338-0832","埼玉県さいたま市桜区西堀6-13-15","埼玉県"
"37.5598377","139.6179329","栄川酒造","さかえがわしゅぞう","〒969-4406","福島県耶麻郡西会津町野沢本町甲1184","福島県"
"35.628929","139.5884862","土屋酒造","つちやしゅぞう","〒201-0005","東京都狛江市","東京都"
"35.9782859","139.5863116","文楽","ぶんらく","〒362-0037","埼玉県上尾市上町2-5-5","埼玉県"
"36.3110911","139.5795799","吉井酒造","よしいしゅぞう","〒327-0025","栃木県佐野市金屋下町2445","栃木県"
"35.917759","139.5790053","小山本家酒造","こやまほんけしゅぞう","〒331-0047","埼玉県さいたま市指扇1798","埼玉県"
"36.3262119","139.5780989","相沢酒造","あいざわしゅぞう","〒327-0843","栃木県佐野市堀米町3954-1","栃木県"
"36.1031797","139.5772507","釜屋","かまや","〒347-0105","埼玉県加須市騎西1162","埼玉県"
"36.0891705","139.5725852","清水酒造","しみずしゅぞう","〒347-0116","埼玉県加須市戸室1006","埼玉県"
"36.2984975","139.5652455","第一酒造","だいいちしゅぞう","〒327-0031","栃木県佐野市田島町488","栃木県"
"37.2638706","139.5403259","花泉酒造","はないずみしゅぞう","〒967-0641","福島県南会津郡南会津町界中田646-1","福島県"
"36.2532165","139.5357432","清水屋酒造","しみずやしゅぞう","〒374-0068","群馬県館林市台宿町3-10","群馬県"
"36.1719506","139.5307135","東亜酒造","とうあしゅぞう","〒348-0054","埼玉県羽生市西4-1-11","埼玉県"
"36.2512444","139.5306964","龍神酒造","りゅうじんしゅぞう","〒374-0065","群馬県館林市西本町7-13","群馬県"
"36.2474533","139.530541","分福酒造","ぶんぶくしゅぞう","〒374-0047","群馬県館林市仲町3-15","群馬県"
"36.176441","139.5040411","南陽醸造","なんようじょうぞう","〒348-0041","埼玉県羽生市上新郷5951","埼玉県"
"38.2282039","139.4926776","宮尾酒造","みやおしゅぞう","〒958-0873","新潟県村上市上片町5-15","新潟県"
"35.9216677","139.4814797","小江戸鏡山酒造","こえどかがみやましゅぞう","〒350-0065","埼玉県川越市仲町10-13","埼玉県"
"38.2197851","139.4766382","大洋酒造","たいようしゅぞう","〒958-0857","新潟県村上市飯野1-4-31","新潟県"
"35.6702149","139.4765948","野口酒造店","のぐちしゅぞうてん","〒183-0022","東京都府中市宮西町4-2-1","東京都"
"35.7673597","139.4736773","豊島屋酒造","としまやしゅぞう","〒189-0003","東京都東村山市久米川町3-14-10","東京都"
"36.145457","139.4685524","横田酒造","よこたしゅぞう","〒361-0022","埼玉県行田市桜町2-29-3","埼玉県"
"36.1307613","139.4651756","川端酒造","かわばたしゅぞう","〒361-0032","埼玉県行田市佐間2-9-8","埼玉県"
"37.6806264","139.4602822","麒麟山酒造","きりんざんしゅぞう","〒959-4402","新潟県東蒲原郡阿賀町津川46","新潟県"
"37.6809262","139.4556993","下越酒造","かえつしゅぞう","〒959-4402","新潟県東蒲原郡阿賀町津川3644","新潟県"
"35.9868477","139.4451607","日本酒造","にほんしゅぞう","〒350-0151","埼玉県比企郡川島町八幡6-2","埼玉県"
"36.2087266","139.4348664","山川酒造","やまかわしゅぞう","〒370-0503","群馬県邑楽郡千代田町赤岩185-3","群馬県"
"35.3605361","139.4020048","熊澤酒造","くまざわしゅぞう","〒253-0082","神奈川県茅ヶ崎市香川7-10-7","神奈川県"
"35.7590951","139.3995934","渡辺酒造","わたなべしゅぞう","〒208-0001","東京都武蔵村山市","東京都"
"35.4658569","139.3901892","泉橋酒造","いずみばししゅぞう","〒243-0435","神奈川県海老名市下今泉5-5-1","神奈川県"
"36.2962384","139.3764428","太刀川酒造","たちかわしゅぞう","〒373-0026","群馬県太田市東本町28-15","群馬県"
"37.9602909","139.3542168","菊水酒造","きくすいしゅぞう","〒957-0011","新潟県新発田市島潟750","新潟県"
"36.3148274","139.3479806","今井酒造店","いまいしゅぞうてん","〒373-0062","群馬県太田市鳥山中町746-2","群馬県"
"36.2900468","139.3417649","島岡酒造","しまおかしゅぞう","〒373-0036","群馬県太田市由良町375-2","群馬県"
"35.7187724","139.3324661","石川酒造","いしかわしゅぞう","〒197-0003","東京都福生市熊川1","東京都"
"37.9380568","139.3320369","金升酒造","かねますしゅぞう","〒957-0016","新潟県新発田市豊町1-9-30","新潟県"
"37.9436811","139.331184","市島酒造","いちしましゅぞう","〒957-0055","新潟県新発田市諏訪町3-1-17","新潟県"
"35.9136195","139.3283501","長澤酒造","ながさわしゅぞう","〒350-1242","埼玉県日高市北平沢335","埼玉県"
"35.8384329","139.3248875","五十嵐酒造","いがらししゅぞう","〒357-0044","埼玉県飯能市川寺667-1","埼玉県"
"35.6606985","139.321683","小澤酒造場","おざわしゅぞうじょう","〒192-0055","東京都八王子市八木町2-15","東京都"
"36.1561434","139.3201423","権田酒造","ごんだしゅぞう","〒360-0843","埼玉県熊谷市三ヶ尻1491","埼玉県"
"35.741761","139.3201159","田村酒造場","たむらしゅぞうじょう","〒197-0011","東京都福生市福生626","東京都"
"38.037693","139.3050688","ふじの井酒造","ふじのいしゅぞう","〒957-0231","新潟県新発田市藤塚浜1335","新潟県"
"36.2797307","139.3038719","山崎酒造","やまざきしゅぞう","〒370-0321","群馬県太田市新田木崎町966","群馬県"
"35.9406947","139.3033631","麻原酒造","あさはらしゅぞう","〒350-0451","埼玉県入間郡毛呂山町毛呂本郷94","埼玉県"
"35.8568439","139.3032143","有馬錦酒造","ありまにしきしゅぞう","〒357-0063","埼玉県飯能市飯能446-12","埼玉県"
"35.4443881","139.2977998","黄金井酒造","こがねいしゅぞう","〒243-0121","神奈川県厚木市七沢769","神奈川県"
"35.9591451","139.296163","越生酒造","おごせしゅぞう","〒350-0416","埼玉県入間郡越生町越生852","埼玉県"
"35.5276872","139.2905055","大矢孝酒造","おやたかししゅぞう","〒243-0306","神奈川県愛甲郡愛川町田代521","神奈川県"
"35.3978712","139.2871207","吉川醸造","きっかわじょうぞう","〒259-1138","神奈川県伊勢原市神戸681","神奈川県"
"35.7216485","139.2866038","中村酒造場","なかむらしゅぞうじょう","〒197-0826","東京都あきる野市牛沼63","東京都"
"35.5736996","139.2822189","久保田酒造","くぼたしゅぞう","〒220-0203","神奈川県相模原市緑区根小屋702","神奈川県"
"36.1952494","139.2813","藤橋藤三郎商店","ふじはしとうざぶろうしょうてん","〒366-0822","埼玉県深谷市仲町4-10","埼玉県"
"35.9732484","139.278136","佐藤酒造店","さとうしゅぞうてん","〒350-0405","埼玉県入間郡越生町津久根141-1","埼玉県"
"36.4355444","139.2747815","奥村酒造","おくむらしゅぞう","〒376-0101","群馬県みどり市大間々町大間々1034","群馬県"
"36.1945938","139.2746476","滝澤酒造","たきざわしゅぞう","〒366-0826","埼玉県深谷市田所町9-20","埼玉県"
"36.4332475","139.2740288","近藤酒造","こんどうしゅぞう","〒376-0101","群馬県みどり市大間々町大間々1002","群馬県"
"35.6799725","139.2657264","中島酒造場","なかじましゅぞうじょう","〒192-0154","東京都八王子市下恩方町725","東京都"
"36.0563361","139.2590955","武蔵鶴酒造","むさしつるしゅぞう","〒355-0328","埼玉県比企郡小川町大塚243","埼玉県"
"36.0536418","139.2559431","晴雲酒造","せいうんしゅぞう","〒355-0328","埼玉県比企郡小川町大塚178-2","埼玉県"
"35.588388","139.251108","清水酒造","しみずしゅぞう","〒220-0207","神奈川県相模原市津久井町中野1322","神奈川県"
"36.2380475","139.2469121","丸山酒造","まるやましゅぞう","〒366-0009","埼玉県深谷市横瀬1323","埼玉県"
"36.0434454","139.242264","松岡醸造","まつおかじょうぞう","〒355-0326","埼玉県比企郡小川町下古寺7-2","埼玉県"
"37.8353148","139.2227445","白龍酒造","はくりゅうしゅぞう","〒959-2025","新潟県阿賀野市岡山町3-7","新潟県"
"36.4102048","139.2211287","伴内酒造店","ばんないしゅぞうてん","〒371-0212","群馬県前橋市粕川町下東田面195","群馬県"
"37.9146851","139.2199633","越後酒造場","えちごしゅぞうじょう","〒950-3321","新潟県新潟市北区葛塚3306-1","新潟県"
"37.9133186","139.2188329","小黒酒造","おぐろしゅぞう","〒950-3322","新潟県新潟市北区嘉山1-6-1","新潟県"
"37.8406583","139.2149145","越後桜酒造","えちござくらしゅぞう","〒959-2005","新潟県阿賀野市山口町1-7-13","新潟県"
"35.7266547","139.2061998","野崎酒造","のざきしゅぞう","〒190-0173","東京都あきる野市戸倉63","東京都"
"36.3975584","139.2030168","柳澤酒造","やなぎさわしゅぞう","〒371-0215","群馬県前橋市粕川町深津104-2","群馬県"
"37.9406489","139.2024332","越後伝衛門","えちごでんえもん","〒950-3306","新潟県新潟市北区内島見101-1","新潟県"
"37.7967548","139.1979456","越つかの酒造","こしつかのしゅぞう","〒959-2074","新潟県阿賀野市分田1328","新潟県"
"35.3826204","139.1973839","金井酒造店","かねいしゅぞうてん","〒259-1304","神奈川県秦野市堀山下182-1","神奈川県"
"36.1152406","139.1962947","藤崎摠兵衛商店","ふじさきそうべえしょうてん","〒369-1203","埼玉県大里郡寄居町寄居925-2","埼玉県"
"35.8043099","139.1937939","小澤酒造","おざわしゅぞう","〒198-0172","東京都青梅市沢井2-770","東京都"
"36.1590538","139.1816549","横関酒造","よこぜきしゅぞう","〒367-0115","埼玉県児玉郡美里町猪俣3214-1","埼玉県"
"37.737981","139.1813345","近藤酒造","こんどうしゅぞう","〒959-1824","新潟県五泉市吉沢2-3-50","新潟県"
"37.6905944","139.1754398","金鵄盃酒造","きんしはいしゅぞう","〒959-1704","新潟県五泉市村松甲1836番地1","新潟県"
"35.3205392","139.1673656","石井醸造","いしいじょうぞう","〒258-0016","神奈川県足柄上郡大井町上大井954","神奈川県"
"35.3222778","139.1609106","井上酒造","いのうえしゅぞう","〒258-0016","神奈川県足柄上郡大井町上大井552","神奈川県"
"36.4173248","139.1594094","七ツ星醸造","ななつぼしじょうぞう","〒371-0223","群馬県前橋市大胡町12","群馬県"
"36.663784","139.1401822","大利根酒造","おおとねしゅぞう","〒378-0121","群馬県沼田市白沢町高平1306-2","群馬県"
"35.3462736","139.1372922","中澤酒造","なかざわしゅぞう","〒258-0003","神奈川県足柄上郡松田町松田惣領1875","神奈川県"
"36.3461799","139.134011","森本酒造","もりもとしゅぞう","〒379-2122","群馬県前橋市駒形町1111-1","群馬県"
"36.3473376","139.1319064","町田酒造店","まちだしゅぞうてん","〒379-2122","群馬県前橋市駒形町65","群馬県"
"35.2972148","139.130989","舞姿酒造","まいすがたしゅぞう","〒250-0113","神奈川県南足柄市","神奈川県"
"35.2410353","139.122569","相田酒造店","あいだしゅぞうてん","〒250-0031","神奈川県小田原市入生田150-1","神奈川県"
"37.8752746","139.1200301","石本酒造","いしもとしゅぞう","〒950-0116","新潟県新潟市北山847-1","新潟県"
"36.7110566","139.1145078","土田酒造","つちだしゅぞう","〒378-0102","群馬県利根郡川場村川場湯原2691","群馬県"
"35.3426453","139.112181","瀬戸酒造店","せとしゅぞうてん","〒258-0028","神奈川県足柄上郡開成町金井島17","神奈川県"
"36.3029408","139.1114805","町田酒造店","まちだしゅぞうてん","〒370-1132","群馬県佐波郡玉村町下新田619","群馬県"
"36.3038211","139.1081532","井田酒造","いだしゅぞう","〒370-1133","群馬県佐波郡玉村町上新田1626","群馬県"
"36.6932523","139.0953075","永井酒造","ながいしゅぞう","〒378-0115","群馬県利根郡川場村門前713","群馬県"
"35.3639883","139.0952907","川西屋酒造店","かわにしやしゅぞうてん","〒258-0113","神奈川県足柄上郡山北町山北250","神奈川県"
"37.7482797","139.093574","村祐酒造","むらゆうしゅぞう","〒956-0116","新潟県新潟市秋葉区舟戸1-1-1","新潟県"
"36.0006432","139.0841444","武甲酒造","ぶこうしゅぞう","〒368-0046","埼玉県秩父市宮側町21-27","埼玉県"
"36.2471277","139.0759276","松屋酒造","まつやしゅぞう","〒375-0024","群馬県藤岡市藤岡180","群馬県"
"37.9156879","139.0715629","今代司酒造","いまよつかさしゅぞう","〒950-0074","新潟県新潟市中央区鏡が岡1-1","新潟県"
"36.2132288","139.0649711","田島酒造店","たじましゅぞうてん","〒375-0032","群馬県藤岡市神田899","群馬県"
"37.9247033","139.0641823","越の華酒造","こしのはなしゅぞう","〒950-0076","新潟県新潟市沼垂西3-8-6","新潟県"
"37.6563458","139.0637321","マスカガミ","ますかがみ","〒959-1355","新潟県加茂市若宮町1-1-32","新潟県"
"36.6851087","139.0633687","永井本家","ながいほんけ","〒378-0074","群馬県沼田市下発知町703","群馬県"
"36.1562329","139.0582544","藤崎摠兵衛商店 群馬支店","ふじさきそうべえしょうてん ぐんましてん","〒370-1401","群馬県藤岡市鬼石108-2","群馬県"
"36.2333458","139.0574129","高井","たかい","〒375-0042","群馬県藤岡市鮎川138","群馬県"
"37.6582508","139.0564355","加茂錦酒造","かもにしきしゅぞう","〒959-1351","新潟県加茂市仲町3-3","新潟県"
"37.657962","139.0561467","雪椿酒造","ゆきつばきしゅぞう","〒959-1351","新潟県加茂市仲町3-14","新潟県"
"35.9861664","139.0561307","矢尾本店","やおほんてん","〒368-0054","埼玉県秩父市別所1432","埼玉県"
"36.4628268","139.0437648","聖酒造","ひじりしゅぞう","〒377-0061","群馬県渋川市北橘町下箱田380","群馬県"
"36.0430094","139.0361041","秩父菊水酒造","ちちぶきくすいしゅぞう","〒369-1503","埼玉県秩父市下吉田3786-1","埼玉県"
"37.3237904","139.0188075","玉川酒造","たまがわしゅぞう","〒946-0216","新潟県魚沼市須原1643","新潟県"
"36.4484642","139.0065384","柴崎酒造","しばさきしゅぞう","〒370-3608","群馬県北群馬郡吉岡町下野田649-1","群馬県"
"36.3331526","138.9996266","岡村合名","おかむらごうめい","〒370-0805","群馬県高崎市台町5","群馬県"
"36.3302194","138.9976574","美峰酒類","みほうしゅるい","〒370-0807","群馬県高崎市歌川町1","群馬県"
"37.4763724","138.992214","越銘醸","こしめいじょう","〒940-0217","新潟県長岡市大町2－8","新潟県"
"37.4552077","138.9787663","諸橋酒造","もろはししゅぞう","〒940-0241","新潟県長岡市北荷頃408","新潟県"
"34.973015","138.9717963","万大醸造","ばんだいじょうぞう","〒410-2403","静岡県伊豆市年川34","静岡県"
"36.0008007","138.9707728","近藤銘醸","こんどうめいじょう","〒368-0202","埼玉県秩父郡小鹿野町両神小森122","埼玉県"
"37.6290218","138.9642113","福顔酒造","ふくがおしゅぞう","〒955-","新潟県三条市林町1-5-38","新潟県"
"37.2096447","138.9537992","緑川酒造","みどりかわしゅぞう","〒946-0043","新潟県魚沼市青島4015-1","新潟県"
"36.2476729","138.9446885","聖徳銘醸","せいとくめいじょう","〒370-2213","群馬県甘楽郡甘楽町白倉686-1","群馬県"
"37.8625229","138.9432665","伊藤酒造","いとうしゅぞう","〒950-2112","新潟県新潟市内野町53-5","新潟県"
"37.8599788","138.9403642","塩川酒造","しおかわしゅぞう","〒950-2112","新潟県新潟市西区内野町662","新潟県"
"37.8575291","138.9387506","樋木酒造","ひきしゅぞう","〒950-2112","新潟県新潟市内野町582","新潟県"
"37.8567098","138.935901","濱倉酒造","はまくらしゅぞう","〒950-2112","新潟県新潟市内野町507","新潟県"
"37.1006246","138.9276106","八海醸造","はっかいじょうぞう","〒949-7112","新潟県南魚沼市長森1051","新潟県"
"37.7963834","138.9167013","朝妻酒造","あさづましゅぞう","〒959-0422","新潟県新潟市曽根251-2","新潟県"
"35.2905048","138.9051688","根上酒造店","ねがみしゅぞうてん","〒412-0046","静岡県御殿場市保土沢850-4","静岡県"
"37.8312749","138.891283","高野酒造","たかのしゅぞう","〒950-2253","新潟県新潟市木山24-1","新潟県"
"36.6156468","138.8907348","貴娘酒造","きむすめしゅぞう","〒377-0413","群馬県吾妻郡中之条町大塚1768-2","群馬県"
"37.016019","138.8781107","高千代酒造","たかちよしゅぞう","〒949-6545","新潟県南魚沼市長崎328-1","新潟県"
"37.7972982","138.8713507","笹祝酒造","ささいわいしゅぞう","〒953-0015","新潟県新潟市西蒲区松野尾3249","新潟県"
"37.7649853","138.8678771","越後鶴亀","えちごつるかめ","〒953-0023","新潟県新潟市西蒲区竹野町2580","新潟県"
"37.4553865","138.8651309","高橋酒造","たかはししゅぞう","〒940-0031","新潟県長岡市地蔵1-8-2","新潟県"
"37.4035695","138.851423","お福酒造","おふくしゅぞう","〒940-1117","新潟県長岡市横枕町606","新潟県"
"37.0399547","138.8511627","青木酒造","あおきしゅぞう","〒949-6408","新潟県南魚沼市塩沢1214","新潟県"
"37.4126325","138.8449457","長谷川酒造","はせがわしゅぞう","〒940-1105","新潟県長岡市摂田屋2-7-28","新潟県"
"37.4365773","138.8440534","美の川酒造","みのがわしゅぞう","〒940-0083","新潟県長岡市宮原2-13-31","新潟県"
"37.4162571","138.8412932","吉乃川","よしのがわ","〒940-1191","新潟県長岡市摂田屋4-8-12","新潟県"
"37.724628","138.8388511","宝山酒造","たからやましゅぞう","〒953-0141","新潟県新潟市西蒲区石瀬1380","新潟県"
"37.7571801","138.8367524","福井酒造","ふくいしゅぞう","〒953-0076","新潟県新潟市西蒲区福井1833","新潟県"
"37.3586056","138.834457","恩田酒造","おんだしゅぞう","〒940-1133","新潟県長岡市六日市町1330","新潟県"
"37.7131041","138.8316439","弥彦酒造","やひこしゅぞう","〒959-0321","新潟県西蒲原郡弥彦村上泉1830-1","新潟県"
"35.6040633","138.8310932","笹一酒造","ささいちしゅぞう","〒401-0024","山梨県大月市笹子町吉久保26","山梨県"
"37.3934568","138.8301925","柏露酒造","はくろしゅぞう","〒940-1131","新潟県長岡市十日町字小島1927","新潟県"
"37.3138608","138.8125111","高の井酒造","たかのいしゅぞう","〒947-0004","新潟県小千谷市東栄3-7-67","新潟県"
"37.3073671","138.8100839","新潟銘醸","にいがためいじょう","〒947-0004","新潟県小千谷市東栄1丁目8番39号","新潟県"
"36.9393822","138.8099992","白瀧酒造","しらたきしゅぞう","〒949-6101","新潟県南魚沼郡湯沢町大字湯沢2640番地","新潟県"
"35.1262598","138.7932924","高嶋酒造","たかしましゅぞう","〒410-0312","静岡県沼津市原354-1","静岡県"
"37.5033342","138.7844852","河忠酒造","かわちゅうしゅぞう","〒940-2306","新潟県長岡市脇野町1677番地","新潟県"
"37.4998291","138.7823605","中川酒造","なかがわしゅぞう","〒940-2306","新潟県長岡市脇野町2011","新潟県"
"37.4958018","138.7812468","住乃井酒造","すみのいしゅぞう","〒940-2313","新潟県長岡市吉崎581番地1","新潟県"
"37.4530342","138.7748436","関原酒造","せきはらしゅぞう","〒940-2035","新潟県長岡市関原町1-1029-1","新潟県"
"37.3968943","138.7746983","朝日酒造","あさひしゅぞう","〒949-5494","新潟県長岡市朝日880-1","新潟県"
"37.150707","138.773972","魚沼酒造","うおぬましゅぞう","〒949-8614","新潟県十日町市中条丙1276","新潟県"
"36.4540818","138.7735012","牧野酒造","まきのしゅぞう","〒370-3401","群馬県高崎市倉渕町権田2625-1","群馬県"
"35.5020634","138.7656577","井出醸造店","いでじょうぞうてん","〒401-0301","山梨県南都留郡富士河口湖町船津8","山梨県"
"37.5612178","138.7653231","久須美酒造","くすみしゅぞう","〒949-4511","新潟県長岡市小島谷1537-2","新潟県"
"37.1765727","138.7480095","松乃井酒造場","まつのいしゅぞうじょう","〒948-0122","新潟県十日町市上野50-1","新潟県"
"37.5744849","138.7419363","池浦酒造","いけうらしゅぞう","〒949-4524","新潟県長岡市両高1538","新潟県"
"37.431842","138.7275619","栃倉酒造","とちくらしゅぞう","〒940-2146","新潟県長岡市大積町1乙274-3","新潟県"
"35.7050452","138.691327","養老酒造","ようろうしゅぞう","〒405-0041","山梨県山梨市北567","山梨県"
"36.9667961","138.6720273","津南醸造","つなんじょうぞう","〒949-8313","新潟県中魚沼郡津南町秋成7141","新潟県"
"35.6299907","138.6614845","腕相撲酒造","うでずもうしゅぞう","〒406-0804","山梨県笛吹市御坂町夏目原1374","山梨県"
"37.0136465","138.6516166","瀧澤酒造","たきざわしゅぞう","〒949-8201","新潟県中魚沼郡津南町下船渡戊555","新潟県"
"37.2256798","138.6381793","石塚酒造","いしづかしゅぞう","〒945-1502","新潟県柏崎市高柳町岡野町1820-2","新潟県"
"36.5516568","138.6361357","浅間酒造","あさましゅぞう","〒377-1304","群馬県吾妻郡長野原町長野原30-8","群馬県"
"37.3001021","138.6217543","林酒造場","はやししゅぞうじょう","〒945-1433","新潟県柏崎市与板1242-1","新潟県"
"37.3440991","138.611754","阿部酒造","あべしゅぞう","〒945-1352","新潟県柏崎市安田3475-1","新潟県"
"35.2287472","138.6062277","富士高砂酒造","ふじたかさごしゅぞう","〒418-0055","静岡県富士宮市宝町9-25","静岡県"
"35.4113996","138.5911974","富士正酒造","ふじまさしゅぞう","〒418-0101","静岡県富士宮市根原450-1","静岡県"
"35.1109417","138.5726894","神沢川酒造場","かんざわがわしゅぞうじょう","〒421-3103","静岡県静岡市清水区由比181","静岡県"
"35.2683081","138.5717607","牧野酒造","まきのしゅぞう","〒418-0114","静岡県富士宮市下条1037","静岡県"
"35.2691632","138.5597035","富士錦酒造","ふじにしきしゅぞう","〒419-0301","静岡県富士宮市上柚野532","静岡県"
"35.1294303","138.556327","英君酒造","えいくんしゅぞう","〒421-3101","静岡県静岡市清水区由比入山2152","静岡県"
"37.3661921","138.5514011","原酒造","はらしゅぞう","〒945-0056","新潟県柏崎市新橋5-12","新潟県"
"35.5625507","138.5045192","二葉屋酒造店","ふたばやしゅぞうてん","〒409-3601","山梨県西八代郡市川大門町1170","山梨県"
"36.2283427","138.4916715","芙蓉酒造","ふようしゅぞう","〒385-0034","長野県佐久市平賀5372","長野県"
"36.1926743","138.4871563","佐久の花酒造","さくのはなしゅぞう","〒384-0414","長野県佐久市下越620","長野県"
"35.0361381","138.4829886","三和酒造","さんわしゅぞう","〒424-0038","静岡県静岡市清水区西久保501-10","静岡県"
"36.2726217","138.4785048","戸塚酒造店","とつかしゅぞうてん","〒385-0022","長野県佐久市岩村田752","長野県"
"36.1364058","138.4781477","黒澤酒造","くろさわしゅぞう","〒384-0702","長野県南佐久郡佐久穂町穂積1400","長野県"
"36.2013175","138.4774097","橘倉酒造","きつくらしゅぞう","〒384-0301","長野県佐久市臼田653-2","長野県"
"36.2347834","138.4752644","土屋酒造店","つちやしゅぞうてん","〒385-0051","長野県佐久市中込1914-2","長野県"
"35.7293557","138.471746","福徳長酒類 韮崎工場","ふくとくちょうしゅるい","〒407-0175","山梨県韮崎市穂坂町宮久保5228-1","山梨県"
"36.2238844","138.4701541","伴野酒造","とものしゅぞう","〒385-0053","長野県佐久市野沢123","長野県"
"35.5605393","138.4669887","萬屋醸造店","よろづやじょうぞうてん","〒400-0501","山梨県南巨摩郡富士川町青柳町1202-1","山梨県"
"36.286278","138.4646005","千曲錦酒造","ちくまにしきしゅぞう","〒385-0021","長野県佐久市大字長土呂1110","長野県"
"36.2085527","138.4567502","木内醸造","きうちじょうぞう","〒385-0045","長野県佐久市大沢985","長野県"
"35.2897156","138.4556105","横山酒造店","よこやましゅぞうてん","〒409-2212","山梨県南巨摩郡南部町南部8255","山梨県"
"36.2743568","138.4534459","古屋酒造店","ふるやしゅぞうてん","〒385-0025","長野県佐久市塚原411","長野県"
"35.564375","138.4482397","大久保酒造店","おおくぼしゅぞうてん","〒400-0511","山梨県南巨摩郡富士川町大久保341","山梨県"
"35.6194425","138.4482006","横内酒造店","よこうちしゅぞうてん","〒400-0312","山梨県南アルプス市上宮地57","山梨県"
"35.6194425","138.4482006","太冠酒造","たいかんしゅぞう","〒400-0312","山梨県南アルプス市上宮地57","山梨県"
"36.7325354","138.431931","玉村本店","たまむらほんてん","〒381-0401","長野県下高井郡山ノ内町平穏1163","長野県"
"35.8271625","138.4270092","武の井酒造","たけのいしゅぞう","〒408-0012","山梨県北杜市高根町箕輪1450","山梨県"
"36.3285939","138.4238608","大塚酒造","おおつかしゅぞう","〒384-0031","長野県小諸市大手2-1-24","長野県"
"38.0808382","138.4178271","天領盃酒造","てんりょうはいしゅぞう","〒952-0028","新潟県佐渡市加茂歌代458","新潟県"
"37.1631068","138.413978","新潟第一酒造","にいがただいいちしゅぞう","〒942-0315","新潟県上越市浦川原区横川660","新潟県"
"37.8709595","138.4135485","北雪酒造","ほくせつしゅぞう","〒952-0706","新潟県佐渡市徳和2377-2","新潟県"
"37.2145201","138.4098852","加藤酒造","かとうしゅぞう","〒949-3417","新潟県上越市吉川区下深沢233","新潟県"
"35.8034068","138.4093141","八巻酒造店","やまきしゅぞうてん","〒408-0015","山梨県北杜市高根町下黒澤950","山梨県"
"37.2547624","138.3999154","代々菊醸造","よよぎくじょうぞう","〒949-3247","新潟県上越市柿崎区角取597","新潟県"
"34.9466461","138.3987034","萩錦酒造","はぎにしきしゅぞう","〒422-8044","静岡県静岡市駿河区西脇381","静岡県"
"34.9516039","138.3961257","駿河酒造場","するがしゅぞうじょう","〒422-8044","静岡県静岡市駿河区西脇25-1","静岡県"
"36.9273749","138.39366","角口酒造店","かどぐちしゅぞうてん","〒389-2412","長野県飯山市常郷1147","長野県"
"37.2756153","138.3927543","頚城酒造","くびきしゅぞう","〒949-3216","新潟県上越市柿崎区柿崎5765","新潟県"
"35.8608767","138.3831564","谷櫻酒造","たにざくらしゅぞう","〒409-1502","山梨県北杜市大泉町谷戸2037","山梨県"
"36.7450133","138.3792743","志賀泉酒造","しがいずみしゅぞう","〒383-0024","長野県中野市東山3-1","長野県"
"37.2416518","138.3769706","よしかわ杜氏の郷","よしかわとうじのさと","〒949-3449","新潟県上越市吉川区杜氏の郷1","新潟県"
"36.7450187","138.3738832","丸世酒造店","まるせしゅぞうてん","〒383-0022","長野県中野市中央2-5-12","長野県"
"36.7471102","138.3733332","井賀屋酒造場","いがやしゅぞうじょう","〒383-0013","長野県中野市中野1597","長野県"
"34.9510205","138.3675811","静岡平喜酒造","しずおかひらきしゅぞう","〒421-0111","静岡県静岡市駿河区丸子新田1-1","静岡県"
"36.8538025","138.3638092","田中屋酒造店","たなかやしゅぞうてん","〒389-2253","長野県飯山市大字飯山2227","長野県"
"34.9549006","138.363423","君盃酒造","くんぱいしゅぞう","〒421-0102","静岡県静岡市駿河区手越302","静岡県"
"37.1436881","138.361475","丸山酒造場","まるやましゅぞうじょう","〒942-0264","新潟県上越市三和区塔ノ輪617","新潟県"
"36.7454489","138.3566154","天領誉酒造","てんりょうほまれしゅぞう","〒383-0041","長野県中野市大字岩船190","長野県"
"37.9696469","138.3556412","菊波酒造","きくなみしゅぞう","〒952-0312","新潟県佐渡市吉岡813-1","新潟県"
"34.9792336","138.3509569","満寿一酒造","ますいちしゅぞう","〒421-1213","静岡県静岡市山崎2-32-5","静岡県"
"37.9735851","138.3483666","逸見酒造","へんみしゅぞう","〒952-0305","新潟県佐渡市長石84-甲","新潟県"
"37.9632971","138.3448036","尾畑酒造","おばたしゅぞう","〒952-0318","新潟県佐渡市真野新町449","新潟県"
"35.8083748","138.342943","山梨銘醸","やまなしめいじょう","〒408-0312","山梨県北杜市白州町台ヶ原2283","山梨県"
"36.2738897","138.339287","武重本家酒造","たけしげほんけしゅぞう","〒384-2206","長野県佐久市茂田井2179","長野県"
"36.2737619","138.3376732","大澤酒造","おおさわしゅぞう","〒384-2206","長野県佐久市茂田井2206","長野県"
"37.0979818","138.3354822","上越酒造","じょうえつしゅぞう","〒943-0422","新潟県上越市大字飯田508","新潟県"
"37.228313","138.3256423","小山酒造店","こやましゅぞうてん","〒949-3112","新潟県上越市大潟区土底浜3627","新潟県"
"34.8581546","138.3227588","磯自慢酒造","いそじまんしゅぞう","〒425-0032","静岡県焼津市鰯ヶ島307","静岡県"
"36.6966616","138.3174758","松葉屋本店","まつばやほんてん","〒381-0201","長野県上高井郡小布施町小布施778","長野県"
"36.6949146","138.316226","桝一市村酒造場","ますいちいちむらしゅぞうじょう","〒381-0201","長野県上高井郡小布施町小布施807","長野県"
"36.7093517","138.3154953","小布施酒造","おぶせしゅぞう","〒381-0207","長野県上高井郡小布施町押羽571","長野県"
"36.6534556","138.3144353","遠藤酒造場","えんどうしゅぞうじょう","〒382-0086","長野県須坂市須坂29","長野県"
"37.0454936","138.3139761","谷乃井酒造","たにのいしゅぞう","〒944-0132","新潟県上越市板倉区曽根田782-1","新潟県"
"37.0521928","138.313712","加茂乃井酒造","かものいしゅぞう","〒944-0105","新潟県上越市板倉区田屋6","新潟県"
"37.219261","138.3133301","竹田酒造店","たけだしゅぞうてん","〒949-3114","新潟県上越市大潟区上小船津浜171","新潟県"
"36.6550895","138.3065513","松葉屋","まつばや","〒382-0077","長野県須坂市北横町1640-10","長野県"
"36.6917424","138.3053163","高沢酒造","たかさわしゅぞう","〒381-0204","長野県上高井郡小布施町大字飯田776","長野県"
"38.0074404","138.2901614","加藤酒造店","かとうしゅぞうてん","〒952-1431","新潟県佐渡市沢根炭屋町50","新潟県"
"36.3591699","138.2898319","信州銘醸","しんしゅうめいじょう","〒386-0407","長野県上田市長瀬2999-1","長野県"
"34.9178528","138.2816966","初亀醸造","はつかめじょぞう","〒421-1121","静岡県藤枝市岡部町岡部744","静岡県"
"36.9549359","138.2735511","鮎正宗酒造","あゆまさむねしゅぞう","〒944-0341","新潟県妙高市猿橋636","新潟県"
"34.8146126","138.2704358","多々良酒造場","たたらしゅぞうじょう","〒421-0206","静岡県焼津市上新田1059-3","静岡県"
"34.8290497","138.2695885","岩本酒造","いわもとしゅぞう","〒426-0044","静岡県藤枝市大東町540","静岡県"
"36.340683","138.2665013","山三酒造","やまさんしゅぞう","〒386-0412","長野県上田市御嶽堂687-1","長野県"
"34.8546492","138.2620305","杉井酒造","すぎいしゅぞう","〒426-0033","静岡県藤枝市小石川町4-6-4","静岡県"
"36.4056056","138.25283","岡崎酒造","おかざきしゅぞう","〒386-0012","長野県上田市中央4-7-33","長野県"
"37.100613","138.2511309","妙高酒造","みょうこうしゅぞう","〒943-0841","新潟県上越市南本町2-7-47","新潟県"
"36.659111","138.250134","今井酒造店","いまいしゅぞうてん","〒381-0017","長野県長野市小島62","長野県"
"37.0287819","138.2500091","君の井酒造","きみのいしゅぞう","〒944-0048","新潟県妙高市下町3-11","新潟県"
"37.1169912","138.2493052","武蔵野酒造","むさしのしゅぞう","〒943-0834","新潟県上越市西城町4-7-46","新潟県"
"36.4076859","138.2454664","和田龍酒造","わだりゅうしゅぞう","〒386-0023","長野県上田市中央西1-14-14","長野県"
"34.8441575","138.227339","青島酒造","あおしましゅぞう","〒426-0036","静岡県藤枝市上青島246","静岡県"
"36.7962827","138.2156097","高橋助作酒造店","たかはしすけさくしゅぞうてん","〒389-1313","長野県上水内郡信濃町古間856-1","長野県"
"37.0105633","138.2079002","千代の光酒造","ちよのひかりしゅぞう","〒944-0061","新潟県妙高市大字窪松原656","新潟県"
"36.4197034","138.2067222","沓掛酒造","くつかけしゅぞう","〒386-0043","長野県上田市下塩尻35","長野県"
"34.8984697","138.2054075","志太泉酒造","しだいずみしゅぞう","〒426-0133","静岡県藤枝市宮原423-22-1","静岡県"
"36.6227117","138.1990596","雲山銘醸","うんざんめいじょう","〒380-0918","長野県長野市ア－クス11番5号","長野県"
"36.359907","138.1943122","若林醸造","わかばやしじょうぞう","〒386-1325","長野県上田市中野466","長野県"
"36.6579506","138.1858969","よしのや","よしのや","〒380-0857","長野県長野市西之門町941","長野県"
"37.1622772","138.173961","田中酒造","たなかしゅぞう","〒949-1701","新潟県上越市長浜129-1","新潟県"
"34.8329862","138.1734691","大村屋酒造場","おおむらやしゅぞうじょう","〒427-0022","静岡県島田市本通1-1-8","静岡県"
"36.5919217","138.1523767","酒千蔵野","しゅせんくらの","〒381-2226","長野県長野市川中島町今井368-1","長野県"
"35.9918319","138.1510856","諏訪大津屋本家酒造","すわおおつやほんけしゅぞう","〒391-0001","長野県茅野市ちの2998番地","長野県"
"36.4914494","138.1508205","坂井銘醸","さかいめいじょう","〒389-0804","長野県千曲市戸倉1855-1","長野県"
"36.6198653","138.1328664","東飯田酒造店","ひがしいいだしゅぞうてん","〒381-2235","長野県長野市篠ノ井小松原1724","長野県"
"36.6203819","138.1323358","西飯田酒造店","にしいいだしゅぞうてん","〒381-2235","長野県長野市篠ノ井小松原1726","長野県"
"36.5066278","138.1291846","天法酒造","てんぽうしゅぞう","〒389-0803","長野県千曲市大字千本柳659","長野県"
"36.0398363","138.122978","宮坂醸造","みやさかじょうぞう","〒392-0006","長野県諏訪市元町1-16","長野県"
"36.0418026","138.121217","酒ぬのや本金酒造","さけぬのやほんきんしゅぞう","〒392-0004","長野県諏訪市諏訪2丁目8-21","長野県"
"36.0424164","138.1209337","麗人酒造","れいじんしゅぞう","〒392-0004","長野県諏訪市諏訪2-9-21","長野県"
"36.0414749","138.1205865","伊東酒造","いとうしゅぞう","〒392-0004","長野県諏訪市諏訪2-3-6","長野県"
"36.0425941","138.1203059","舞姫酒造","まいひめしゅぞう","〒392-0004","長野県諏訪市諏訪2-9-25","長野県"
"36.0754892","138.0867274","菱友醸造","ひしともじょうぞう","〒393-0061","長野県諏訪郡下諏訪町御田町3205-17","長野県"
"34.7599765","138.0848675","森本酒造","もりもとしゅぞう","〒439-0006","静岡県菊川市堀之内103-3","静岡県"
"34.6546772","138.0835749","石川酒造","いしかわしゅぞう","〒437-1613","静岡県御前崎市合戸1319","静岡県"
"34.7457388","138.0796938","白松酒造","しらまつしゅぞう","〒439-0031","静岡県菊川市加茂750","静岡県"
"36.5163732","138.0756243","長野銘醸","ながのめいじょう","〒387-0023","長野県千曲市八幡275","長野県"
"36.0682754","138.05395","高天酒造","こうてんしゅぞう","〒394-0022","長野県岡谷市銀座2-2-17","長野県"
"36.0616121","138.0457732","豊島屋","としまや","〒394-0028","長野県岡谷市本町3-9-1","長野県"
"34.7170021","138.0449985","土井酒造場","どいしゅぞうじょう","〒437-1407","静岡県掛川市小貫633","静岡県"
"35.8303709","138.026982","仙醸","せんじょう","〒396-0295","長野県伊那市高遠町上山田2432","長野県"
"36.5728413","138.0150737","尾澤酒造場","おざわしゅぞうじょう","〒381-2405","長野県長野市信州新町新町168-1","長野県"
"36.425325","138.0148706","山清酒造","さんせいしゅぞう","〒399-7601","長野県東筑摩郡筑北村坂北1720","長野県"
"36.2237883","137.996757","岩波酒造","いわなみしゅぞう","〒390-0221","長野県松本市里山辺5159","長野県"
"35.9139845","137.986033","山岸酒店","やまぎしさけてん","〒399-4601","長野県上伊那郡箕輪町中箕輪9549","長野県"
"34.6808661","137.9855371","山中酒造","やまなかしゅぞう","〒437-1301","静岡県掛川市横須賀61","静岡県"
"36.2356693","137.9763309","善哉酒造","よいかなしゅぞう","〒390-0874","長野県松本市大手5-4-24","長野県"
"36.1033215","137.9743478","笑亀酒造","しょうきしゅぞう","〒399-0712","長野県塩尻市塩尻町140","長野県"
"36.2313694","137.9686542","奥澤商会","おくざわしょうかい","〒390-0811","長野県松本市中央2-1-20","長野県"
"36.042785","137.9685552","小野酒造店","おのしゅぞうてん","〒399-0601","長野県上伊那郡辰野町小野992-1","長野県"
"36.1206386","137.9650171","丸永酒造場","まるながしゅぞうじょう","〒399-0703","長野県塩尻市広丘高出840","長野県"
"35.837827","137.9587405","漆戸醸造","うるしどじょうぞう","〒396-0021","長野県伊那市西町4875-1","長野県"
"35.8414237","137.9581182","宮島酒店","みやじまさけてん","〒396-0025","長野県伊那市荒井3629番地1","長野県"
"36.2481913","137.9491776","笹井酒造","ささいしゅぞう","〒390-0851","長野県松本市島内3682","長野県"
"35.8259005","137.948789","大國酒造","おおくにしゅぞう","〒399-4431","長野県伊那市西春近2161-1","長野県"
"35.6378473","137.9474854","米澤酒造","よねざわしゅぞう","〒399-3801","長野県上伊那郡中川村大草4182-1","長野県"
"35.7324081","137.9365262","酒造長生社","しゅぞうちょうせいしゃ","〒399-4105","長野県駒ケ根市赤須東10-31","長野県"
"35.737924","137.9348012","六合社","りくごうしゃ","〒399-41","長野県駒ケ根市北町5-18","長崎県"
"36.3565676","137.9318004","明科酒造","あかしなしゅぞう","〒399-7102","長野県安曇野市明科中川手4176","長野県"
"37.0363771","137.9287343","猪又酒造","いのまたしゅぞう","〒941-0022","新潟県糸魚川市新町71-1","新潟県"
"36.2279322","137.9279603","大信州酒造","だいしんしゅうしゅぞう","〒390-0852","長野県松本市島立2380","長野県"
"36.2246382","137.9250356","亀田屋酒造店","かめたやしゅぞうてん","〒390-0852","長野県松本市島立2748","長野県"
"36.2555813","137.9236403","EH酒造","いーえいちしゅぞう","〒399-8204","長野県安曇野市豊科高家1090-1","長野県"
"36.1117028","137.909792","美寿々酒造","みすずしゅぞう","〒399-6462","長野県塩尻市洗馬2402","長野県"
"36.3895257","137.8886428","大雪渓酒造","だいせっけいしゅぞう","〒399-8602","長野県北安曇郡池田町会染9642-2","長野県"
"36.4208991","137.8805155","福源酒造","ふくげんしゅぞう","〒399-8601","長野県北安曇郡池田町池田2100","長野県"
"37.0487162","137.8749117","田原酒造","たはらしゅぞう","〒941-0051","新潟県糸魚川市押上1-1-25","新潟県"
"36.9667413","137.8739095","渡辺酒造店","わたなべしゅぞうてん","〒949-0536","新潟県糸魚川市根小屋1197-1","新潟県"
"34.8086907","137.8693588","国香酒造","こっこうしゅぞう","〒437-0001","静岡県袋井市山田537","静岡県"
"36.4999407","137.8624528","薄井商店","うすいしょうてん","〒398-0002","長野県大町市大町2512-1","長野県"
"36.4999407","137.8624528","北安醸造","ほくあんじょうぞう","〒398-0002","長野県大町市大町2340-1","長野県"
"36.504363","137.8594321","市野屋商店","いちのやしょうてん","〒398-0002","長野県大町市大町2527番地イ号","長野県"
"37.0454054","137.859119","加賀の井酒造","かがのいしゅぞう","〒941-0061","新潟県糸魚川市大町2-3-5","新潟県"
"37.0437583","137.8566415","池田屋酒造","いけだやしゅぞう","〒941-0065","新潟県糸魚川市新鉄1-3-4","新潟県"
"34.715545","137.8408921","千寿酒造","せんじゅしゅぞう","〒438-0078","静岡県磐田市中泉2914-6","静岡県"
"35.9651815","137.8113147","杉の森酒造","すぎのもりしゅぞう","〒399-6303","長野県塩尻市奈良井551-1","長野県"
"35.5132446","137.8068762","喜久水酒造","きくすいしゅぞう","〒395-0807","長野県飯田市鼎切石4293番地","長野県"
"35.9378563","137.7838568","湯川酒造店","ゆかわしゅぞうてん","〒399-6201","長野県木曽郡木祖村薮原1003-1","長野県"
"34.827706","137.770959","花の舞酒造","はなのまいしゅぞう","〒434-0004","静岡県浜松市浜北区宮口632","静岡県"
"34.7097209","137.7501562","浜松酒造","はままつしゅぞう","〒430-0808","静岡県浜松市天神町3-57","静岡県"
"35.8500881","137.6978989","七笑酒造","ななわらいしゅぞう","〒397-0001","長野県木曽郡木曽町福島5135","長野県"
"35.8464857","137.6918578","中善酒造店","なかぜんしゅぞうてん","〒397-0001","長野県木曽郡木曽町福島5990","長野県"
"35.6960873","137.6915311","西尾酒造","にしおしゅぞう","〒399-5502","長野県木曽郡大桑村須原893","長野県"
"36.976814","137.6268247","林酒造場","はやししゅぞうじょう","〒939-0704","富山県下新川郡朝日町境1608","富山県"
"35.0937221","137.56977","関谷醸造","せきやじょうぞう","〒441-2301","愛知県北設楽郡設楽町田口字町浦22","愛知県"
"35.5672026","137.5310161","丸田屋酒造","まるたやしゅぞう","〒509-9232","岐阜県中津川市坂下3256","岐阜県"
"35.4941137","137.5010034","はざま酒造","はざましゅぞう","〒508-0041","岐阜県中津川市本町4-1-51","岐阜県"
"34.9020816","137.4997006","日野屋商店","ひのやしょうてん","〒441-1374","愛知県新城市字町並176","愛知県"
"35.5874852","137.4931828","山内酒造場","やまうちしゅぞうじょう","〒509-9231","岐阜県中津川市上野小野沢134-1","岐阜県"
"36.8748193","137.4712747","銀盤酒造","ぎんばんしゅぞう","〒938-0801","富山県黒部市荻生4853-3","富山県"
"35.6217575","137.4649687","三千櫻酒造","みちざくらしゅぞう","〒508-0201","岐阜県中津川市田瀬25","岐阜県"
"35.3640733","137.4429752","岩村醸造","いわむらじょうぞう","〒509-7403","岐阜県恵那市岩村町342","岐阜県"
"36.8903581","137.4167713","皇国晴酒造","みくにはれしゅぞう","〒938-0066","富山県黒部市生地296","富山県"
"35.5965638","137.4075178","恵那醸造","えなじょうぞう","〒508-0203","岐阜県中津川市福岡2992-1","岐阜県"
"36.818282","137.4044238","本江酒造","ほんごうしゅぞう","〒937-0803","富山県魚津市本江新町6-1","富山県"
"35.4152659","137.3856441","恵那醸造","えなじょうぞう","〒509-7123","岐阜県恵那市三郷町野井380-1","岐阜県"
"34.7404997","137.3767268","福井酒造","ふくいしゅぞう","〒441-8065","愛知県豊橋市中浜町214","愛知県"
"35.529608","137.3764318","大橋酒造","おおはししゅぞう","〒509-8301","岐阜県中津川市蛭川1119-1-1-2","岐阜県"
"34.7662411","137.376348","伊勢屋商店","いせやしょうてん","〒440-8019","愛知県豊橋市花田町字斉藤49","愛知県"
"36.7464965","137.3386669","千代鶴酒造","ちよづるしゅぞう","〒936-0857","富山県滑川市下梅沢360","富山県"
"35.2206399","137.3283352","中垣酒造","なかがきしゅぞう","〒444-2827","愛知県豊田市有間町下平10","愛知県"
"34.830245","137.3253934","白井醸造","しらいじょうぞう","〒442-0854","愛知県豊川市","愛知県"
"37.4405198","137.313451","櫻田酒造","さくらだしゅぞう","〒927-1204","石川県珠洲市蛸島町ソ93","石川県"
"35.0119214","137.3066733","柴田酒造場","しばたしゅぞうじょう","〒444-3442","愛知県岡崎市保久町字神水39","愛知県"
"36.3301809","137.2994349","大坪酒造店","おおつぼしゅぞうてん","〒506-1162","岐阜県飛騨市神岡町朝浦557","岐阜県"
"35.3799108","137.2699897","中島醸造","なかしまじょうぞう","〒509-6101","岐阜県瑞浪市土岐町7181-1","岐阜県"
"36.1417604","137.2615777","平瀬酒造店","ひらせしゅぞうてん","〒506-0844","岐阜県高山市上一之町82","岐阜県"
"36.1424186","137.2602722","川尻酒造場","かわじりしゅぞうじょう","〒506-0845","岐阜県高山市上二之町68","岐阜県"
"36.1407883","137.2597779","舩坂酒造店","ふなさかしゅぞうてん","〒506-0846","岐阜県高山市上三之町105","岐阜県"
"36.142838","137.2597639","二木酒造","にきしゅぞう","〒506-0845","岐阜県高山市上二之町40","岐阜県"
"36.1430824","137.2596501","平田酒造場","ひらたしゅぞうじょう","〒506-0845","岐阜県高山市上二之町43","岐阜県"
"36.1407688","137.2593363","原田酒造場","はらだしゅぞうじょう","〒506-0846","岐阜県高山市上三之町10","岐阜県"
"36.143163","137.259064","老田酒造店","おいたしゅぞうてん","〒506-0846","岐阜県高山市上三之町67","岐阜県"
"36.1440795","137.2583751","田辺酒造場","たなべしゅぞうじょう","〒506-0841","岐阜県高山市下三之町19","岐阜県"
"35.3634401","137.257889","若葉","わかば","〒509-6101","岐阜県瑞浪市土岐町7270-1","岐阜県"
"35.3652758","137.2532673","白梅酒造","しらうめしゅぞう","〒509-6121","岐阜県瑞浪市寺河戸町1067-1","岐阜県"
"37.3547597","137.2416299","松波酒造","まつなみしゅぞう","〒927-0602","石川県鳳珠郡能登町松波30-114","石川県"
"37.3747318","137.2370459","宗玄酒造","そうげんしゅぞう","〒927-1225","石川県珠洲市宝立町宗玄24-22","石川県"
"36.7557206","137.2291821","桝田酒造店","ますだしゅぞうてん","〒931-8358","富山県富山市東岩瀬町269","富山県"
"35.3247493","137.2266039","千古乃岩酒造","ちごのいわしゅぞう","〒509-5401","岐阜県土岐市駄知町2177-1","岐阜県"
"35.8763937","137.2095822","天領酒造","てんりょうしゅぞう","〒509-2517","岐阜県下呂市萩原町萩原1289-1","岐阜県"
"36.7210315","137.2011806","富美菊酒造","ふみぎくしゅぞう","〒930-2214","富山県富山市百塚134-3","富山県"
"36.2349387","137.1870447","蒲酒造場","かばしゅぞうじょう","〒509-4234","岐阜県飛騨市古川町壱之町6-6","岐阜県"
"36.2353664","137.1863476","渡辺酒造店","わたなべしゅぞうてん","〒509-4234","岐阜県飛騨市古川町壱之町7-7","岐阜県"
"34.9560841","137.1781706","丸石醸造","まるいしじょうぞう","〒444-0015","愛知県岡崎市中町6-2-5","愛知県"
"35.1266425","137.1644573","浦野","うらの","〒470-0373","愛知県豊田市四郷町下古屋48","愛知県"
"35.0868194","137.1622426","豊田酒造","とよたしゅぞう","〒471-0027","愛知県豊田市喜多町5-8","愛知県"
"36.6410659","137.160029","吉乃友酒造","よしのともしゅぞう","〒939-2756","富山県富山市婦中町下井沢3285-1","富山県"
"35.4261025","137.1597382","平井酒造場","ひらいしゅぞうじょう","〒505-0114","岐阜県可児郡御嵩町中切1341","岐阜県"
"35.662565","137.1576365","奥飛騨酒造","おくひだしゅぞう","〒509-1622","岐阜県下呂市金山町金山1984","岐阜県"
"35.2998047","137.155219","三千盛","みちさかり","〒507-0901","岐阜県多治見市笠原町2919","岐阜県"
"35.4920699","137.1508339","古田酒造","ふるたしゅぞう","〒505-0301","岐阜県加茂郡","岐阜県"
"37.3082014","137.1507938","数馬酒造","かずましゅぞう","〒927-0433","石川県鳳珠郡能登町宇出津ヘ36","石川県"
"35.4760285","137.1415047","山田商店","やまだしょうてん","〒505-0301","岐阜県加茂郡八百津町八百津3888-2","岐阜県"
"35.475213","137.13973","花盛酒造","はなもりしゅぞう","〒505-0301","岐阜県加茂郡八百津町八百津4091","岐阜県"
"36.5773428","137.1362263","玉旭酒造","たまあさひしゅぞう","〒939-2354","富山県富山市八尾町東町2111","富山県"
"36.5787094","137.1361401","福鶴酒造","ふくつるしゅぞう","〒939-2355","富山県富山市八尾町西町2352","富山県"
"34.7927337","137.1226436","山崎合資","やまざきごうし","〒444-0703","愛知県西尾市西幡豆町柿田57","愛知県"
"35.2477034","137.1221421","柴田","しばた","〒480-1207","愛知県瀬戸市品野町4-88","愛知県"
"37.4136286","137.0969472","中納酒造","なかのしゅぞう","〒928-0212","石川県輪島市町野町寺山3-42","石川県"
"35.4596572","137.0958926","伊藤酒造","いとうしゅぞう","〒505-0130","岐阜県可児市兼山759-2","岐阜県"
"34.9601056","137.0922124","神杉酒造","かみすぎしゅぞう","〒446-0062","愛知県安城市明治本町20-5","愛知県"
"35.414079","137.0917033","林酒造","はやししゅぞう","〒509-0222","岐阜県可児市羽崎1418","岐阜県"
"35.519859","137.0911922","平和錦酒造","へいわにしきしゅぞう","〒509-0301","岐阜県加茂郡川辺町下麻生2121","岐阜県"
"37.2544275","137.0851606","鶴野酒造店","つるのしゅぞうてん","〒927-0302","石川県鳳珠郡能登町鵜川19-64","石川県"
"35.4877786","137.0691639","白扇酒造","はくせんしゅぞう","〒509-0304","岐阜県加茂郡川辺町中川辺28","岐阜県"
"34.8741958","137.038757","相生ユニビオ","あいおいゆにびお","〒445-0891","愛知県西尾市下町丸山5","愛知県"
"35.438284","137.0142951","御代桜醸造","みよざくらじょうぞう","〒505-0042","岐阜県美濃加茂市太田本町3-2-9","岐阜県"
"36.7561988","137.0133487","清都酒造場","きよとしゅぞうじょう","〒933-0917","富山県高岡市京町12-12","富山県"
"36.7474607","137.0006034","日本晴酒造","にほんばれしゅぞう","〒933-0842","富山県高岡市横田町2-7-23","富山県"
"35.4927885","136.9921112","松井屋酒造場","まついやしゅぞうじょう","〒501-3301","岐阜県加茂郡富加町加治田688-2","岐阜県"
"34.8710716","136.991565","永井酒造場","ながいしゅぞうじょう","〒447-0885","愛知県碧南市志貴町2-90","愛知県"
"36.8461136","136.9879228","藤波酒造","ふじなみしゅぞう","〒935-0015","富山県氷見市伊勢大町2-9-34","富山県"
"36.6063206","136.9867072","立山酒造","たてやましゅぞう","〒939-1322","富山県砺波市中野217","富山県"
"36.8655523","136.9846864","高澤酒造場","たかざわしゅぞうじょう","〒935-0004","富山県氷見市北大町18-7","富山県"
"36.6830506","136.9794733","戸出酒造","といでしゅぞう","〒939-1104","富山県高岡市戸出町3-8-7","富山県"
"34.9577503","136.9731299","原田酒造","はらだしゅぞう","〒470-2104","愛知県知多郡東浦町生路坂下29","愛知県"
"36.6557934","136.9703023","若鶴酒造","わかつるしゅぞう","〒939-1308","富山県砺波市三郎丸208","富山県"
"36.5607478","136.9701405","若駒酒造場","わかこましゅぞうじょう","〒932-0234","富山県南砺市井波3601","富山県"
"34.9823689","136.9694878","野村酒造","のむらしゅぞう","〒470-2102","愛知県知多郡東浦町大字緒川字屋敷弐区132","愛知県"
"37.0486097","136.96424","布施酒造店","ふせしゅぞうてん","〒926-0802","石川県七尾市三島町52-2","石川県"
"34.9119614","136.9626912","盛田金しゃち酒造","もりたきんしゃちしゅぞう","〒475-0023","愛知県半田市亀崎町9-112","愛知県"
"35.7497823","136.956141","平野本店","ひらのほんてん","〒501-4216","岐阜県郡上市八幡町本町865-1","岐阜県"
"35.3491603","136.9508837","東洋自慢酒造","とうようじまんしゅぞう","〒484-0894","愛知県犬山市羽黒字前川原48-3","愛知県"
"36.6447033","136.9488736","吉江酒造","よしえしゅぞう","〒939-1356","富山県砺波市若草町5-5","富山県"
"35.3459657","136.9456066","小弓鶴酒造","こゆみつるしゅぞう","〒484-0894","愛知県犬山市羽黒成海郷70","愛知県"
"35.2117576","136.944674","東春酒造","とうしゅんしゅぞう","〒463-0090","愛知県名古屋市守山区瀬古東3丁目1605","愛知県"
"35.1985095","136.9391249","金虎酒造","きんとらしゅぞう","〒462-0813","愛知県名古屋市北区山田3丁目11-16","愛知県"
"35.4040374","136.9369892","菊川","きくかわ","〒509-0132","岐阜県各務原市鵜沼西町1-543","岐阜県"
"35.0670579","136.9356975","神の井酒造","かみのいしゅぞう","〒459-8001","愛知県名古屋市緑区大高町字高見25","愛知県"
"34.8957341","136.9347167","中埜酒造","なかのしゅぞう","〒475-0878","愛知県半田市東本町2-24","愛知県"
"35.0672635","136.9336422","山盛酒造","やまもりしゅぞう","〒459-8001","愛知県名古屋市緑区大高町字高見74","愛知県"
"35.0649109","136.9333144","萬乗醸造","ばんじょうじょうぞう","〒459-8001","愛知県名古屋市緑区大高町西門田41","愛知県"
"36.4125173","136.9314747","三笑楽酒造","さんしょうらくしゅぞう","〒939-1914","富山県南砺市上梨678","富山県"
"35.2221421","136.9291807","双葉酒造","ふたばしゅぞう","〒462-0014","愛知県北区楠味鋺4-401","愛知県"
"34.9156959","136.9161292","丸一酒造","まるいちしゅぞう","〒470-2216","愛知県知多郡阿久比町植大字西廻間11","愛知県"
"35.5444616","136.9140918","小坂酒造場","こさかしゅぞうじょう","〒501-3723","岐阜県美濃市相生町2267","岐阜県"
"36.6541926","136.910494","黒田酒造","くろだしゅぞう","〒932-0805","富山県小矢部市西中323","富山県"
"35.8043341","136.904746","平野醸造","ひらのじょうぞう","〒501-4607","岐阜県郡上市大和町徳永164","岐阜県"
"37.396223","136.9032394","日吉酒造店","ひよししゅぞうてん","〒928-0001","石川県輪島市河井町2-27-1","石川県"
"37.3953064","136.9012258","清水酒造店","しみずしゅぞうてん","〒928-0001","石川県輪島市河井町1-18-1","石川県"
"37.3968172","136.8971371","白藤酒造店","はくとうしゅぞうてん","〒928-0077","石川県輪島市鳳至町上町24","石川県"
"36.9857309","136.8969553","鳥屋酒造","とりやしゅぞう","〒929-1715","石川県鹿島郡中能登町一青ケ96","石川県"
"37.3929758","136.894607","中島酒造店","なかしましゅぞうてん","〒928-0078","石川県輪島市鳳至町稲荷町8","石川県"
"35.1371374","136.8845096","八束穂酒造","やつかほしゅぞう","〒454-0043","愛知県名古屋市中川区牛立町5-9","愛知県"
"35.3068995","136.8793452","勲碧酒造","くんぺきしゅぞう","〒483-8128","愛知県江南市小折本町柳橋88","愛知県"
"36.9395365","136.8760119","御祖酒造","みおやしゅぞう","〒929-1633","石川県鹿島郡中能登町藤井ホ10","石川県"
"34.7366705","136.8731581","内田酒造","うちだしゅぞう","〒470-33","愛知県知多郡南知多町内海北向91-4","愛知県"
"35.3211983","136.8721286","丸井合名","まるいごうめい","〒483-8158","愛知県江南市布袋町東202","愛知県"
"35.3209983","136.868926","山星酒造","やまぼししゅぞう","〒483-8237","愛知県江南市布袋町西95","愛知県"
"34.8301482","136.8662925","盛田","もりた","〒479-0807","愛知県常滑市小鈴谷字亀井戸21-1","愛知県"
"35.4221637","136.8616954","小町酒造","こまちしゅぞう","〒504-0851","岐阜県各務原市蘇原伊吹町2-15","岐阜県"
"34.859116","136.8592457","澤田酒造","さわだしゅぞう","〒479-0818","愛知県常滑市古場町4-10","愛知県"
"35.8846518","136.8576303","原酒造場","はらしゅぞうじょう","〒501-5121","岐阜県郡上市白鳥町白鳥991","岐阜県"
"35.2124349","136.84029","清洲桜醸造","きよすざくらじょうぞう","〒452-0942","愛知県清須市清洲1692番地","愛知県"
"36.5448583","136.8393174","成政酒造","なりまさしゅぞう","〒939-1676","富山県南砺市舘418","富山県"
"35.4989928","136.8359047","白木恒助商店","しらきつねすけしょうてん","〒501-2528","岐阜県岐阜市門屋門61","岐阜県"
"35.3973887","136.8281778","林本店","はやしほんてん","〒504-0958","岐阜県各務原市那加新加納町2239","岐阜県"
"35.4159083","136.8129651","足立酒造","あだちしゅぞう","〒500-8222","岐阜県岐阜市琴塚3-21-10","岐阜県"
"35.1388692","136.8088514","常盤醸造","ときわじょうぞう","〒454-0962","愛知県名古屋市中川区戸田3-827","愛知県"
"35.1451013","136.7943468","山田酒造","やまだしゅぞう","〒497-0031","愛知県海部郡蟹江町須成1245","愛知県"
"35.3281958","136.793892","金銀花酒造","きんぎんかしゅぞう","〒491-0051","愛知県一宮市今伊勢町馬寄山之小路19","愛知県"
"35.2528234","136.7910144","藤市酒造","ふじいちしゅぞう","〒492-8219","愛知県稲沢市稲葉3-4-30","愛知県"
"35.1313723","136.7898064","甘強酒造","かんきょうしゅぞう","〒497-0040","愛知県海部郡蟹江町城4-1","愛知県"
"37.2887225","136.7779617","中野酒造","なかのしゅぞう","〒927-2152","石川県輪島市門前町広瀬ニ5-2","石川県"
"36.843914","136.767125","見砂酒造","みさごしゅぞう","〒929-1341","石川県羽咋郡宝達志水町宿4-43","石川県"
"35.1560772","136.7646961","鶴見酒造","つるみしゅぞう","〒496-0017","愛知県津島市百町字旭46","愛知県"
"35.3653444","136.7617338","久納酒造","くのしゅぞう","〒501-6052","岐阜県羽島郡笠松町下本町59","岐阜県"
"35.4086501","136.757896","日本泉酒造","にほんいずみしゅぞう","〒500-8429","岐阜県岐阜市加納清水町3-8-2","岐阜県"
"35.1368655","136.7357859","青木酒造","あおきしゅぞう","〒496-0915","愛知県愛西市本部田町本西60番地","愛知県"
"36.6724875","136.7337077","久世酒造店","くぜしゅぞうてん","〒929-0826","石川県河北郡津幡町清水イ122","石川県"
"35.1584455","136.7326627","山忠本家酒造","やまちゅうほんけしゅぞう","〒496-0906","愛知県愛西市日置町弐橋1797-3","愛知県"
"35.1583344","136.7319906","山忠新家","やまちゅうしんけ","〒496-0907","愛知県愛西市稲葉町江頭18-1","愛知県"
"35.1766677","136.7248514","長珍酒造","ちょうちんしゅぞう","〒496-0805","愛知県津島市本町3-62","愛知県"
"34.4623178","136.7233349","伊勢萬","いせまん","〒516-0025","三重県伊勢市宇治中之切町77番地の2","三重県"
"35.2360393","136.7219555","内藤醸造","ないとうじょうぞう","〒495-0022","愛知県稲沢市祖父江町甲新田高須賀52-1","愛知県"
"35.2000593","136.7201206","渡辺酒造","わたなべしゅぞう","〒496-8015","愛知県愛西市草平町道下83","愛知県"
"35.2076613","136.7069081","水谷酒造","みずたにしゅぞう","〒496-8016","愛知県鷹場町久田山12","愛知県"
"35.3228208","136.7033966","千代菊","ちよぎく","〒501-6241","岐阜県羽島市竹鼻町2733","岐阜県"
"35.2946906","136.6996672","林彰一郎商店","はやししょういちろうしょうてん","〒501-6318","岐阜県羽島市上中町沖1493","岐阜県"
"35.437915","136.6874083","柴田酒造","しばたしゅぞう","〒501-0431","岐阜県本巣郡北方町北方1512","岐阜県"
"36.583681","136.6802804","武内酒造店","たけうちしゅぞうてん","〒920-0813","石川県金沢市御所町イ22","石川県"
"35.0165761","136.6756182","早川酒造部","はやかわしゅぞうぶ","〒510-8121","三重県三重郡川越町高松829","三重県"
"36.5859445","136.6755584","やちや酒造","やちやしゅぞう","〒920-0818","石川県金沢市大樋町8-32","石川県"
"36.5536347","136.6721655","福光屋","ふくみつや","〒920-8638","石川県金沢市石引2-8-3","石川県"
"35.0401232","136.6695376","安達本家酒造","あだちほんけしゅぞう","〒510-8101","三重県三重郡朝日町縄生2107","三重県"
"35.292391","136.6632918","吉田合資","よしだごうし","〒503-0202","岐阜県安八郡輪之内町大籔623","岐阜県"
"35.0346096","136.6597635","稲垣酒造場","いながきしゅぞうじょう","〒510-8103","三重県三重郡朝日町大字柿2174","三重県"
"35.0229442","136.6532977","タカハシ酒造","たかはししゅぞう","〒510-8021","三重県四日市市松寺2丁目15-7","三重県"
"34.5664719","136.6482598","旭酒造","あさひしゅぞう","〒515-0303","三重県多気郡明和町山大淀3032","三重県"
"36.5651885","136.6443307","中村酒造","なかむらしゅぞう","〒920-0867","石川県金沢市長土塀3-2-15","石川県"
"34.9097509","136.6336938","宮崎本店","みやざきほんてん","〒510-0104","三重県四日市市楠町南五味塚972","三重県"
"36.4463066","136.6294145","菊姫","きくひめ","〒920-2126","石川県白山市鶴来新町タ8","石川県"
"35.0516297","136.6286655","後藤酒造場","ごとうしゅぞうじょう","〒511-0934","三重県桑名市赤尾1019","三重県"
"36.4468871","136.6266397","小堀酒造店","こぼりしゅぞうてん","〒920-2121","石川県白山市鶴来本町1丁目ワ47番地","石川県"
"35.4324277","136.6230262","杉原酒造","すぎはらしゅぞう","〒501-0532","岐阜県揖斐郡大野町下磯1","岐阜県"
"34.8682615","136.6226699","清水醸造","しみずじょうぞう","〒510-0225","三重県鈴鹿市若松東3-9-33","三重県"
"35.3718664","136.6209376","渡辺酒造醸","わたなべしゅぞうじょう","〒503-0015","岐阜県大垣市林町8-1126","岐阜県"
"35.3635201","136.6205906","武内酒造","たけうちしゅぞう","〒503-0897","岐阜県大垣市伝馬町1","岐阜県"
"35.3553262","136.6104507","三輪酒造","みわしゅぞう","〒503-0923","岐阜県大垣市船町4-48","岐阜県"
"35.1317913","136.5987623","細川酒造","ほそかわしゅぞう","〒511-0122","三重県桑名市多度町古野1474","三重県"
"36.4528546","136.5875357","宮本酒造店","みやもとしゅぞうてん","〒923-1205","石川県能美市宮竹町イ74","石川県"
"34.9552953","136.5785475","神楽酒造","かぐらしゅぞう","〒510-0948","三重県四日市市室山町326","三重県"
"36.4933132","136.5768493","車多酒造","しゃたしゅぞう","〒924-0823","石川県白山市坊丸町60-1","石川県"
"35.433982","136.5745761","大塚酒造","おおつかしゅぞう","〒503-2424","岐阜県揖斐郡池田町池野422","岐阜県"
"35.4881227","136.5739631","池田屋酒造","いけだやしゅぞう","〒501-0619","岐阜県揖斐郡揖斐川町三輪612-1","岐阜県"
"35.4887309","136.5718939","所酒造","ところしゅぞう","〒501-0619","岐阜県揖斐郡揖斐川町三輪537-1","岐阜県"
"34.9705912","136.5699313","丸彦酒造","まるひこしゅぞう","〒512-0934","三重県四日市市川島町1863-2","三重県"
"36.4872722","136.5657144","吉田酒造店","よしだしゅぞうてん","〒924-0843","石川県白山市安吉町41","石川県"
"36.5225175","136.5614305","金谷酒造店","かなやしゅぞうてん","〒924-0862","石川県白山市安田町3-2","石川県"
"35.3086992","136.560269","玉泉堂酒造","ぎょくせんどうしゅぞう","〒503-1314","岐阜県養老郡養老町高田800-3","岐阜県"
"34.4778304","136.5480042","河武醸造","かわぶじょうぞう","〒519-2174","三重県多気郡多気町五桂234","三重県"
"34.4414818","136.5439101","元坂酒造","げんさかしゅぞう","〒519-2422","三重県多気郡大台町柳原346-2","三重県"
"34.7811985","136.5409729","小川本家","おがわほんけ","〒510-0306","三重県津市河芸町一色1425","三重県"
"34.9946274","136.5397498","石川酒造","いしかわしゅぞう","〒512-1211","三重県四日市市桜町129","三重県"
"34.9940163","136.5383471","伊藤酒造","いとうしゅぞう","〒512-1211","三重県四日市市桜町110","三重県"
"34.6483859","136.5318929","今村酒造","いまむらしゅぞう","〒514-0324","三重県津市香良洲町263","三重県"
"34.5664219","136.5244128","新良酒造","にらしゅぞう","〒515-0063","三重県松阪市大黒田町130","三重県"
"34.7602061","136.5226357","寒紅梅酒造","かんこうばいしゅぞう","〒514-0103","三重県津市栗真中山町433","三重県"
"35.0639706","136.519814","早川酒造","はやかわしゅぞう","〒510-1323","三重県三重郡菰野町大字小島468","三重県"
"36.4459782","136.5109569","農口酒造","のぐちしゅぞう","〒923-1107","石川県能美市末寺町イ42","石川県"
"34.5021291","136.5098052","清水酒造場","しみずしゅぞうじょう","〒519-2147","三重県松阪市庄町388","三重県"
"36.067461","136.5053807","中村酒造","なかむらしゅぞう","〒911-0031","福井県勝山市長山町1-4-12","福井県"
"36.0631614","136.5002035","一本義久保本店","いっぽんぎくぼほんてん","〒911-0801","福井県勝山市 沢町1-3-1","福井県"
"36.0579147","136.499051","佐々木酒造","ささきしゅぞう","〒911-0806","福井県勝山市本町4-5-2","福井県"
"35.9827415","136.4907801","真名鶴酒造","まなつるしゅぞう","〒912-0083","福井県大野市明倫町11-3","福井県"
"35.9846523","136.489758","南部酒造場","なんぶしゅぞうじょう","〒912-0081","福井県大野市元町6-10","福井県"
"35.990021","136.4887331","源平酒造","げんぺいしゅぞう","〒912-0026","福井県大野市要町1-33","福井県"
"35.9869409","136.4881859","宇野酒造場","うのしゅぞうじょう","〒912-0025","福井県大野市本町3-4","福井県"
"36.432275","136.4802374","東酒造","ひがししゅぞう","〒923-0033","石川県小松市野田町丁35","石川県"
"34.5915266","136.4768534","中山酒造","なかやましゅぞう","〒515-2343","三重県松阪市小阿坂町2532","三重県"
"34.6739788","136.4712347","油正","あぶしょう","〒514-1135","三重県津市久居本町1583","三重県"
"34.6167349","136.4405597","船木酒造","ふなきしゅぞう","〒515-2351","三重県松阪市嬉野井之上町189","三重県"
"36.3460465","136.4331881","金紋酒造","きんもんしゅぞう","〒923-0304","石川県小松市下粟津町ろ24","石川県"
"36.370159","136.4325324","加越","かえつ","〒923-0964","石川県小松市今江町9-605","石川県"
"34.7465177","136.4293061","松島酒造","まつしましゅぞう","〒514-2316","三重県津市安濃町南神山191","三重県"
"36.3712245","136.4218669","手塚酒造場","てづかしゅぞうじょう","〒923-0965","石川県小松市串町庚7","石川県"
"36.327731","136.3862965","橋本酒造","はしもとしゅぞう","〒922-0331","石川県加賀市動橋町イ184","石川県"
"36.0846533","136.3786114","吉田酒造","よしだしゅぞう","〒910-1325","福井県吉田郡永平寺町北島7-22","福井県"
"36.2485658","136.3731566","松浦酒造","まつうらしゅぞう","〒922-0121","石川県加賀市山中温泉冨士見町オ50","石川県"
"36.3250868","136.3710818","鹿野酒造","かのしゅぞう","〒922-0336","石川県加賀市八日市町イ6","石川県"
"34.6227632","136.3174266","海野酒造","うんのしゅぞう","〒515-3133","三重県津市白山町南家城1071－1","三重県"
"36.0916148","136.2988704","黒龍酒造","こくりゅうしゅぞう","〒910-1133","福井県吉田郡永平寺町松岡春日1-38","福井県"
"36.0910895","136.2909132","田辺酒造","たなべしゅぞう","〒910-1134","福井県吉田郡永平寺町松岡芝原2-24","福井県"
"36.1711069","136.2899378","久保田酒造","くぼたしゅぞう","〒910-0207","福井県坂井市丸岡町山久保27-45","福井県"
"35.2344","136.2851077","多賀","たが","〒522-0355","滋賀県犬上郡多賀町中川原102","滋賀県"
"35.4111677","136.2845164","滋賀第一酒造協業組合","しがだいいちしゅぞうきょうぎょうくみあい","〒526-0001","滋賀県長浜市国友町270","滋賀県"
"36.015361","136.2769441","安本酒造","やすもとしゅぞう","〒910-2167","福井県福井市安原町7-4","福井県"
"36.015797","136.2738082","毛利酒造","もうりしゅぞう","〒910-2165","福井県福井市東郷二ヶ町36-29","福井県"
"35.0843788","136.2634163","喜多酒造","きたしゅぞう","〒527-0054","滋賀県東近江市池田町1129","滋賀県"
"35.2352185","136.257947","音瀬酒造場","おとせしゅぞうじょう","〒522-0201","滋賀県彦根市高宮町1079","滋賀県"
"36.097726","136.2572327","舟木酒造","ふなきしゅぞう","〒910-0802","福井県福井市大和田町46-3-1","福井県"
"35.9061499","136.2501012","寿喜娘酒造","すきむすめしゅぞう","〒915-0234","福井県越前市大滝町25-23","福井県"
"36.0341436","136.2457633","美川酒造場","みかわしゅぞうじょう","〒918-8131","福井県福井市小稲津町36-15","福井県"
"35.0513982","136.2373354","矢尾酒造","やおしゅぞう","〒529-1662","滋賀県蒲生郡日野町中在寺512","滋賀県"
"35.1859668","136.2320432","岡村本家","おかむらほんけ","〒529-1165","滋賀県犬上郡豊郷町吉田100","滋賀県"
"34.8870493","136.2311637","瀬古酒造","せこしゅぞう","〒520-3421","滋賀県甲賀市甲賀町上野1807","滋賀県"
"34.9483002","136.2303978","安井酒造場","やすいしゅぞうじょう","〒528-0234","滋賀県甲賀市土山町徳原225","滋賀県"
"36.0572793","136.2283352","常山酒造","とこやましゅぞう","〒910-0854","福井県福井市御幸1-19-10","福井県"
"35.1713294","136.2259748","愛知酒造","えちしゅぞう","〒529-1227","滋賀県愛知郡愛荘町野々目207","滋賀県"
"35.5049334","136.2252165","冨田酒造","とみたしゅぞう","〒529-0425","滋賀県長浜市木之本町木之本1107","滋賀県"
"35.5073663","136.2244193","山路酒造","やまじしゅぞう","〒529-0425","滋賀県長浜市木之本町木之本990","滋賀県"
"34.8898237","136.2187537","望月酒造","もちづきしゅぞう","〒520-3425","滋賀県甲賀市甲賀町毛枚1158","滋賀県"
"36.041509","136.2152182","増永酒造","ますながしゅぞう","〒918-8012","福井県福井市","福井県"
"36.0659944","136.2093699","菊桂酒造","きくかつらしゅぞう","〒910-0024","福井県福井市照手2-2-19","福井県"
"34.9034023","136.2084792","田中酒造","たなかしゅぞう","〒520-3433","滋賀県甲賀市甲賀町大原市場474","滋賀県"
"35.9617558","136.2066017","金鱗酒造","きんりんしゅぞう","〒916-0032","福井県鯖江市舟枝町5-14","福井県"
"34.8159905","136.2056291","橋本酒造場","はしもとしゅぞうじょう","〒519-1414","三重県伊賀市御代1116","三重県"
"36.0803982","136.2056177","越の磯","こしのいそ","〒910-0016","福井県福井市大宮5-8-25","福井県"
"35.1812767","136.2052597","藤居本家","ふじいほんけ","〒529-1303","滋賀県愛知郡愛荘町長野793","滋賀県"
"35.1115142","136.204979","近江酒造","おうみしゅぞう","〒527-0022","滋賀県東近江市八日市上之町9-16","滋賀県"
"36.0610284","136.2028596","田嶋酒造","たじましゅぞう","〒918-8051","福井県福井市桃園1-3-10","福井県"
"35.7703998","136.200868","畠山酒造","はたけやましゅぞう","〒919-0131","福井県南条郡南越前町今庄109-14","福井県"
"35.7709053","136.1995598","白駒酒造","はくこましゅぞう","〒919-0131","福井県南条郡南越前町今庄82-24","福井県"
"35.7720551","136.1975572","北善商店","きたぜんしょうてん","〒919-0131","福井県南条郡南越前町今庄81-3","福井県"
"35.7732549","136.1963989","堀口酒造","ほりぐちしゅぞう","〒919-0131","福井県南条郡南越前町今庄76-1-2","福井県"
"35.1558011","136.196016","中澤酒造","なかざわしゅぞう","〒529-1422","滋賀県東近江市五個荘小幡町570","滋賀県"
"34.4933394","136.194679","岡野酒造","おかのしゅぞう","〒633-1301","奈良県宇陀郡御杖村神末1274","奈良県"
"36.134725","136.1914636","坪三酒造","つぼさんしゅぞう","〒919-0479","福井県坂井市春江町高江24-38","福井県"
"34.7068831","136.1864301","福井酒造場","ふくいしゅぞうじょう","〒518-0105","三重県伊賀市比自岐595","三重県"
"35.1804394","136.1841816","増本酒造場","ますもとしゅぞうじょう","〒521-1213","滋賀県東近江市神郷町1019","滋賀県"
"34.6686262","136.180077","若戎酒造","わかえびすしゅぞう","〒518-0226","三重県伊賀市阿保1317","三重県"
"35.1076668","136.1784783","畑酒造","はたしゅぞう","〒527-0091","滋賀県東近江市小脇町1410","滋賀県"
"35.9471794","136.1779279","井波酒造","いなみしゅぞう","〒916-0057","福井県鯖江市有定町1-1-22","福井県"
"34.9678723","136.1774525","笑四季酒造","えみしきしゅぞう","〒528-0031","滋賀県甲賀市水口町本町1-7-8","滋賀県"
"34.9688083","136.1739416","西田酒造","にしだしゅぞう","〒528-0015","滋賀県甲賀市水口町松栄1-29","滋賀県"
"36.1269222","136.1708856","伊藤酒造","いとうしゅぞう","〒910-3113","福井県福井市江上町44-65","福井県"
"35.9231379","136.1701237","タナベ","たなべ","〒915-0801","福井県越前市家久町89-22","福井県"
"35.9864263","136.1701047","加藤吉平商店","かとうきちべいしょうてん","〒916-0001","福井県鯖江市吉江町1-11","福井県"
"34.7963827","136.1653712","森喜酒造場","もりきしゅぞうじょう","〒518-0002","三重県伊賀市千歳41-2","三重県"
"36.1326486","136.1604312","力泉酒造","りきせんしゅぞう","〒910-3111","福井県福井市島山梨子20-10","福井県"
"34.9745465","136.1593589","美冨久酒造","みふくしゅぞう","〒528-0025","滋賀県甲賀市水口町西林口3－2","滋賀県"
"35.9297256","136.1561692","片山酒造","かたやましゅぞう","〒915-0891","福井県越前市余田町51-18","福井県"
"34.992811","136.1515896","藤本酒造","ふじもとしゅぞう","〒528-0064","滋賀県甲賀市水口町伴中山696","滋賀県"
"35.9438791","136.1490113","豊酒造","ゆたかしゅぞう","〒916-0073","福井県鯖江市下野田町38-70","福井県"
"34.949416","136.1488996","滋賀酒造","しがしゅぞう","〒528-0046","滋賀県甲賀市水口町三大寺39","滋賀県"
"36.1398585","136.1441658","吉田金右衛門商店","よしだきんえもんしょうてん","〒910-3121","福井県福井市佐野町21-81","福井県"
"36.0047541","136.1430675","西岡河村酒造","にしおかかわむらしゅぞう","〒910-3613","福井県福井市甑谷町1-1","福井県"
"34.760713","136.1379462","平和酒造","へいわしゅぞう","〒518-0837","三重県伊賀市緑ケ丘西町2612","三重県"
"36.0598996","136.132581","池田酒造","いけだしゅぞう","〒918-8076","福井県福井市本堂町70-1","福井県"
"35.976416","136.127987","朝日酒造","あさひしゅぞう","〒916-0141","福井県丹生郡越前町西田中11-53","福井県"
"34.7646067","136.1267523","森本仙右衛門商店","もりもとせんうえもんしょうてん","〒518-0867","三重県伊賀市上野福居町3342","三重県"
"34.7698199","136.123844","中井酒造場","なかいしゅぞうじょう","〒518-0878","三重県伊賀市上野西大手町3721","三重県"
"35.9818346","136.1236095","丹生酒造","にゅうしゅぞう","〒916-0122","福井県丹生郡越前町天王18-3","福井県"
"34.7287746","136.1226816","大田酒造","おおたしゅぞう","〒518-0121","三重県伊賀市上之庄1365","三重県"
"35.0832807","136.1189047","松瀬酒造","まつせしゅぞう","〒520-2501","滋賀県蒲生郡竜王町弓削475","滋賀県"
"34.6171545","136.1043218","澤佐酒造","さわさしゅぞう","〒518-0441","三重県名張市夏見944","三重県"
"35.1383566","136.0924323","西勝酒造","にしかつしゅぞう","〒523-0862","滋賀県近江八幡市仲屋町中21","滋賀県"
"34.997515","136.0810682","北島酒造","きたじましゅぞう","〒520-3231","滋賀県湖南市針756","滋賀県"
"34.5963755","136.0771304","瀧自慢酒造","たきじまんしゅぞう","〒518-0464","三重県名張市赤目町柏原141","三重県"
"35.4645175","136.074756","吉田酒造","よしだしゅぞう","〒520-1811","滋賀県高島市マキノ町海津2292","滋賀県"
"35.6560492","136.0666419","敦賀酒造","つるがしゅぞう","〒914-0062","福井県敦賀市相生町21-10","福井県"
"34.6028575","136.0661256","福持酒造場","ふくもちしゅぞうじょう","〒518-0737","三重県名張市安部田3905","三重県"
"35.0095163","136.0584289","竹内酒造","たけうちしゅぞう","〒520-3101","滋賀県湖南市石部中央1-6-5","滋賀県"
"35.3359208","136.0556812","上原酒造","うえはらしゅぞう","〒520-1512","滋賀県高島市新旭町太田1524","滋賀県"
"35.3581347","136.0437733","川島酒造","かわしましゅぞう","〒520-1501","滋賀県高島市新旭町旭83","滋賀県"
"35.3460497","136.0350994","七洋酒造","しちようしゅぞう","〒520-1522","滋賀県高島市新旭町新庄1154","滋賀県"
"35.4030989","136.0317758","池本酒造","いけもとしゅぞう","〒520-1621","滋賀県高島市今津町今津221","滋賀県"
"35.0662956","136.0284307","暁酒造","あかつきしゅぞう","〒520-2331","滋賀県野洲市小篠原1389","滋賀県"
"35.0723671","136.0271975","徳田酒造","とくだしゅぞう","〒520-2353","滋賀県野洲市久野部155-1","滋賀県"
"34.9969385","136.0253357","服部岩彦酒造場","はっとりいわひこしゅぞうじょう","〒520-3005","滋賀県栗東市","滋賀県"
"35.0611375","136.0139435","宇野勝酒造場","うのまさるしゅぞうじょう","〒520-2342","滋賀県野洲市野洲236","滋賀県"
"35.0618291","136.0132103","宇野酒造","うのしゅぞう","〒520-2342","滋賀県野洲市野洲429","滋賀県"
"35.2965013","136.0128407","福井弥平商店","ふくいやへいしょうてん","〒520-1121","滋賀県高島市勝野1387-1","滋賀県"
"35.0555821","135.9933849","宇野本家","うのほんけ","〒524-0022","滋賀県守山市守山1丁目10-2","滋賀県"
"33.7314373","135.9877999","尾崎酒造","おざきしゅぞう","〒647-0002","和歌山県新宮市船町3-2-3","和歌山県"
"34.5913236","135.9777044","多山酒造","たやましゅぞう","〒632-0207","奈良県宇陀市室生区無山378","奈良県"
"35.0569315","135.9774809","金盛酒造","きんせいしゅぞう","〒524-0045","滋賀県守山市金森町769","滋賀県"
"34.5812841","135.9680005","倉本酒造","くらもとしゅぞう","〒632-0231","奈良県奈良市都祁吐山町2501","奈良県"
"35.0151143","135.9585027","太田酒造","おおたしゅぞう","〒525-0034","滋賀県草津市草津3-10-37","滋賀県"
"35.0093291","135.9548337","古川酒造","ふるかわしゅぞう","〒525-0053","滋賀県草津市矢倉1-3-33","滋賀県"
"34.7346172","135.952354","錦生醸造","きんせいじょうぞう","〒630-1231","奈良県奈良市柳生下町246","奈良県"
"34.5988184","135.9462096","西田酒造","にしだしゅぞう","〒632-0246","奈良県奈良市都祁友田町188","奈良県"
"35.603063","135.9397457","若狭菊酒造","わかさぎくしゅぞう","〒919-11","福井県三方郡美浜町郷市21-4","福井県"
"34.4746126","135.933985","芳村酒造","よしむらしゅぞう","〒633-2163","奈良県宇陀市大宇陀万六1797","奈良県"
"34.4761402","135.9338489","久保本家酒造","くぼほんけしゅぞう","〒633-2162","奈良県宇陀市大宇陀出新1834","奈良県"
"35.1099522","135.9181482","浪乃音酒造","なみのおとしゅぞう","〒520-0242","滋賀県大津市本堅田1-7-16","滋賀県"
"34.9569393","135.907547","月の里酒造","つきのさとしゅぞう","〒520-0861","滋賀県大津市石山寺3-29-9","滋賀県"
"35.6160837","135.9048844","三宅彦右衛門酒造","みやけひこうえもんしゅぞう","〒919-1124","福井県三方郡美浜町早瀬21-7","福井県"
"35.5531407","135.9041736","鳥浜酒造","とりはましゅぞう","〒919-1331","福井県三方上中郡若狭町鳥浜59-30","福井県"
"34.6145459","135.8641149","増田酒造","ますだしゅぞう","〒632-0003","奈良県天理市岩屋町42","奈良県"
"35.0083191","135.864018","平井商店","ひらいしょうてん","〒520-0043","滋賀県大津市中央1-2-33","滋賀県"
"34.3959346","135.8593013","北岡本店","きたおかほんてん","〒639-3111","奈良県吉野郡吉野町上市61","奈良県"
"34.3956957","135.8561737","北村酒造","きたむらしゅぞう","〒639-3111","奈良県吉野郡吉野町上市172-1","奈良県"
"34.4954254","135.8515237","西内酒造場","にしうちしゅぞうじょう","〒633-0042","奈良県桜井市下3","奈良県"
"34.5254384","135.8471376","今西酒造","いまにししゅぞう","〒633-0001","奈良県桜井市三輪510","奈良県"
"34.6765718","135.8382141","八木酒造","やぎしゅぞう","〒630-8301","奈良県奈良市高畑町915","奈良県"
"34.6007965","135.8376811","稲田酒造","いなだしゅぞう","〒632-0015","奈良県天理市三島町379","奈良県"
"34.5955193","135.8345371","宮崎酒造","みやざきしゅぞう","〒632-0034","奈良県天理市丹波市町320","奈良県"
"34.6769633","135.8340367","今西清兵衛商店","いまにしせいべえしょうてん","〒630-8381","奈良県奈良市福智院町24-1","奈良県"
"34.389929","135.8321537","美吉野醸造","みよしのじょうぞう","〒639-3116","奈良県吉野郡吉野町六田1286","奈良県"
"34.5728746","135.8293994","飯田本店","いいだほんてん","〒632-0062","奈良県天理市長柄町656","奈良県"
"34.6459722","135.8208187","奈良豊澤酒造","ならとよさわしゅぞう","〒630-8444","奈良県奈良市今市町405","奈良県"
"34.7856233","135.8118995","相綴酒造","そうてつしゅぞう","〒619-0201","京都府木津川市山城町綺田出垣外33-1","京都府"
"34.7847455","135.8110551","京都酒造","きょうとしゅぞう","〒619-0201","京都府木津川市山城町綺田出垣外93","京都府"
"34.4705113","135.8075256","脇本酒造","わきもとしゅぞう","〒634-0145","奈良県高市郡明日香村野口5番地1","奈良県"
"34.8283051","135.7982863","城陽酒造","じょうようしゅぞう","〒610-0116","京都府城陽市奈島久保野34-1","京都府"
"34.490614","135.7931846","喜多酒造","きたしゅぞう","〒634-0062","奈良県橿原市御坊町8","奈良県"
"34.6290344","135.7917659","中谷酒造","なかたにしゅぞう","〒639-1117","奈良県大和郡山市番条町561","奈良県"
"34.3702412","135.7891414","藤村酒造","ふじむらしゅぞう","〒638-0041","奈良県吉野郡下市町下市154","奈良県"
"34.506798","135.7885875","河合酒造","かわいしゅぞう","〒634-0812","奈良県橿原市今井町1-7-8","奈良県"
"34.381854","135.7868134","岡本本家","おかもとほんけ","〒638-0821","奈良県吉野郡大淀町下渕230","奈良県"
"35.0254795","135.7739509","松井酒造","まついしゅぞう","〒606-8305","京都府京都市左京区吉田河原町1-6","京都府"
"34.9263918","135.7691302","向島酒造","むかいじましゅぞう","〒612-8111","京都府京都市伏見区","京都府"
"34.9276471","135.7643705","山本勘蔵商店","やまもとかんぞうしょうてん","〒612-8083","京都府京都市伏見区京町1丁目285","京都府"
"34.9406652","135.7627958","キンシ正宗","きんしまさむね","〒612－8081","京都府京都市伏見区新町11丁目337-1","京都府"
"34.9351213","135.7624568","藤岡酒造","ふじおかしゅぞう","〒612-8051","京都府京都市伏見区今町672-1","京都府"
"34.9300024","135.7613597","月桂冠","げっけいかん","〒612-8660","京都府京都市伏見区南浜町247","京都府"
"34.9316022","135.761268","山本本家","やまもとほんけ","〒612-8047","京都府京都市伏見区上油掛町36-1","京都府"
"34.9351073","135.7612208","平和酒造","へいわしゅぞう","〒612-8063","京都府京都市伏見区東組町698","京都府"
"34.9306634","135.7604625","東山酒造","ひがしやましゅぞう","〒612-8046","京都府京都市伏見区塩屋町223","京都府"
"34.9395985","135.7604071","共同酒造","きょうどうしゅぞう","〒612-8073","京都府京都市伏見区下板橋町630-3","京都府"
"35.0032621","135.7603997","宝酒造","たからしゅぞう","〒600-8688","京都府京都市下京区長刀鉾町20四条烏丸ＦＴスクエア（四条通烏丸東入）","京都府"
"35.4872137","135.7603428","わかさ冨士","わかさふじ","〒917-0025","福井県小浜市木崎13-7","福井県"
"34.9512863","135.759477","名誉冠酒造","めいよかんしゅぞう","〒612-8422","京都府京都市伏見区竹田七瀬川町154","京都府"
"34.936946","135.759421","都鶴酒造","みやこつるしゅぞう","〒612-8065","京都府京都市伏見区御駕籠町151","京都府"
"34.9445592","135.7590935","豊澤本店","とよさわほんてん","〒612-8304","京都府京都市伏見区榎町769","京都府"
"34.9373404","135.7586905","鶴正酒造","つるまさしゅぞう","〒612-8066","京都府京都市伏見区東堺町474","京都府"
"34.937782","135.75841","松山酒造","まつやましゅぞう","〒612-8066","京都府京都市伏見区東堺町472","京都府"
"34.9379069","135.7580517","玉乃光酒造","たまのひかりしゅぞう","〒612-8066","京都府京都市伏見区東堺町545-2","京都府"
"34.9307494","135.7577517","京姫酒造","きょうひめしゅぞう","〒612-8367","京都府京都市伏見区山崎町343","京都府"
"34.940665","135.7568324","招徳酒造","しょうとくしゅぞう","〒612-8338","京都府京都市伏見区舞台町16","京都府"
"34.932452","135.7566851","北川本家","きたがわほんけ","〒612-8369","京都府京都市伏見区村上町370-6","京都府"
"35.0212466","135.7555968","京都酒造組合","きょうとしゅぞうくみあい","","","京都府"
"34.9333296","135.7542853","松本酒造","まつもとしゅぞう","〒612-8205","京都府京都市伏見区横大路三栖大黒町7","京都府"
"34.9325852","135.7527077","齊藤酒造","さいとうしゅぞう","〒612-8207","京都府京都市伏見区横大路三栖山城屋敷町7","京都府"
"34.9367431","135.7522216","花清水","はなしみず","〒612-8377","京都府京都市伏見区島津町26","京都府"
"34.5664537","135.7489401","長龍酒造","ちょうりょうしゅぞう","〒635-0818","奈良県北葛城郡広陵町南4","奈良県"
"34.9300605","135.7487108","黄桜酒造","きざくらしゅぞう","〒612-8242","京都府京都市伏見区横大路下三栖梶原町53","京都府"
"34.9353821","135.7484025","三宝酒造","さんぼうしゅぞう","〒612-8385","京都府京都市伏見区下鳥羽小柳町40-1","京都府"
"35.0186438","135.7476726","佐々木酒造","ささきしゅぞう","〒602-8152","京都府京都市上京区北伊勢屋町727","京都府"
"35.4938238","135.7442247","若狭井酒造","わかさいしゅぞう","〒917-0063","福井県小浜市小浜酒井101","福井県"
"34.9390317","135.7438474","増田徳兵衛商店","ますだとくべえしょうてん","〒612-8471","京都府京都市伏見区下鳥羽長田町24","京都府"
"34.4618778","135.7368711","油長酒造","ゆうちょうしゅぞう","〒639-2200","奈良県御所市中本町1160番地","奈良県"
"34.4937572","135.7301597","梅乃宿酒造","うめのやどしゅぞう","〒639-2102","奈良県葛城市東室27","奈良県"
"34.7138884","135.720743","中本酒造店","なかもとしゅぞうてん","〒630-0131","奈良県生駒市上町1067","奈良県"
"34.4640242","135.7179728","千代酒造","ちよしゅぞう","〒639-2312","奈良県御所市櫛羅621","奈良県"
"34.5301718","135.7160989","澤田酒造","さわだしゅぞう","〒639-0226","奈良県香芝市五位堂6-167","奈良県"
"34.4378107","135.7157571","葛城酒造","かつらぎしゅぞう","〒639-2321","奈良県御所市名柄347番地","奈良県"
"34.5233698","135.7117078","大倉本家","おおくらほんけ","〒639-0227","奈良県香芝市鎌田692","奈良県"
"34.6650178","135.7100721","菊司醸造","きくつかさじょうぞう","〒630-0223","奈良県生駒市小瀬町555","奈良県"
"34.6753724","135.7092943","上田酒造","うえだしゅぞう","〒630-0222","奈良県生駒市壱分町866-1","奈良県"
"34.3557024","135.7005539","五條酒造","ごじょうしゅぞう","〒637-0004","奈良県五條市今井1-1-31","奈良県"
"34.3502834","135.694785","山本本家","やまもとほんけ","〒637-0042","奈良県五條市五條1-2-19","奈良県"
"34.5234584","135.6926127","中川酒造","なかがわしゅぞう","〒639-0272","奈良県葛城市新在家152","奈良県"
"34.7776869","135.6891747","大門酒造","だいもんしゅぞう","〒576-0031","大阪府交野市森南3-12-1","大阪府"
"34.788816","135.6843168","山野酒造","やまのしゅぞう","〒576-0052","大阪府交野市私部7-11-2","大阪府"
"35.156927","135.6319331","羽田酒造","はねだしゅぞう","〒601-0251","京都府京都市右京区京北周山町下台20","京都府"
"34.5684638","135.5964934","藤本雅一酒造醸","ふじもとただひとしゅぞうじょう","〒583-0024","大阪府藤井寺市藤井寺2-1-10","大阪府"
"34.8293129","135.5956184","清鶴酒造","きよつるしゅぞう","〒569-0814","大阪府高槻市富田町6-5-3","大阪府"
"34.8329098","135.592302","寿酒造","ことぶきしゅぞう","〒569-0814","大阪府高槻市富田町3-26-12","大阪府"
"35.0091391","135.5836691","丹山酒造","たんざんしゅぞう","〒621-0812","京都府亀岡市横町7","京都府"
"35.0113973","135.5776281","関酒造","せきしゅぞう","〒621-0852","京都府亀岡市紺屋町26","京都府"
"34.4492576","135.5692338","西條","さいじょう","〒586-0014","大阪府河内長野市長野町12-18","大阪府"
"34.7967181","135.5652026","高島酒造","たかしましゅぞう","〒567-0868","大阪府茨木市沢良宜西2-8-3","大阪府"
"35.0174717","135.5354709","大石酒造","おおいししゅぞう","〒621-0033","京都府亀岡市ひえ田野町佐伯垣内亦13","京都府"
"34.3038007","135.5328777","初桜酒造","はつざくらしゅぞう","〒649-7112","和歌山県伊都郡かつらぎ町中飯降85","和歌山県"
"34.8424624","135.5261882","中尾酒造","なかおしゅぞう","〒567-0051","大阪府茨木市宿久庄5-32-12","大阪府"
"34.9768837","135.4666694","秋鹿酒造","あきしかしゅぞう","〒563-0113","大阪府豊能郡能勢町倉垣1007","大阪府"
"34.43235","135.4381094","井坂酒造場","いさかしゅぞうじょう","〒596-0103","大阪府岸和田市稲葉町117","大阪府"
"34.8260241","135.4262023","呉春","ごしゅん","〒563-0051","大阪府池田市綾羽1-2-2","大阪府"
"34.8262129","135.4248163","吉田酒造","よしだしゅぞう","〒563-0058","大阪府池田市栄本町7-10","大阪府"
"35.1843985","135.4118468","三盛酒造","さんせいしゅぞう","〒622-0203","京都府船井郡京丹波町富田坪井55","京都府"
"35.2597759","135.4017816","長老","ちょうろう","〒629-1121","京都府船井郡京丹波町本庄ノヲテ5","京都府"
"33.7480811","135.3891336","鈴木宗右衛門酒造","すずきそうえもんしゅぞう","〒646-0005","和歌山県田辺市秋津町1305","和歌山県"
"34.4670418","135.375348","元朝","がんちょう","〒596-0052","大阪府岸和田市並松町22-30","大阪府"
"34.4180615","135.3724327","寺田酒造場","てらだしゅぞうじょう","〒597-0042","大阪府貝塚市名越808-13","大阪府"
"34.3809152","135.3284263","北庄司酒造店","きたしょうじしゅぞうてん","〒598-0021","大阪府泉佐野市日根野3173","大阪府"
"34.2307946","135.3241195","初光酒造","はつひかりしゅぞう","〒640-0401","和歌山県紀の川市貴志川町丸栖87","和歌山県"
"34.1660443","135.3046671","中尾酒造店","なかおしゅぞうてん","〒640-1131","和歌山県海草郡紀美野町動木28","和歌山県"
"34.260897","135.3019272","吉村秀雄商店","よしむらひでおしょうてん","〒649-6244","和歌山県岩出市畑毛72番地","和歌山県"
"34.1604531","135.28983","平和酒造","へいわしゅぞう","〒640-1172","和歌山県海南市溝ノ口119","和歌山県"
"34.1636248","135.2881413","通宝酒造","つうほうしゅぞう","〒640-1171","和歌山県海南市野上中449","和歌山県"
"35.6747547","135.2863968","向井酒造","むかいしゅぞう","〒626-0423","京都府与謝郡伊根町平田67","京都府"
"35.5152005","135.2832316","ハクレイ酒造","はくれいしゅぞう","〒626-0071","京都府宮津市字由良949","京都府"
"35.469816","135.2828826","池田酒造","いけだしゅぞう","〒624-0966","京都府舞鶴市中山32","京都府"
"34.0783532","135.279968","高垣酒造","たかがきしゅぞう","〒643-0142","和歌山県有田郡有田川町小川1465","和歌山県"
"35.2934419","135.2680421","若宮酒造","わかみやしゅぞう","〒623-0031","京都府綾部市味方町薬師前4","京都府"
"34.3639016","135.2416333","浪花酒造","なにわしゅぞう","〒599-0201","大阪府阪南市尾崎町3-13-6","大阪府"
"34.065515","135.217396","平松酒造本家","ひらまつしゅぞうほんけ","〒643-0021","和歌山県有田郡有田川町下津野438","和歌山県"
"35.24292","135.2153288","東和酒造","とうわしゅぞう","〒620-0825","京都府福知山市上野115","京都府"
"34.1472452","135.2125612","島本酒造場","しまもとしゅぞうじょう","〒642-0034","和歌山県海南市藤白54","和歌山県"
"34.1629484","135.2062533","名手酒造店","なてしゅぞうてん","〒642-0011","和歌山県海南市黒江846","和歌山県"
"34.1468727","135.2054064","中野ＢＣ","なかのびぃしぃ","〒642-0034","和歌山県海南市藤白758-45","和歌山県"
"35.5796688","135.1995128","白糸酒造","しらいとしゅぞう","〒629-2244","京都府宮津市江尻382","京都府"
"34.2268845","135.191501","田端酒造","たばたしゅぞう","〒640-8328","和歌山県和歌山市木広町5-2-15","和歌山県"
"34.2329004","135.18839","雑賀豊太郎商店","さいかとよたろうしょうてん","〒640-8342","和歌山県和歌山市友田町4-76","和歌山県"
"34.2285453","135.1863153","祝砲酒造","しゅくほうしゅぞう","〒640-8329","和歌山県和歌山市田中町2-20","和歌山県"
"35.7594583","135.1769244","永雄酒造","ながおしゅぞう","〒627-0243","京都府京丹後市丹後町中浜643","京都府"
"34.2408769","135.1739105","天長島村酒造","てんちょうしまむらしゅぞう","〒640-8033","和歌山県和歌山市本町7-4","和歌山県"
"34.2341691","135.1674752","世界一統","せかいいっとう","〒640-8221","和歌山県和歌山市湊紺屋町1-10","和歌山県"
"33.8869874","135.1581709","岸野酒造本家","きしのしゅぞうほんけ","〒644-0001","和歌山県御坊市御坊60","和歌山県"
"35.3920357","135.150818","河守醸造","こうもりじょうぞう","〒620-0302","京都府福知山市大江町関","京都府"
"35.6568951","135.1136547","吉岡酒造場","よしおかしゅぞうじょう","〒627-0111","京都府京丹後市弥栄町溝谷1139","京都府"
"35.5905508","135.1027124","白杉酒造","しらすぎしゅぞう","〒629-2503","京都府京丹後市大宮町周枳954","京都府"
"35.6604811","135.0921528","竹野酒造","たけのしゅぞう","〒627-0111","京都府京丹後市弥栄町溝谷3622-1","京都府"
"35.4764672","135.0866538","与謝娘酒造","よさむすめしゅぞう","〒629-2423","京都府与謝郡与謝野町字与謝2-2","京都府"
"35.5047256","135.0856066","細井酒造","ほそいしゅぞう","〒629-2401","京都府与謝郡与謝野町加悦奥130","京都府"
"35.4739396","135.0854234","谷口酒造","たにぐちしゅぞう","〒629-2423","京都府与謝郡与謝野町与謝70-2","京都府"
"35.5656798","135.085068","大同酒造","だいどうしゅぞう","〒629-2531","京都府京丹後市大宮町奥大野 226","京都府"
"35.3339424","135.0836721","岡野酒造場","おかのしゅぞうじょう","〒620-0917","京都府福知山市野花1","京都府"
"35.6218299","135.0597447","峰山酒造","みねやましゅぞう","〒627-0034","京都府京丹後市峰山町泉15","京都府"
"35.6075779","134.9188381","木下酒造","きのしたしゅぞう","〒629-3442","京都府京丹後市久美浜町甲山1512","京都府"
"35.6051999","134.9017458","熊野酒造","くまのしゅぞう","〒629-3401","京都府京丹後市久美浜町45-1","京都府"
"33.9069974","134.6175891","津乃峰酒造","つのみねしゅぞう","〒774-0046","徳島県阿南市長生町諏訪ノ端11","徳島県"
"34.1836386","134.6097773","鳴門酒造","なるとしゅぞう","〒772-0011","徳島県鳴門市撫養町大桑島字濘岩11","徳島県"
"34.1800945","134.6008897","花乃春酒造","はなのはるしゅぞう","〒772-0002","徳島県鳴門市撫養町斉田浜端西105-3","徳島県"
"34.1725397","134.5927049","三拍子酒造","さんびょうししゅぞう","〒772-0003","徳島県鳴門市撫養町南浜字蛭子前西99","徳島県"
"33.8728015","134.5828459","近清酒造","ちかきよしゅぞう","〒779-1403","徳島県阿南市山口町森国103-1","徳島県"
"34.1175118","134.573263","吉田酒造","よしだしゅぞう","〒771-0131","徳島県徳島市川内町大松424-1","徳島県"
"34.0719284","134.5632402","勢玉酒造","せいぎょくしゅぞう","〒770-0868","徳島県徳島市福島1-4-9","徳島県"
"34.1586687","134.5375323","本家松浦酒造場","ほんけまつうらしゅぞうじょう","〒779-0303","徳島県鳴門市大麻町池谷字柳ノ本19","徳島県"
"34.0785683","134.5239575","斎藤酒造場","さいとうしゅぞうじょう","〒770-0027","徳島県徳島市佐古七番町7-1","徳島県"
"34.0739572","134.5034373","吉本醸造","よしもとじょうぞう","〒770-0046","徳島県徳島市鮎喰町1-125","徳島県"
"33.8584273","134.4985","那賀酒造","なかしゅぞう","〒771-5201","徳島県那賀郡那賀町和食字町35","徳島県"
"33.943206","134.4889469","定作酒類醸造場","じょうつくりしゅるいじょうぞうじょう","〒771-4307","徳島県勝浦郡勝浦町三渓定岡102-3","徳島県"
"34.1391165","134.4838909","木内本店","きのうちほんてん","〒771-1231","徳島県板野郡藍住町富吉字須崎95-3","徳島県"
"34.0684102","134.477298","近藤松太郎商店","こんどうまつたろうしょうてん","〒779-3124","徳島県徳島市国府町中297-1","徳島県"
"35.3455886","134.3954724","太田酒造場","おおたしゅぞうじょう","〒680-0701","鳥取県八頭郡若桜町若桜1223-2","鳥取県"
"33.9731376","134.3667753","名西酒造","みょうざいしゅぞう","〒771-3310","徳島県名西郡神山町神領字西上角212-2","徳島県"
"34.0988175","134.3316528","日新酒類 太閤酒造場","にっしんしゅるい たいこうしゅぞうじょう","〒771-1505","徳島県阿波市土成町郡176","徳島県"
"35.5853139","134.3260424","高田酒造場","たかだしゅぞうじょう","〒681-0003","鳥取県岩美郡岩美町浦富1694","鳥取県"
"35.1213858","134.3254253","田中酒造場","たなかしゅぞうじょう","〒707-0412","岡山県美作市古町1655","岡山県"
"34.4719968","134.3192739","森國酒造","もりくにしゅぞう","〒761-4426","香川県小豆郡小豆島町馬木甲1010-1","香川県"
"34.2920753","134.2491876","木村中田酒造","きむらなかたしゅぞう","〒769-2401","香川県さぬき市津田町津田1049-2","香川県"
"35.4923225","134.242691","中川酒造","なかがわしゅぞう","〒680-0061","鳥取県鳥取市立川町2-305","鳥取県"
"35.2706194","134.2283341","諏訪酒造","すわしゅぞう","〒689-1402","鳥取県八頭郡智頭町智頭451","鳥取県"
"35.5154918","134.2155401","君司酒造","きみつかさしゅぞう","〒680-0902","鳥取県鳥取市秋里153-2","鳥取県"
"34.7461066","134.1893935","玉泉酒造","たまいずみしゅぞう","〒705-0022","岡山県備前市東片上312","岡山県"
"34.807065","134.1727851","金剛酒造","こんごうしゅぞう","〒709-0412","岡山県和気郡和気町藤野180","岡山県"
"34.6182753","134.1622959","服部本家酒造場","はっとりほんけしゅぞうじょう","〒701-4302","岡山県瀬戸内市牛窓町牛窓3849","岡山県"
"34.6202362","134.1474108","高祖酒造","こうそしゅぞう","〒701-4302","岡山県瀬戸内市牛窓町牛窓4943-1","岡山県"
"34.9643759","134.1341055","東郷酒造","とうごうしゅぞう","〒707-0045","岡山県美作市巨勢1686","岡山県"
"34.937093","134.1231823","山本酒造","やまもとしゅぞう","〒701-2604","岡山県美作市福本577","岡山県"
"34.9352794","134.1229435","遠藤酒造場","えんどうしゅぞうじょう","〒701-2604","岡山県美作市福本610","岡山県"
"34.9223306","134.0964804","小宮山酒造","こみやましゅぞう","〒701-2503","岡山県赤磐市周匝1524-1","岡山県"
"35.0903895","134.0768489","多胡本家酒造場","たごほんけしゅぞうじょう","〒708-1111","岡山県津山市楢69","岡山県"
"34.033888","134.0630264","阿川酒造","あがわしゅぞう","〒779-4101","徳島県美馬郡つるぎ町貞光字町11","徳島県"
"34.6388636","134.0582184","小林本店","こばやしほんてん","〒704-8131","岡山県岡山市東区長沼833-1","岡山県"
"34.0490002","134.0547634","明星酒造","みょうじょうしゅぞう","〒771-2106","徳島県美馬市美馬町字喜来市71-1","徳島県"
"34.0478364","134.0546134","司菊酒造","つかさぎくしゅぞう","〒771-2106","徳島県美馬市美馬町字妙見93","徳島県"
"34.3288531","134.0464282","池田酒造","いけだしゅぞう","〒760-0073","香川県高松市栗林町1-9-19","香川県"
"34.7481022","134.0163487","赤磐酒造","あかいわしゅぞう","〒709-0821","岡山県赤磐市河本1113","岡山県"
"34.8091821","134.0141887","利守酒造","としもりしゅぞう","〒701-2215","岡山県赤磐市西軽部762-1","岡山県"
"33.4391521","134.0127731","浜川商店","はまかわしょうてん","〒781-6410","高知県安芸郡田野町2150","高知県"
"35.0614053","134.0107147","苅田酒造エネルギー","かんだしゅぞうえねるぎー","〒708-0835","岡山県津山市勝間田町17","岡山県"
"35.4926615","134.0100842","山根酒造場","やまねしゅぞうじょう","〒689-0518","鳥取県鳥取市青谷町大坪249","鳥取県"
"34.7657831","134.0054991","室町酒造","むろまちしゅぞう","〒709-0835","岡山県赤磐市西中1342-1","岡山県"
"35.0984562","133.9967619","難波酒造","なんばしゅぞう","〒708-0815","岡山県津山市一宮436","岡山県"
"35.5199499","133.995282","西本酒造場","にしもとしゅぞうじょう","〒689-0501","鳥取県鳥取市青谷町青谷3960","鳥取県"
"34.7948854","133.9850806","小坂酒造","こさかしゅぞう","〒701-2225","岡山県赤磐市山口265-1","岡山県"
"33.4387201","133.9820129","南酒造場","みなみしゅぞうじょう","〒781-6421","高知県安芸郡安田町安田1875","高知県"
"33.4373202","133.9788412","土佐鶴酒造","とさつるしゅぞう","〒781-6421","高知県安芸郡安田町安田1586","高知県"
"35.1217889","133.9585315","後藤酒造","ごとうしゅぞう","〒708-0312","岡山県苫田郡鏡野町香々美457","岡山県"
"34.2221919","133.9475037","綾菊酒造","あやきくしゅぞう","〒761-2204","香川県綾歌郡綾川町山田下3393-1","香川県"
"34.5515398","133.9433885","藤原酒造","ふじわらしゅぞう","〒706-0221","岡山県玉野市八浜町八浜843","岡山県"
"34.6792242","133.9401716","宮下酒造","みやしたしゅぞう","〒703-8258","岡山県岡山市西川原184","岡山県"
"35.0933582","133.9372565","牧野酒造本店","まきのしゅぞうほんてん","〒708-0321","岡山県苫田郡鏡野町円宗寺51","岡山県"
"34.9006868","133.9337147","旭鶴酒造","あさひつるしゅぞう","〒709-3626","岡山県久米郡久米南町上神目474-1","岡山県"
"34.6441667","133.9304343","萬歳酒造","ばんざいしゅぞう","〒700-0865","岡山県岡山市旭本町1-38","岡山県"
"34.0364441","133.9298993","可楽智酒造","からくちしゅぞう","〒779-4701","徳島県三好郡東みよし町加茂2987-1","徳島県"
"35.4726345","133.9048054","福羅酒造","ふくらしゅぞう","〒689-0711","鳥取県東伯郡湯梨浜町松崎451","鳥取県"
"34.2455806","133.904184","勇心酒造","ゆうしんしゅぞう","〒761-2307","香川県綾歌郡綾川町小野2088-1","香川県"
"33.5005963","133.8990504","菊水酒造","きくすいしゅぞう","〒784-0004","高知県安芸市本町4-6-25","高知県"
"35.4094524","133.8960838","藤井酒造","ふじいしゅぞう","〒682-0123","鳥取県東伯郡三朝町三朝870-1","鳥取県"
"34.0299864","133.8827327","芳水酒造","ほうすいしゅぞう","〒779-4801","徳島県三好市井川町辻231-2","徳島県"
"34.6787246","133.8712234","板野酒造場","いたのしゅぞうじょう","〒701-1211","岡山県岡山市一宮 35番地","岡山県"
"34.2232891","133.8605411","岡田酒造","おかだしゅぞう","〒761-2402","香川県丸亀市綾歌町岡田下499-1","香川県"
"34.4729248","133.8465005","十八盛酒造","じゅうはちざかりしゅぞう","〒711-0903","岡山県倉敷市児島田の口5-6-14","岡山県"
"33.5162749","133.8339396","有光酒造場","ありみつしゅぞうじょう","〒784-0033","高知県安芸市赤野甲38-1","高知県"
"34.1915977","133.8286552","丸尾本店","まるおほんてん","〒766-0004","香川県仲多度郡琴平町榎井93","香川県"
"35.4320458","133.8247027","元帥酒造","げんすいしゅぞう","〒682-0826","鳥取県倉吉市東仲町2573","鳥取県"
"35.4318986","133.8227556","高田酒造","たかたしゅぞう","〒682-0825","鳥取県倉吉市西仲町2633","鳥取県"
"34.1813947","133.8224887","西野金陵","にしのきんりょう","〒766-0001","香川県仲多度郡琴平町623番地","香川県"
"34.4735663","133.8207327","三冠酒造","さんかんしゅぞう","〒711-0906","岡山県倉敷市児島下の町2-9-22","岡山県"
"34.5380593","133.8180244","熊屋酒造","くまやしゅぞう","〒710-0142","岡山県倉敷市林705","岡山県"
"34.0295797","133.8114933","真野武酒造","まのたけしゅぞう","〒778-0002","徳島県三好市池田町マチ2348-1","徳島県"
"34.0278799","133.8103157","三芳菊酒造","みよしきくしゅぞう","〒778-0003","徳島県三好市池田町サラダ1661","徳島県"
"34.0281076","133.8101546","中和商店","なかわしょうてん","〒778-0003","徳島県三好市池田町サラダ1756-2","徳島県"
"33.5205152","133.8095474","仙頭酒造場","せんとおしゅぞうじょう","〒781-5701","高知県安芸郡芸西村和食甲1551","高知県"
"35.413078","133.8027998","中井酒造","なかいしゅぞう","〒682-0856","鳥取県倉吉市中河原555","鳥取県"
"34.7396045","133.801736","板野酒造本店","いたのしゅぞうほんてん","〒701-1462","岡山県岡山市北区大井 2272","岡山県"
"34.6628501","133.7832849","三宅酒造","みやけしゅぞう","〒719-1161","岡山県総社市宿355","岡山県"
"34.018383","133.777495","矢川酒造","やがわしゅぞう","〒778-5251","徳島県三好市池田町白地字井ノ久保386-1","徳島県"
"34.5129968","133.7752963","中田酒造","なかたしゅぞう","〒712-8053","岡山県倉敷市","岡山県"
"34.5460746","133.7741","正義櫻","せいぎざくら","〒712-8041","岡山県倉敷市","岡山県"
"34.5962902","133.7732698","森田酒造","もりたしゅぞう","〒710-0054","岡山県倉敷市本町8-8","岡山県"
"34.5685038","133.7528303","白神酒造","しらがしゅぞう","〒710-0844","岡山県倉敷市福井358","岡山県"
"34.6687688","133.7460008","松永酒造","まつながしゅぞう","〒719-1134","岡山県総社市真壁541","岡山県"
"35.4987008","133.7327239","梅津酒造","うめづしゅぞう","〒689-2223","鳥取県東伯郡北栄町大谷1350","鳥取県"
"34.6408965","133.7316692","ヨイキゲン","よいきげん","〒719-1175","岡山県総社市清音上中島372-1","岡山県"
"34.5512304","133.7275581","渡辺酒造本店","わたなべしゅぞうほんてん","〒712-8002","岡山県倉敷市連島町亀島新田170","岡山県"
"34.5491528","133.7227752","大野酒造","おおのしゅぞう","〒712-8001","岡山県倉敷市連島町西之浦3821","岡山県"
"33.542112","133.721962","高木酒造","たかぎしゅぞう","〒781-5310","高知県香南市赤岡町443","高知県"
"35.290818","133.7209014","大美酒造","おおみしゅぞう","〒717-0505","岡山県真庭市蒜山上長田1989","岡山県"
"34.5522525","133.7111125","遠藤酒造場","えんどうしゅぞうじょう","〒712-8001","岡山県倉敷市連島町西之浦2787","岡山県"
"34.8200765","133.7105569","小出酒造","こいでしゅぞう","〒716-1121","岡山県加賀郡吉備中央町納地111-2","岡山県"
"34.1270747","133.7083382","川鶴酒造","かわつるしゅぞう","〒768-0022","香川県観音寺市本大町836","香川県"
"35.4932093","133.6917564","大谷酒造","おおたにしゅぞう","〒689-2352","鳥取県東伯郡琴浦町浦安368","鳥取県"
"35.0858197","133.6910185","辻本店","つじほんてん","〒717-0013","岡山県真庭市勝山116","岡山県"
"33.6061738","133.68537","アリサワ","ありさわ","〒782-0032","高知県香美市土佐山田町西本町1-4-1","高知県"
"34.5466141","133.684718","三千鶴酒造","みちつるしゅぞう","〒713-8103","岡山県倉敷市玉島乙島4905","岡山県"
"33.603538","133.6803066","松尾酒造","まつおしゅぞう","〒782-0032","高知県香美市土佐山田町西本町5-1-1","高知県"
"35.5054365","133.6742799","江原酒造本店","えばらしゅぞうほんてん","〒689-2301","鳥取県東伯郡琴浦町八橋1400","鳥取県"
"35.5056727","133.6720913","原酒造","はらしゅぞう","〒689-2301","鳥取県東伯郡琴浦町大字八橋1481","鳥取県"
"35.1037485","133.6687122","勝山酒造","かつやましゅぞう","〒717-0007","岡山県真庭市","岡山県"
"34.5418312","133.6667729","菊池酒造","きくちしゅぞう","〒713-8121","岡山県倉敷市玉島阿賀崎1212","岡山県"
"34.9011532","133.6584465","芳烈酒造","ほうれつしゅぞう","〒716-1321","岡山県高梁市有漢町有漢2535-1","岡山県"
"34.5191117","133.6462366","酔宝酒造","すいほうしゅぞう","〒713-8126","岡山県倉敷市玉島黒崎7985","岡山県"
"34.9643393","133.6288415","落酒造場","おちしゅぞうじょう","〒716-1433","岡山県真庭市下呰部664-4","岡山県"
"34.5400259","133.623156","神露酒造","しんろしゅぞう","〒719-0111","岡山県浅口市金光町大谷227","岡山県"
"34.4958153","133.6082079","不二菊酒造本店","ふじぎくしゅぞうほんてん","〒713-8126","岡山県倉敷市玉島黒崎8757-1","岡山県"
"33.9891899","133.5939848","梅錦山川","うめにしきやまかわ","〒799-0194","愛媛県四国中央市 金田町金川14","愛媛県"
"33.9913784","133.5908101","今村酒造","いまむらしゅぞう","〒799-0121","愛媛県四国中央市上分町742-2","愛媛県"
"34.5392824","133.5900266","平喜酒造","ひらきしゅぞう","〒719-0243","岡山県浅口市鴨方町鴨方1283","岡山県"
"34.5442431","133.589682","藤田酒造","ふじたしゅぞう","〒719-0243","岡山県浅口市鴨方町鴨方152-2","岡山県"
"34.5643329","133.5893148","丸本酒造","まるもとしゅぞう","〒719-0232","岡山県浅口市鴨方町本庄2485","岡山県"
"34.4821196","133.584144","嘉美心酒造","かみこころしゅぞう","〒714-0101","岡山県浅口市寄島町7500-2","岡山県"
"33.5014025","133.5496295","鯨酒造","すいげいしゅぞう","〒781-0270","高知県高知市長浜566","高知県"
"34.7720359","133.5486268","白菊酒造","しらぎくしゅぞう","〒716-0101","岡山県高梁市成羽町下日名163-1","岡山県"
"34.5069464","133.5426611","磯千鳥酒造","いそちどりしゅぞう","〒719-0302","岡山県浅口郡里庄町新庄306","岡山県"
"33.7440436","133.5426379","土佐酒造","とさしゅぞう","〒781-3521","高知県土佐郡土佐町田井418","高知県"
"34.466743","133.5349653","大内酒造場","おおうちしゅぞうじょう","〒714-0032","岡山県笠岡市西大島7496","岡山県"
"33.9680921","133.5256046","篠永酒造","しのながしゅぞう","〒799-0423","愛媛県四国中央市具定町250-1","愛媛県"
"35.2839981","133.4864282","大岩酒造本店","おおいわしゅぞうほんてん","〒689-4401","鳥取県日野郡江府町江尾1872","鳥取県"
"35.3882977","133.467171","久米桜酒造","くめざくらしゅぞう","〒689-4108","鳥取県西伯郡伯耆町丸山1740-50","鳥取県"
"34.6046126","133.4633229","瀧本酒造","たきもとしゅぞう","〒715-0019","岡山県井原市井原町1050-2","岡山県"
"34.7872185","133.4588257","赤木酒造","あかぎしゅぞう","〒716-0303","岡山県高梁市備中町長屋43","岡山県"
"34.622866","133.4380096","山成酒造","やまなりしゅぞう","〒714-2112","岡山県井原市芳井町簗瀬23","岡山県"
"34.4572944","133.4026665","アシードブリュー","あしーどぶりゅー","〒721-0957","広島県福山市箕島町5725-1","広島県"
"34.5555592","133.3950505","美の鶴酒造","みのつるしゅぞう","〒720-2117","広島県福山市神辺町下御領1288","広島県"
"33.4776155","133.3874905","亀泉酒造","かめいずみしゅぞう","〒781-1142","高知県土佐市出間2123-1","高知県"
"34.5439382","133.383571","天宝一","てんぽういち","〒720-2123","広島県福山市神辺町川北660","広島県"
"33.5842158","133.3617502","高知酒造","こうちしゅぞう","〒781-2141","高知県吾川郡いの町勝賀瀬780-2","高知県"
"34.5754485","133.3449952","高橋酒造","たかはししゅぞう","〒720-2418","広島県福山市加茂町字中野555","広島県"
"34.9647048","133.3430591","三光正宗","さんこうまさむね","〒719-3702","岡山県新見市哲西町上神代951","岡山県"
"35.4246216","133.3421391","益尾酒造本店","ますおしゅぞうほんてん","〒683-0064","鳥取県米子市","鳥取県"
"36.2247166","133.299719","隠岐酒造","おきしゅぞう","〒685-0027","島根県隠岐郡隠岐の島町原田174","島根県"
"35.4573964","133.2911664","稲田本店","いなだほんてん","〒683-0851","鳥取県米子市夜見町325-16","鳥取県"
"33.4994194","133.2891299","司牡丹酒造","つかさぼたんしゅぞう","〒789-1201","高知県高岡郡佐川町甲1299","高知県"
"33.9666474","133.2882705","近藤酒造","こんどうしゅぞう","〒792-0802","愛媛県新居浜市新須賀町1-11-46","愛媛県"
"34.7767746","133.2770929","三輪酒造","みわしゅぞう","〒720-1812","広島県神石郡神石高原町油木乙1930","広島県"
"34.8950694","133.2724319","生熊酒造","いくましゅぞう","〒729-5124","広島県庄原市東城町東城43-1","広島県"
"34.8985302","133.2713624","北村醸造場","きたむらじょうぞうじょう","〒729-5124","広島県庄原市東城町東城356","広島県"
"35.3918572","133.2645432","金鳳酒造","きんぽうしゅぞう","〒692-0056","島根県安来市清井町343","島根県"
"35.4249715","133.2497327","天界酒造","てんかいしゅぞう","〒692-0011","島根県安来市","島根県"
"34.7027365","133.2495938","田中酒造","たなかしゅぞう","〒720-1522","広島県神石郡神石高原町小畠1736-1","広島県"
"33.331108","133.2278327","西岡酒造店","にしおかしゅぞうてん","〒789-1301","高知県高岡郡中土佐町久礼6154","高知県"
"35.5450606","133.2248698","千代むすび酒造","ちよむすびしゅぞう","〒684-0004","鳥取県境港市大正町131","鳥取県"
"34.4069202","133.1912451","吉源酒造場","よしげんしゅぞうじょう","〒722-0031","広島県尾道市三軒家町14-6","広島県"
"35.367741","133.1750642","吉田酒造","よしだしゅぞう","〒692-0404","島根県安来市広瀬町広瀬1216","島根県"
"35.3018648","133.1483125","青砥酒造","あおとしゅぞう","〒692-0623","島根県安来市広瀬町布部1164-4","島根県"
"35.427901","133.1427901","王祿酒造","おうろくしゅぞう","〒699-0101","島根県松江市東出雲町揖屋484","島根県"
"33.2102086","133.1330799","文本酒造","ふみもとしゅぞう","〒786-0005","高知県高岡郡四万十町本町4-23","高知県"
"33.8912013","133.1308627","石鎚酒造","いしづちしゅぞう","〒793-0073","愛媛県西条市氷見丙402-3","愛媛県"
"33.8949592","133.1220717","蔵本屋本店","くらもとやほんてん","〒793-0072","愛媛県西条市氷見乙1785","愛媛県"
"35.1812747","133.0932161","簸上清酒","ひかみせいしゅ","〒699-1832","島根県仁多郡奥出雲町横田1222","島根県"
"34.4012356","133.0905679","酔心山根本店","すいしんやまねほんてん","〒723-0011","広島県三原市東町1-5-58","広島県"
"35.2272046","133.0867723","奥出雲酒造","おくいずもしゅぞう","〒699-1701","島根県仁多郡奥出雲町亀嵩1380-1","島根県"
"33.913142","133.0784793","成龍酒造","せいりょうしゅぞう","〒799-1371","愛媛県西条市周布1301-1","愛媛県"
"33.8826256","133.0778852","首藤酒造","すとうしゅぞう","〒799-1106","愛媛県西条市小松町大頭312-2","愛媛県"
"34.6987421","133.0759791","山岡酒造","やまおかしゅぞう","〒729-4102","広島県三次市甲奴町西野489-1","広島県"
"34.783452","133.0630509","花酔酒造","はなよいしゅぞう","〒729-3721","広島県庄原市総領町稲草1995-1","広島県"
"33.9493097","133.0582903","武田酒造","たけだしゅぞう","〒799-1301","愛媛県西条市三芳1507","愛媛県"
"35.4668572","133.0581797","天佑酒造","てんゆうしゅぞう","〒690-0005","島根県松江市和多見町153-3","島根県"
"35.4810166","133.0580654","李白酒造","りはくしゅぞう","〒690-0881","島根県松江市石橋町335","島根県"
"35.4693902","133.0578908","米田酒造","よねだしゅぞう","〒690-0842","島根県松江市東本町3-59","島根県"
"35.4692512","133.0523885","國暉酒造","こっきしゅぞう","〒690-0844","島根県松江市東茶町8","島根県"
"33.9455265","133.0476577","秋川酒造","あきかわしゅぞう","〒799-1312","愛媛県西条市大野150","愛媛県"
"34.8554315","133.0048348","比婆美人酒造","ひばびじんしゅぞう","〒727-0021","広島県庄原市三日市町232-1","広島県"
"34.060049","133.0025231","八木酒造部","やぎしゅぞうぶ","〒794-0042","愛媛県今治市旭町3-3-8","愛媛県"
"34.7192164","132.9920658","福六酒造","ふくろくしゅぞう","〒729-4211","広島県三次市吉舎町吉舎378-1","広島県"
"33.1995093","132.9737457","無手無冠","むてむか","〒786-0301","高知県高岡郡四万十町大正452","高知県"
"35.3249085","132.969725","松本酒造","まつもとしゅぞう","〒699-1251","島根県雲南市大東町大東1855","島根県"
"32.9966115","132.9361768","藤娘酒造","ふじむすめしゅぞう","〒787-0022","高知県四万十市中村新町4-5","高知県"
"34.3460048","132.9114626","竹鶴酒造","たけつるしゅぞう","〒725-0022","広島県竹原市本町3丁目10-29","広島県"
"34.3472157","132.9086158","藤井酒造","ふじいしゅぞう","〒725-0022","広島県竹原市本町3丁目4-14","広島県"
"34.34095","132.9041554","中尾醸造","なかおじょうぞう","〒725-0026","広島県竹原市中央5-9-14","広島県"
"33.6581442","132.9025736","雪娘酒造","ゆきむすめしゅぞう","〒791-1201","愛媛県上浮穴郡久万高原町久万327","愛媛県"
"33.656475","132.9025292","お茂ご酒造","おもごしゅぞう","〒791-1201","愛媛県上浮穴郡久万高原町久万137","愛媛県"
"35.2926582","132.9007553","木次酒造","きすきしゅぞう","〒699-1332","島根県雲南市木次町木次477-1","島根県"
"34.4678036","132.8979426","喜久牡丹酒造","きくぼたんしゅぞう","〒729-1102","広島県東広島市河内町下河内153","広島県"
"33.8046253","132.8854533","横河酒造","よこかわしゅぞう","〒791-0203","愛媛県東温市横河原1304-1","愛媛県"
"33.8053971","132.8736071","島田酒造","しまだしゅぞう","〒791-0204","愛媛県東温市志津川1445","愛媛県"
"34.8125339","132.8468686","白蘭酒造","はくらんしゅぞう","〒728-0021","広島県三次市三次町1550-2","広島県"
"34.035707","132.8428994","森松酒造場","もりまつしゅぞうじょう","〒799-2303","愛媛県今治市菊間町浜890-1","愛媛県"
"34.6922813","132.8335428","美和桜酒造","みわさくらしゅぞう","〒729-6612","広島県三次市三和町下板木262","広島県"
"35.4370759","132.8209159","酒持田本店","さけもちだほんてん","〒691-0001","島根県出雲市平田町785","島根県"
"34.3199822","132.8198322","今田酒造本店","いまだしゅぞうほんてん","〒729-2402","広島県東広島市安芸津町三津3734","広島県"
"35.1928423","132.8189439","竹下本店","たけしたほんてん","〒690－2701","島根県雲南市掛合町掛合955-1","島根県"
"34.3191379","132.8164966","柄酒造","つかしゅぞう","〒729-2402","広島県東広島市安芸津町三津4228","広島県"
"33.8507478","132.8064964","栄光酒造","えいこうしゅぞう","〒791-0101","愛媛県松山市溝辺町甲443","愛媛県"
"33.8162416","132.8057242","後藤酒造","ごとうしゅぞう","〒790-0924","愛媛県松山市南久米町255-1","愛媛県"
"33.6285218","132.798202","佐々木酒造","ささきしゅぞう","〒791-2205","愛媛県伊予郡砥部町総津785","愛媛県"
"33.9720201","132.792979","桜うづまき酒造","さくらうづまきしゅぞう","〒799-2424","愛媛県松山市八反地71","愛媛県"
"33.7385665","132.7917164","協和酒造","きょうわしゅぞう","〒791-2132","愛媛県伊予郡砥部町大南400番地","愛媛県"
"33.7538923","132.7876228","かち鶴酒造","かちづるしゅぞう","〒791-2120","愛媛県伊予郡砥部町宮内542","愛媛県"
"33.8511898","132.782407","水口酒造","みなくちしゅぞう","〒790-0848","愛媛県松山市道後喜多町3-23","愛媛県"
"33.9535444","132.7724898","雪雀酒造","ゆきすずめしゅぞう","〒799-2434","愛媛県松山市柳原123番地","愛媛県"
"35.3634051","132.7588006","富士酒造","ふじしゅぞう","〒693-0001","島根県出雲市今市町1403","島根県"
"35.3639661","132.7571952","旭日酒造","あさひしゅぞう","〒693-0001","島根県出雲市今市町662","島根県"
"33.8505058","132.7569566","岡酒造","おかしゅぞう","〒790-0813","愛媛県松山市萱町5-10-2","愛媛県"
"33.8331105","132.7506044","愛媛県酒造共同組合","えひめけんしゅぞうきょうどうくみあい","〒790-0053","愛媛県松山市竹原3-16-12","愛媛県"
"34.4293024","132.7489675","賀茂泉酒造","かもいずみしゅぞう","〒739-0006","広島県東広島市西条上市町2-4","広島県"
"34.4307133","132.7478009","福美人酒造","ふくびじんしゅぞう","〒739-0011","広島県東広島市西条本町6-21","広島県"
"35.3507146","132.7468994","板倉酒造","いたくらしゅぞう","〒693-0021","島根県出雲市塩冶町468","島根県"
"34.4301578","132.746326","亀齢酒造","きれいしゅぞう","〒739-0011","広島県東広島市西条本町8-18","広島県"
"34.4304494","132.7462343","賀茂鶴酒造","かもつるしゅぞう","〒739-0011","広島県東広島市西条本町4-31","広島県"
"34.4299595","132.7454973","西條鶴醸造","さいじょうつるしゅぞう","〒739-0011","広島県東広島市西条本町9-17","広島県"
"34.4294412","132.7451733","白牡丹酒造","はくぼたんしゅぞう","〒739-0011","広島県東広島市西条本町15-5","広島県"
"34.4296995","132.740818","山陽鶴酒造","さんようつるしゅぞう","〒739-0016","広島県東広島市西条岡町6-9","広島県"
"34.4286468","132.7377682","賀茂輝酒造","かもきしゅぞう","〒739-0043","広島県東広島市西条西本町11-3","広島県"
"33.4051415","132.7359144","中城本家酒造","なかしろほんけしゅぞう","〒797-1713","愛媛県西予市城川町嘉喜尾1319","愛媛県"
"34.2801406","132.7254237","盛川酒造","もりかわしゅぞう","〒729-2506","広島県呉市安浦町原畑44","広島県"
"34.6110209","132.7165972","向原酒造","むかいはらしゅぞう","〒739-1201","広島県安芸高田市向原町坂238-1","広島県"
"34.9971962","132.7160212","赤名酒造","あかなしゅぞう","〒690-3511","島根県飯石郡飯南町赤名23","島根県"
"33.2268976","132.7072573","正木正光酒造場","まさきまさみつしゅぞうじょう","〒798-2101","愛媛県北宇和郡松野町松丸178","愛媛県"
"34.663133","132.7061985","有木酒造場","ありきしゅぞうじょう","〒731-0501","広島県安芸高田市吉田町吉田1091-2","広島県"
"33.7789489","132.7034567","武智酒店","たけちさけみせ","〒791-3102","愛媛県伊予郡松前町北黒田816","愛媛県"
"33.7595234","132.7022321","徳本酒造","とくもとしゅぞう","〒799-3114","愛媛県伊予市灘町12","愛媛県"
"35.3159229","132.6958197","立花酒造場","たちばなしゅぞうじょう","〒699-0824","島根県出雲市西神西町123","島根県"
"34.3354867","132.6917368","金光酒造","かねみつしゅぞう","〒724-0622","広島県東広島市黒瀬町乃美尾1364-2","広島県"
"33.455189","132.6844529","養老酒造","ようろうしゅぞう","〒797-1504","愛媛県大洲市肱川町山鳥坂49","愛媛県"
"35.3977302","132.6820536","古川酒造","ふるかわしゅぞう","〒699-0701","島根県出雲市大社町杵築東418","島根県"
"34.5049812","132.6707874","千代乃春酒造","ちよのはるしゅぞう","〒739-0269","広島県東広島市志和町志和堀3312","広島県"
"33.5387469","132.6611544","亀岡酒造","かめおかしゅぞう","〒795-0303","愛媛県喜多郡内子町平岡甲1592-1","愛媛県"
"34.2240314","132.6552035","宝剣酒造","ほうけんしゅぞう","〒737-0152","広島県呉市仁方本町1丁目11-2","広島県"
"34.2268087","132.6514232","相原酒造","あいはらしゅぞう","〒737-0152","広島県呉市仁方本町1-25-15","広島県"
"33.5538548","132.6487458","酒六酒造","さかろくしゅぞう","〒791-3301","愛媛県喜多郡内子町内子3279-1","愛媛県"
"33.3776978","132.6450405","緒方酒造","おがたしゅぞう","〒797-1212","愛媛県西予市野村町野村12-17","愛媛県"
"33.6877897","132.6376607","奥嶋酒造","おくしましゅぞう","〒799-3202","愛媛県伊予市双海町上灘5711","愛媛県"
"34.8697448","132.617053","池月酒造","いけづきしゅぞう","〒696-0501","島根県邑智郡邑南町阿須那1-3","島根県"
"33.2908897","132.6067574","西本酒造","にしもとしゅぞう","〒798-1112","愛媛県宇和島市三間町宮野下855","愛媛県"
"32.9578286","132.5836658","小西酒造場","こにししゅぞうじょう","〒798-4341","愛媛県南宇和郡愛南町蓮乗寺3","愛媛県"
"34.3423209","132.5805788","馬上酒造場","ばじょうしゅぞうじょう","〒731-4215","広島県安芸郡熊野町7870","広島県"
"34.2511625","132.5777699","三宅本店","みやけほんてん","〒737-0045","広島県呉市本通7丁目9-10","広島県"
"33.2641056","132.5686262","名門サカイ","めいもんさかい","〒798-0020","愛媛県宇和島市高串2-1045","愛媛県"
"34.8712485","132.5588368","玉櫻酒造","たまざくらしゅぞう","〒696-0404","島根県邑智郡邑南町原村148","島根県"
"34.2128055","132.5467763","白天龍酒造場","はくてんりゅうしゅぞうじょう","〒737-0012","広島県呉市警固屋3-2-18","広島県"
"34.0999342","132.5436144","林酒造","はやししゅぞう","〒737-1317","広島県呉市倉橋町11777","広島県"
"33.5630236","132.5419884","後藤酒造","ごとうしゅぞう","〒795-0041","愛媛県大洲市八多喜町100","愛媛県"
"34.1896606","132.5314194","榎酒造","えのきしゅぞう","〒737-1205","広島県呉市音戸町南隠渡2-1-15","広島県"
"34.2609879","132.5307884","中野光次郎本店","なかのみつじろうほんてん","〒737-0853","広島県呉市吉浦中町2-7-10","広島県"
"34.3755973","132.5297779","梅田酒造場","うめだしゅぞうじょう","〒736-0081","広島県広島市安芸区船越6-3-8","広島県"
"34.1627416","132.5251038","藤岡酒造店","ふじおかしゅぞうてん","〒737-1211","広島県呉市音戸町畑3-16-15","広島県"
"33.3609956","132.5192001","宇都宮酒造","うつのみやしゅぞう","〒797-0015","愛媛県西予市宇和町卯之町4-254","愛媛県"
"34.6912336","132.5190585","上杉酒造","うえすぎしゅぞう","〒731-1503","広島県山県郡北広島町有間963-2","広島県"
"33.3180097","132.5169905","濱田酒造","はまだしゅぞう","〒799-3742","愛媛県宇和島市吉田町法花津2-156","愛媛県"
"33.3628035","132.5150477","最進酒造","さいしんしゅぞう","〒797-0015","愛媛県西予市宇和町卯之町4-332","愛媛県"
"33.3633867","132.5150449","元見屋酒店","もとみやさけてん","〒797-0015","愛媛県西予市宇和町卯之町3-88","愛媛県"
"34.5211316","132.5136909","旭鳳酒造","きょくほうしゅぞう","〒731-0221","広島県広島市安佐北区可部3-8-16","広島県"
"34.5129464","132.5126441","久保田酒造","くぼたしゅぞう","〒731-0221","広島県広島市安佐北区可部2-34-24","広島県"
"35.1947228","132.5065564","一宮酒造","いちのみやしゅぞう","〒694-0064","島根県大田市大田町大田ハ271-2","島根県"
"34.4852801","132.5063457","安佐酒造","あさしゅぞう","〒731-0101","広島県広島市安佐南区八木9-32-41","広島県"
"33.0844572","132.5060851","赤松本家酒造","あかまつほんけしゅぞう","〒798-3323","愛媛県宇和島市津島町上畑地甲1502","愛媛県"
"34.7064347","132.5043176","小野酒造","おのしゅぞう","〒731-1502","広島県山県郡北広島町蔵迫47","広島県"
"34.2472468","132.4787124","江田島銘醸","えだじまじょうぞう","〒737-2122","広島県江田島市江田島町中央2-27-1","広島県"
"34.4079565","132.4682019","原本店","はらほんてん","〒730-0003","広島県広島市中区白島九軒町9-19","広島県"
"34.9017437","132.4649728","加茂福酒造","かもふくしゅぞう","〒696-0102","島根県邑智郡邑南町中野2405","島根県"
"34.6195058","132.4642941","千豊酒造","せんぽうしゅぞう","〒731-1222","広島県山県郡北広島町阿坂3385","広島県"
"33.4438141","132.4410158","川亀酒造","かわかめしゅぞう","〒796-8010","愛媛県八幡浜市五反田2-4-1","愛媛県"
"34.2207245","132.4404523","津田酒造","つだしゅぞう","〒737-2301","広島県江田島市能美町中町2372-1","広島県"
"33.4531519","132.4309525","梅美人酒造","うめびじんしゅぞう","〒796-0051","愛媛県八幡浜市1557-2","愛媛県"
"33.4561126","132.4281443","小泉酒造","こいずみしゅぞう","〒796-8002","愛媛県八幡浜市広瀬2-4-10","愛媛県"
"35.0337408","132.409452","木村酒造","きむらしゅぞう","〒694-0433","島根県大田市大代町大家1609","島根県"
"34.3815586","132.4021424","小泉本店","こいずみほんてん","〒733-0861","広島県広島市西区草津東3-3-10","広島県"
"33.4774678","132.3960708","桐万長酒造","きりまんちょうしゅぞう","〒796-0201","愛媛県八幡浜市保内町川之石3-11-3","愛媛県"
"34.5045588","132.3959379","玉扇酒造","たまおうぎしゅぞう","〒731-3362","広島県広島市安佐北区安佐町大字久地1624-1","広島県"
"34.3935534","132.3595791","八幡川酒造","やはたがわしゅぞう","〒731-5116","広島県広島市佐伯区八幡3-13-20","広島県"
"33.4893932","132.3539842","松田酒造","まつだしゅぞう","〒796-0301","愛媛県西宇和郡伊方町湊浦1003-2","愛媛県"
"35.092742","132.3469564","若林酒造","わかばやししゅぞう","〒699-2511","島根県大田市温泉津町小浜ロ73","島根県"
"34.3544572","132.340215","中国醸造","ちゅうごくじょうぞう","〒738-8602","広島県廿日市市桜尾1丁目12-1","広島県"
"34.5753058","132.2280686","川本酒造場","かわもとしゅぞうじょう","〒731-3810","広島県山県郡安芸太田町戸河内469","広島県"
"34.1622788","132.2167592","八百新酒造","やおしんしゅぞう","〒740-0017","山口県岩国市今津町3-18-9","山口県"
"34.206616","132.2155804","田熊酒造","たぐましゅぞう","〒739-0615","広島県大竹市元町1-3-14","広島県"
"35.0086984","132.2147254","都錦酒造","みやこにしきしゅぞう","〒695-0016","島根県江津市嘉久志町イ1415","島根県"
"34.1573044","132.2140122","酒井酒造","さかいしゅぞう","〒740-0021","山口県岩国市中津町1-1-31","山口県"
"34.2070627","132.1968155","藤高酒造","ふじたかしゅぞう","〒739-0616","広島県大竹市木野1-6-23","広島県"
"33.9373438","132.1927563","川村酒造場","かわむらしゅぞうじょう","〒742-2106","山口県大島郡周防大島町小松710-1","山口県"
"34.1649608","132.1515033","村重酒造","むらしげしゅぞう","〒741-0083","山口県岩国市御庄5-101-1","山口県"
"33.9679859","132.1111933","琴泉酒造","きんせんしゅぞう","〒774-0022","山口県柳井市大字柳井津488","山口県"
"34.8994139","132.0920461","三桜酒造","みつざくらしゅぞう","〒697-0024","島根県浜田市黒川町909-3","島根県"
"34.125265","132.0042478","旭酒造","あさひしゅぞう","〒742-0422","山口県岩国市周東町獺越2167-4","山口県"
"34.2644775","131.9595552","堀江酒場","ほりえさかば","〒740-0724","山口県岩国市錦町広瀬6746-1","山口県"
"34.7880277","131.9426286","日本海酒造","にほんかいしゅぞう","〒699-3224","島根県浜田市三隅町湊浦80","島根県"
"32.9547369","131.8923056","大地酒造","おおちしゅぞう","〒876-0832","大分県佐伯市船頭町14-14","大分県"
"34.493024","131.874645","下森酒造場","したもりしゅぞうじょう","〒699-5202","島根県鹿足郡津和野町左鐙992","島根県"
"34.0370669","131.8716886","金分銅酒造","きんふんどうしゅぞう","〒744-0024","山口県下松市末武上1202","山口県"
"34.6791005","131.8658378","岡田屋本店","おかだやほんてん","〒698-0011","島根県益田市染羽町5-7","島根県"
"34.6760978","131.8608827","中原酒造","なかはらしゅぞう","〒698-0017","島根県益田市七尾町9-31","島根県"
"34.6759672","131.8584384","右田本店","みぎたほんてん","〒698-0005","島根県益田市本町3-30","島根県"
"34.0329579","131.8395332","山縣本店","やまがたほんてん","〒745-0801","山口県周南市久米2933","山口県"
"34.685116","131.8340931","桑原酒場","くわばらさかば","〒698-0043","島根県益田市中島町ロ171","島根県"
"34.0291107","131.828898","冨永酒造","とみながしゅぞう","〒745-0805","山口県周南市櫛ヶ浜西本町72","山口県"
"34.051222","131.8085718","はつもみぢ","はつもみぢ","〒745-0014","山口県周南市飯島町1-40","山口県"
"33.1205451","131.7971475","小手川酒造","こてがわしゅぞう","〒875-0041","大分県臼杵市臼杵538","大分県"
"33.1287936","131.785107","久家本店","くげほんてん","〒875-0023","大分県臼杵市江無田382","大分県"
"34.4453833","131.7755732","財間酒場","ざいまさかば","〒699-5612","島根県鹿足郡津和野町中座口34","島根県"
"34.468713","131.7752936","古橋酒造","ふるはししゅぞう","〒699-5605","島根県鹿足郡津和野町後田ロ196","島根県"
"34.4695101","131.7752658","華泉酒造","かせんしゅぞう","〒699-5605","島根県鹿足郡津和野町後田ロ221","島根県"
"34.4692241","131.7750158","石州酒造","せきしゅうしゅぞう","〒699-5605","島根県鹿足郡津和野町後田ロ218","島根県"
"34.078113","131.7727717","中島屋酒造場","なかじまやしゅぞうじょう","〒746-0011","山口県周南市土井2-1-3","山口県"
"34.0720602","131.7546091","新中野工業 宝眞珠蔵","しんなかのこうぎょう たからしんじゅぐら","〒746-0029","山口県周南市平野2-6-13","山口県"
"32.8861514","131.7479399","ぶんご銘醸","ぶんごめいじょう","〒879-3105","大分県佐伯市直川横川789-4","大分県"
"34.0726291","131.7360769","中村酒場","なかむらしゅじょう","〒746-0038","山口県周南市福川3-16-6","山口県"
"34.1388673","131.7295753","松田酒造","まつだしゅぞう","〒746-0104","山口県周南市米光104","山口県"
"33.5253553","131.7258475","萱島酒造","かやしましゅぞう","〒873-0513","大分県国東市国東町綱井392-1","大分県"
"33.0441881","131.6940633","藤居酒造","ふじいしゅぞう","〒875-0201","大分県臼杵市野津町野津市213-2","大分県"
"33.0440103","131.6926912","赤嶺酒造場","あかみねしゅぞうじょう","〒875-0201","大分県臼杵市野津町野津市164-1","大分県"
"33.4686004","131.6923817","矢野酒造場","やのしゅぞうじょう","〒873-0204","大分県国東市安岐町成久11","大分県"
"33.2263536","131.683469","倉光酒造","そうこうしゅぞう","〒870-0127","大分県大分市森町825","大分県"
"34.5915442","131.678339","澄川酒造場","すみかわしゅぞうじょう","〒759-3203","山口県萩市中小川611","山口県"
"32.5733729","131.6662793","千徳酒造","せんとくしゅぞう","〒882-0841","宮崎県延岡市大瀬町2-1-8","宮崎県"
"34.1886097","131.6571885","新谷酒造","あらやしゅぞう","〒747-0231","山口県山口市徳地堀1673-1","山口県"
"32.8547457","131.6323553","小掠酒造","おぐらしゅぞう","〒879-3301","大分県佐伯市宇目小野市2941","大分県"
"34.4683716","131.6066106","白井酒造本店","しらいしゅぞうほんてん","〒758-0303","山口県萩市高佐下404","山口県"
"33.4217752","131.6020149","中野酒造","なかのしゅぞう","〒873-0002","大分県杵築市南杵築2487-1","大分県"
"34.4325989","131.5723313","八千代酒造","やちよしゅぞう","〒758-0305","山口県萩市吉部下3306","山口県"
"33.4252075","131.4962794","小野酒造","おのしゅぞう","〒879-1307","大分県速見郡山香町野原1353-2","大分県"
"34.1743297","131.4754352","山城屋酒造","やましろやしゅぞう","〒753-0047","山口県山口市道場門前2-1-7","山口県"
"34.5018794","131.4684353","阿武の鶴酒造","あぶのつるしゅぞう","〒759-3622","山口県阿武郡阿武町奈古2796","山口県"
"34.2864711","131.4654366","三浦酒造","みうらしゅぞう","〒753-0101","山口県萩市佐々並2607","山口県"
"32.9741406","131.4650045","丹誠酒類","たんせいしゅるい","〒879-6643","大分県豊後大野市緒方町下自在519","大分県"
"32.9737101","131.4649573","吉良酒造","きらしゅぞう","〒879-6643","大分県豊後大野市緒方町下自在359","大分県"
"32.9734239","131.4635213","浜嶋酒造","はましましゅぞう","〒879-6643","大分県豊後大野市緒方町下自在381","大分県"
"31.9104019","131.4529438","雲海酒造","うんかいしゅぞう","〒880-0833","宮崎県宮崎市昭栄町45-1","宮崎県"
"33.1845523","131.4507456","小野酒造","おのしゅぞう","〒879-5405","大分県由布市庄内町東長宝454-1","大分県"
"33.5793554","131.4492449","山田酒造場","やまだしゅぞうじょう","〒879-0607","大分県豊後高田市新栄1216","大分県"
"34.3629848","131.441256","岡崎酒造場","おかざきしゅぞうじょう","〒758-0141","山口県萩市川上464-1","山口県"
"33.1867461","131.4345077","麻生本店","あそうほんてん","〒879-5432","大分県由布市庄内町畑田16","大分県"
"34.3446531","131.4148026","瀧口酒造","たきぐちしゅぞう","〒754-0411","山口県萩市明木3240","山口県"
"34.4217424","131.4087062","中村酒造","なかむらしゅぞう","〒758-0011","山口県萩市椿東3108-4","山口県"
"34.3995776","131.4021239","大丸酒造","だいまるしゅぞう","〒758-0061","山口県萩市椿2997-1","山口県"
"34.4117819","131.4019957","岩崎酒造","いわさきしゅぞう","〒758-0047","山口県萩市東田町58","山口県"
"34.4149539","131.4015429","一○酒造","いちまるしゅぞう","〒758-0021","山口県萩市今古萩町54","山口県"
"33.573193","131.3780998","小松酒造場","こまつしゅぞうじょう","〒872-0001","大分県宇佐市長洲3341","大分県"
"34.0757653","131.3770788","金光酒造","かねみつしゅぞう","〒754-0897","山口県山口市嘉川5031","山口県"
"33.573118","131.3757527","久保酒蔵","くぼしゅぞう","〒872-0001","大分県宇佐市長洲3581-1","大分県"
"33.5709902","131.372514","宇佐酒類","うさしゅるい","〒872-0001","大分県宇佐市長洲3692-1","大分県"
"33.5665211","131.3680699","民潮酒舗","みんちょうしゅほ","〒872-0032","大分県宇佐市江須賀2846","大分県"
"33.4366639","131.3495261","大分銘醸","おおいためいじょう","〒872-0522","大分県宇佐市安心院町折敷田204-3","大分県"
"34.3968849","131.3291368","山根酒造","やまねしゅぞう","〒759-3721","山口県萩市三見3335-3","山口県"
"33.5318934","131.3242134","常徳屋酒造場","じょうとくやしゅぞうじょう","〒879-0471","大分県宇佐市四日市1205-2","大分県"
"33.5084404","131.3158593","三和酒類","さんわしゅるい","〒879-0495","大分県宇佐市山本2231-1","大分県"
"33.9519065","131.3065652","三井酒造場","みいしゅぞうじょう","〒755-0153","山口県宇部市床波1-18-12","山口県"
"33.0185354","131.2959682","佐藤酒造","さとうしゅぞう","〒878-0201","大分県竹田市久住町久住6197","大分県"
"34.0575232","131.2906077","永山本家酒造場","ながやまほんけしゅぞうじょう","〒759-0133","山口県宇部市車地138","山口県"
"33.5649736","131.2284329","西の誉銘醸","にしのほまれめいじょう","〒879-0112","大分県中津市福島2065-2","大分県"
"34.3754862","131.1797696","小崎酒造","こさきしゅぞう","〒759-4101","山口県長門市東深川1159","山口県"
"33.2554909","131.1761409","八鹿酒造","やつしかしゅぞう","〒879-4692","大分県玖珠郡九重町右田3364","大分県"
"34.0529552","131.1680363","永山酒造","ながやましゅぞう","〒757-0001","山口県山陽小野田市厚狭367-1","山口県"
"34.178947","131.1663583","大嶺酒造","おおみねしゅぞう","〒759-2214","山口県美祢市大嶺町奥分2505","山口県"
"33.5604645","131.1564277","高野酒造場","たかのしゅぞうじょう","〒871-0921","福岡県築上郡上毛町土佐井469","福岡県"
"32.8173046","131.1252026","山村酒造","やまむらしゅぞう","〒869-1602","熊本県阿蘇郡高森町高森1645","熊本県"
"33.2742904","131.1238346","亀の井酒造","かめのいしゅぞう","〒879-4411","大分県玖珠郡玖珠町小田777","大分県"
"33.5667756","131.1174858","後藤酒造","ごとうしゅぞう","〒828-0073","福岡県豊前市狭間546","福岡県"
"33.0957632","131.0690512","室原酒造","むろはらしゅぞう","〒869-2401","熊本県阿蘇郡南小国町赤馬場1862","熊本県"
"33.1211817","131.066983","河津酒造","かわづしゅぞう","〒869-2501","熊本県阿蘇郡小国町宮原1734-2","熊本県"
"34.1273574","131.002908","児玉酒造","こだましゅぞう","〒750-0316","山口県下関市菊川町吉賀72","山口県"
"32.684922","130.9874106","通潤酒造","つうじゅんしゅぞう","〒861-3518","熊本県上益城郡山都町浜町54","熊本県"
"33.3287458","130.9369911","クンチョウ酒造","くんちょうしゅぞう","〒877-0005","大分県日田市豆田町6-31","大分県"
"33.9811062","130.9331871","下関酒造","しものせきしゅぞう","〒751-0829","山口県下関市幡生宮の下町8-23","山口県"
"33.6303384","130.915053","林酒造場","はやししゅぞうじょう","〒824-0224","福岡県京都郡みやこ町犀川崎山992-2","福岡県"
"33.4758669","130.897763","福太郎","ふくたろう","〒824-0721","福岡県田川郡添田町英彦山1881-12","福岡県"
"33.3610988","130.8794377","井上酒造","いのうえしゅぞう","〒877-1107","大分県日田市大肥2220-1","大分県"
"33.3627458","130.8787488","老松酒造","おいまつしゅぞう","〒877-1107","大分県日田市大鶴町2912","大分県"
"33.3958837","130.8729312","片岡酒造場","かたおかしゅぞうじょう","〒838-1701","福岡県朝倉郡東峰村大字宝珠山22","福岡県"
"33.7819763","130.8630754","無法松酒造","むほうまつしゅぞう","〒803-0186","福岡県北九州市小倉南区大字新道寺310","福岡県"
"33.5703381","130.8592625","戸渡酒造","とわたりしゅぞう","〒824-0602","福岡県田川郡添田町添田1448","福岡県"
"33.8539642","130.8155523","溝上酒造","みぞかみしゅぞう","〒805-0047","福岡県北九州市八幡東区景勝町1-10","福岡県"
"32.9828937","130.8068889","菊の城本舗","きくのしろほんぽ","〒861-1331","熊本県菊池市隈府95","熊本県"
"33.3572218","130.7945227","安岡酒造場","やすおかしゅぞうじょう","〒838-1514","福岡県朝倉市杷木久喜宮1105-1","福岡県"
"33.5374252","130.7564661","大里酒造","おおさとしゅぞう","〒820-0304","福岡県嘉麻市大隈551","福岡県"
"33.5474739","130.7440107","寒北斗酒造","かんほくとしゅぞう","〒820-0302","福岡県嘉麻市大隈町1036-1","福岡県"
"33.5490987","130.741383","梅ヶ谷酒造","うめがたにしゅぞう","〒820-0302","福岡県嘉麻市大隈町346","福岡県"
"32.7036486","130.7276907","美少年","びしょうねん","〒861-4203","熊本県熊本市南区城南町隈庄401","熊本県"
"33.3861343","130.7270959","篠崎","しのざき","〒838-1303","福岡県朝倉市比良松185","福岡県"
"32.8078488","130.6945445","熊本県酒造研究所","くまもとけんしゅぞうけんきゅうしょ","〒860-0073","熊本県熊本市島崎1-7-20","熊本県"
"33.344187","130.6883612","若竹屋酒造場","わかたけやしゅぞうじょう","〒839-1233","福岡県久留米市田主丸町田主丸706","福岡県"
"33.0112227","130.687326","千代の園酒造","ちよのそのしゅぞう","〒861-0501","熊本県山鹿市山鹿1782","熊本県"
"32.7373418","130.6824287","瑞鷹酒造","ずいようしゅぞう","〒861-4191","熊本県熊本市川尻4-6-67","熊本県"
"33.6118827","130.6764557","薫仙","くんせん","〒820-0074","福岡県飯塚市楽市417","福岡県"
"33.6039112","130.6758394","瑞穂菊酒造","みずほぎくしゅぞう","〒820-0075","福岡県飯塚市天道375","福岡県"
"33.2131416","130.6724461","後藤酒造場","ごとうしゅぞうじょう","〒834-1217","福岡県八女市黒木町黒木26","福岡県"
"33.2131972","130.6717156","旭松酒造","あさひまつしゅぞう","〒834-1217","福岡県八女市黒木町黒木36","福岡県"
"33.4215598","130.6623705","雪の里酒造","ゆきのさとしゅぞう","〒838-0061","福岡県朝倉市菩提寺591-1","福岡県"
"33.3743555","130.632107","井上合名","いのうえごうめい","〒830-1214","福岡県三井郡大刀洗町栄田1067-2","福岡県"
"33.38611","130.6249407","飛龍酒造","ひりゅうしゅぞう","〒830-1211","福岡県三井郡大刀洗町本郷4616","福岡県"
"33.7205587","130.6245799","石井産業","いしいさんぎょう","〒822-0113","福岡県宮若市金生279","福岡県"
"33.8053853","130.6117129","伊豆本店","いずほんてん","〒811-4152","福岡県宗像市武丸1060","福岡県"
"33.3516932","130.6086424","山の壽酒造","やまのことぶきしゅぞう","〒830-1125","福岡県久留米市北野町乙丸1","福岡県"
"33.3293091","130.6079818","朝凪酒造","あさなぎしゅぞう","〒839-0824","福岡県久留米市善導寺町飯田786","福岡県"
"33.0748096","130.5927612","花の香酒造","はなのかしゅぞう","〒861-0906","熊本県玉名郡和水町西吉地2226-2","熊本県"
"33.8049958","130.5890427","勝屋酒造","かつやしゅぞう","〒811-4146","福岡県宗像市赤間4丁目1-10","福岡県"
"33.3436184","130.5818504","山口酒造場","やまぐちしゅぞうじょう","〒830-1122","福岡県久留米市北野町今山534-1","福岡県"
"33.3430268","130.5815199","千年乃松酒造","ちとせのまつしゅぞう","〒830-1122","福岡県久留米市北野町今山370-1","福岡県"
"33.3114796","130.5653217","冨安","とみやす","〒839-0817","福岡県久留米市山川町326","福岡県"
"33.2080438","130.5628516","高橋商店","たかはししょうてん","〒834-0031","福岡県八女市大字本町2-22-1","福岡県"
"33.4134367","130.5616314","森山酒造","もりやましゅぞう","〒838-0115","福岡県小郡市大保1067-1","福岡県"
"33.2089537","130.5553474","福島酒造","ふくしましゅぞう","〒834-0031","福岡県八女市本町204","福岡県"
"33.2124617","130.5522336","喜多屋","きたや","〒834-0031","福岡県八女市本町374","福岡県"
"33.8002957","130.534255","鷲頭酒造場","わしずしゅぞうじょう","〒811-3431","福岡県宗像市田熊492","福岡県"
"33.4180866","130.5301069","基峰鶴酒造","きほうつるしゅぞう","〒841-0204","佐賀県三養基郡基山町宮浦151","佐賀県"
"33.1180351","130.5191846","玉水酒造","たまみずしゅぞう","〒835-0131","福岡県みやま市高田町舞鶴214-1","福岡県"
"33.4994782","130.517907","大賀酒造","おおがしゅぞう","〒818-0072","福岡県筑紫野市二日市中央4丁目9-1","福岡県"
"33.5715448","130.5064018","小林酒造本店","こばやししゅぞうほんてん","〒811-2101","福岡県糟屋郡宇美町宇美2丁目11-1","福岡県"
"33.6168337","130.4834863","光酒造","ひかりしゅぞう","〒811-2311","福岡県糟屋郡粕屋町長者原95-3","福岡県"
"33.1397321","130.4753871","野田酒造","のだしゅぞう","〒835-0019","福岡県みやま市瀬高町大江900","福岡県"
"33.1569359","130.4722593","星隈酒造","ほしくましゅぞう","〒835-0024","福岡県みやま市瀬高町下庄985","福岡県"
"33.1588912","130.4718288","池田屋","いけだや","〒835-0024","福岡県みやま市瀬高町下庄1287","福岡県"
"33.1576496","130.4691262","菊美人酒造","きくびじんしゅぞう","〒835-0025","福岡県みやま市瀬高町上庄183","福岡県"
"33.2562832","130.4677586","杜の蔵","もりのくら","〒830-0112","福岡県久留米市三潴町玉満2773","福岡県"
"33.2771338","130.4658672","瑞穂錦酒造","みずほにしきしゅぞう","〒830-0076","福岡県久留米市大善寺町藤吉940","福岡県"
"32.2351973","130.4658666","亀萬酒造","かめまんしゅぞう","〒869-5602","熊本県葦北郡津奈木町津奈木1192","熊本県"
"33.7433543","130.4658289","翁酒造","おきなしゅぞう","〒811-3117","福岡県古賀市花見南3丁目19-1","福岡県"
"33.7892237","130.4630309","豊村酒造","とよむらしゅぞう","〒811-3304","福岡県福津市津屋崎4-14-18","福岡県"
"33.3266263","130.4574371","天吹酒造","あまぶきしゅぞう","〒849-0113","佐賀県三養基郡みやき町東尾2894","佐賀県"
"33.2693202","130.4533687","鷹正宗","たかまさむね","〒830-0075","福岡県久留米市大善寺町黒田297","福岡県"
"33.262096","130.4501242","萬年亀酒造","まんねんがめしゅぞう","〒830-0105","福岡県久留米市三潴町草場68-4","福岡県"
"33.2496613","130.4470824","旭菊酒造","あさひぎくしゅぞう","〒830-0116","福岡県久留米市三潴町壱町原403","福岡県"
"33.5637638","130.4436438","いそのさわ","いそのさわ","〒816-0094","福岡県福岡市博多区諸岡3丁目1番3号","福岡県"
"33.1760303","130.443247","目野酒造","めのしゅぞう","〒832-0821","福岡県柳川市三橋町百町766","福岡県"
"33.2629984","130.4429166","池亀酒造","いけかめしゅぞう","〒830-0105","福岡県久留米市三潴町草場545","福岡県"
"33.2596708","130.43337","有薫酒造","ゆうくんしゅぞう","〒830-0204","福岡県久留米市城島町内野330-9","福岡県"
"33.2618871","130.4296148","比翼鶴酒造","ひよくつるしゅぞう","〒830-0291","福岡県久留米市城島町内野466-1","福岡県"
"33.2563572","130.4295618","花の露","はなのつゆ","〒830-0207","福岡県久留米市城島町城島223-1","福岡県"
"33.5680545","130.4294419","綾杉酒造場","あやすぎしゅぞうじょう","〒815-0032","福岡県福岡市南区塩原1-12-37","福岡県"
"33.6065756","130.418297","福岡銘酒会","ふくおかめいしゅかい","","","福岡県"
"33.5988875","130.417689","石蔵酒造","いしくらしゅぞう","〒812-0043","福岡県博多区堅粕1-30-1","福岡県"
"33.2458022","130.4020056","筑紫の誉酒造","ちくしのほまれしゅぞう","〒830－0222","福岡県久留米市城島町青木島181","福岡県"
"33.5919738","130.3929717","花関酒造","はなのせきしゅぞう","〒810-0073","福岡県福岡市中央区舞鶴1-3-43","福岡県"
"33.2387525","130.3872321","清力酒造","せいりきしゅぞう","〒831-0008","福岡県大川市大字鐘ヶ江9番地の1","福岡県"
"33.2326697","130.3850602","若波酒造","わかなみしゅぞう","〒831-0008","福岡県大川市鐘ヶ江752","福岡県"
"33.2447071","130.369204","中酒造","たなかしゅぞう","〒840-0004","佐賀県佐賀市蓮池町小松338","佐賀県"
"32.780956","130.3675809","山崎本店酒造場","やまさきほんてんしゅぞうじょう","〒855-0807","長崎県島原市白土町1065","長崎県"
"32.8521941","130.3314209","加藤酒造場","かとうしゅぞうじょう","〒859-1415","長崎県島原市有明町大三東戊1216-1","長崎県"
"33.18714","130.3185157","吉武酒造場","よしたけしゅぞうじょう","〒840-2212","佐賀県佐賀市川副町犬井道735","佐賀県"
"32.6694043","130.3066045","吉田屋","よしだや","〒859-2202","長崎県南島原市有家町山川785","長崎県"
"32.6707152","130.3008021","浦川酒造","うらかわしゅぞう","〒859-2202","長崎県南島原市有家町山川1123","長崎県"
"33.3102886","130.284377","大和酒造","やまとしゅぞう","〒840-0201","佐賀県大和町尼寺2620","佐賀県"
"31.7463864","130.2836713","濱田酒造 薩摩金山蔵","はまだしゅぞう さつまきんざんぐら","〒896-0073","鹿児島県いちき串木野市野下13665","鹿児島県"
"33.2233068","130.2515769","窓乃梅酒造","まどのうめしゅぞう","〒849-0203","佐賀県佐賀市久保田町新田1833-1640","佐賀県"
"33.5905064","130.2197353","浜地酒造","はまちしゅぞう","〒819-0385","福岡県福岡市西区元岡1442","福岡県"
"33.2989207","130.2024635","小柳酒造","こやなぎしゅぞう","〒845-0001","佐賀県小城市小城町903","佐賀県"
"32.8430048","130.1966716","伊藤酒造場","いとうしゅぞうじょう","〒859-1104","長崎県雲仙市吾妻町241","長崎県"
"33.3113388","130.1933057","天山酒造","てんざんしゅぞう","〒845-0003","佐賀県小城市小城町岩蔵1520","佐賀県"
"33.5205884","130.1904139","白糸酒造","しらいとしゅぞう","〒819-1151","福岡県糸島市本1986","福岡県"
"32.8214735","130.165721","あい娘酒造","あいむすめしゅぞう","〒854-0301","長崎県雲仙市愛野町1378","長崎県"
"33.275186","130.1452636","東鶴酒造","あずまつるしゅぞう","〒846-0012","佐賀県多久市東多久町別府3625-1","佐賀県"
"33.2258444","130.1434398","中島酒造","なかしましゅぞう","〒849-0506","佐賀県杵島郡江北町上小田1503","佐賀県"
"33.0924279","130.1182179","峰松一清酒造場","みねまつかずきよしゅぞうじょう","〒849-1322","佐賀県鹿島市浜町2761‐2","佐賀県"
"33.092789","130.1173263","光武酒造場","みつたけしゅぞうじょう","〒849-1322","佐賀県鹿島市浜町乙2421","佐賀県"
"33.0914058","130.1156321","水頭酒造場","すいとうしゅぞうじょう","〒849-1322","佐賀県鹿島市浜町4094","佐賀県"
"33.09375","130.1150459","富久千代酒造","ふくちよしゅぞう","〒849-1322","佐賀県鹿島市浜町1244","佐賀県"
"33.0892421","130.1099855","幸姫酒造","さちひめしゅぞう","〒849-1321","佐賀県鹿島市古枝甲599","佐賀県"
"33.1011767","130.0851594","矢野酒造","やのしゅぞう","〒849-1311","佐賀県鹿島市高津原3903-1","佐賀県"
"33.0782315","130.0665903","馬場酒造場","ばばしゅぞうじょう","〒849-1315","佐賀県鹿島市三河内乙1365","佐賀県"
"33.1236386","130.0595214","五町田酒造","ごちょうだしゅぞう","〒849-1425","佐賀県嬉野市塩田町五町田甲2081","佐賀県"
"33.1236386","130.0595214","瀬頭酒造","せとうしゅぞう","〒849-1425","佐賀県嬉野市塩田町五町田甲3117","佐賀県"
"32.8220009","130.0334939","杵の川","きのかわ","〒854-0056","長崎県諫早市土師野尾町17-4","長崎県"
"33.3506676","130.0228475","小松酒造","こまつしゅぞう","〒849-3211","佐賀県唐津市相知町千束1489","佐賀県"
"33.0970521","129.9865285","井手酒造","いでしゅぞう","〒843-0301","佐賀県嬉野市嬉野町下宿乙806-1","佐賀県"
"33.4357968","129.9466626","鳴滝酒造","なるたきしゅぞう","〒847-0824","佐賀県唐津市神田3272-1","佐賀県"
"33.1618104","129.9082382","宗政酒造","むねまさしゅぞう","〒844-0014","佐賀県西松浦郡有田町戸矢乙340-28","佐賀県"
"33.2684416","129.8999006","樋渡酒造場","ひわたししゅぞうじょう","〒848-0022","佐賀県伊万里市大坪町乙4482","佐賀県"
"33.1364096","129.896415","今里酒造","いまざとしゅぞう","〒859-3715","長崎県東彼杵郡波佐見町宿郷596","長崎県"
"33.3714278","129.8685579","田中酒造","たなかしゅぞう","〒848-0101","佐賀県伊万里市波多津町辻905","佐賀県"
"33.2188986","129.8518527","松尾酒造場","まつおしゅぞうじょう","〒849-4154","佐賀県西松浦郡有田町大木宿乙617","佐賀県"
"33.244415","129.8514466","古伊万里酒造","こいまりしゅぞう","〒848-0034","佐賀県伊万里市二里町中里甲3288-1","佐賀県"
"33.2956811","129.8242539","松浦一酒造","まつうらいちしゅぞう","〒849-4251","佐賀県伊万里市山代町楠久312","佐賀県"
"33.0898956","129.8146395","梅ヶ枝酒造","うめがえしゅぞう","〒859-3237","長崎県佐世保市城間町317","長崎県"
"33.3088876","129.8118602","川浪酒造","かわなみしゅぞう","〒849-4256","佐賀県伊万里市山代町久原1629","佐賀県"
"33.7835145","129.7319164","壱岐焼酎協業組合","いきしょうちゅうきょうぎょうくみあい","〒811-5753","長崎県壱岐市芦辺町湯岳本村触520","大分県"
"33.7492391","129.6963097","重家酒造 第一工場醸","おもやしゅぞう","〒811-5133","長崎県壱岐市郷ノ浦町本村触704","大分県"
"33.2026325","129.6802519","西牟田酒造場","にしむたしゅぞうじょう","〒858-0904","長崎県佐世保市中里町129","長崎県"
"33.3105837","129.6266673","潜龍酒造","せんりゅうしゅぞう","〒859-6101","長崎県北松浦郡江迎町長坂209","長崎県"
"33.3660454","129.5539852","森酒造場","もりしゅぞうじょう","〒859-5115","長崎県平戸市新町31-2","長崎県"
"33.1996374","129.4038588","福田酒造","ふくだしゅぞう","〒859-5533","長崎県平戸市志々伎町1475","長崎県"
"34.2599379","129.3050562","河内酒造","かわちしゅぞう","〒817-0322","長崎県対馬市美津町鶏知甲490-1","大分県"
"26.3688685","127.8520586","泰石酒造","たいこくしゅぞう","〒904-2221","沖縄県うるま市平良川90","沖縄県"
